{"type":"FeatureCollection","name":"Límite ZOIT Isla de Maipo","crs_note":"Coordinates stored as longitude/latitude in EPSG:4326; web display uses Web Mercator.","features":[{"type":"Feature","properties":{"name":"","source_name":"","source":"Isla de Maipo (2).kmz","descripción":"","tessellate":"-1","extrude":"0","visibility":"-1","drawOrder":"0","OBJECTID":"2579.000000000000000","ROL":"G-464","NOMBRE":"Cruce G-450 - Las Parcelas","CARPETA":"Pavimento Básico","REGION":"Región Metropolitana de Santiago","ENROLADO":"Sí","CONCESIONA":"No","SHAPE_Leng":"0.008371539400000","id":"1"},"geometry":{"type":"Polygon","coordinates":[[[-70.857358,-33.711012],[-70.85738,-33.711004],[-70.857449,-33.711222],[-70.857431,-33.711504],[-70.85731,-33.711767],[-70.857098,-33.711986],[-70.856814,-33.712139],[-70.856754,-33.712162],[-70.856677,-33.712192],[-70.856642,-33.712204],[-70.856549,-33.712237],[-70.856438,-33.71227],[-70.856395,-33.712281],[-70.85635,-33.712297],[-70.856254,-33.71233],[-70.85616,-33.712362],[-70.8561,-33.712381],[-70.856022,-33.712404],[-70.855988,-33.712415],[-70.855985,-33.712428],[-70.855961,-33.712501],[-70.855937,-33.712579],[-70.855936,-33.712582],[-70.855916,-33.712647],[-70.855898,-33.712716],[-70.855893,-33.712732],[-70.855868,-33.712818],[-70.855867,-33.712821],[-70.855844,-33.712903],[-70.855819,-33.712989],[-70.855817,-33.712997],[-70.855793,-33.71308],[-70.855769,-33.713167],[-70.855765,-33.713182],[-70.855738,-33.713276],[-70.85571,-33.713374],[-70.855709,-33.713379],[-70.855681,-33.713471],[-70.855655,-33.713566],[-70.855628,-33.713668],[-70.855628,-33.71367],[-70.8556,-33.713775],[-70.855598,-33.713781],[-70.855569,-33.713883],[-70.85554,-33.71399],[-70.855537,-33.714],[-70.855506,-33.714109],[-70.855501,-33.714124],[-70.855468,-33.714233],[-70.855465,-33.714241],[-70.855432,-33.714343],[-70.855401,-33.714446],[-70.855369,-33.714554],[-70.855337,-33.714666],[-70.855336,-33.714668],[-70.855305,-33.714777],[-70.855304,-33.714779],[-70.855272,-33.714888],[-70.85524,-33.714997],[-70.855236,-33.715008],[-70.855205,-33.715108],[-70.855177,-33.715203],[-70.855149,-33.715297],[-70.855146,-33.715307],[-70.855143,-33.715316],[-70.855582,-33.71591],[-70.856264,-33.716206],[-70.85689,-33.716616],[-70.857403,-33.717124],[-70.857616,-33.718072],[-70.857497,-33.718816],[-70.85729,-33.719948],[-70.857177,-33.721836],[-70.857142,-33.724483],[-70.857266,-33.724488],[-70.857322,-33.724491],[-70.857526,-33.724509],[-70.857704,-33.724517],[-70.85779,-33.72452],[-70.857815,-33.724521],[-70.857992,-33.72453],[-70.858017,-33.72453],[-70.858106,-33.724533],[-70.858149,-33.724536],[-70.858348,-33.724549],[-70.858556,-33.724559],[-70.858572,-33.72456],[-70.85881,-33.724573],[-70.859034,-33.724583],[-70.859058,-33.724584],[-70.859294,-33.724599],[-70.859295,-33.724599],[-70.859516,-33.724613],[-70.8596,-33.724616],[-70.859518,-33.723945],[-70.859772,-33.723167],[-70.860088,-33.722697],[-70.860076,-33.722569],[-70.860155,-33.722295],[-70.860331,-33.722054],[-70.860587,-33.721871],[-70.860899,-33.721762],[-70.861045,-33.721753],[-70.86149,-33.721432],[-70.862195,-33.721002],[-70.862998,-33.720668],[-70.864051,-33.720297],[-70.864835,-33.719931],[-70.86602,-33.719429],[-70.867015,-33.719011],[-70.868447,-33.718328],[-70.869517,-33.717828],[-70.870804,-33.717123],[-70.871301,-33.716906],[-70.871867,-33.716761],[-70.872499,-33.716557],[-70.873066,-33.71646],[-70.873623,-33.716331],[-70.874198,-33.716153],[-70.874889,-33.715965],[-70.875932,-33.715594],[-70.876343,-33.715411],[-70.876821,-33.715194],[-70.877229,-33.714897],[-70.877472,-33.714547],[-70.877841,-33.714211],[-70.878231,-33.713971],[-70.879106,-33.713813],[-70.879952,-33.713687],[-70.882377,-33.7134],[-70.883214,-33.713282],[-70.884041,-33.713165],[-70.885977,-33.713039],[-70.887479,-33.712919],[-70.888403,-33.712808],[-70.889212,-33.712755],[-70.890127,-33.712669],[-70.891445,-33.712504],[-70.892774,-33.712395],[-70.89346,-33.712449],[-70.894158,-33.712591],[-70.894883,-33.712669],[-70.895665,-33.712689],[-70.896677,-33.712649],[-70.897794,-33.712559],[-70.898682,-33.712562],[-70.899782,-33.712569],[-70.900535,-33.71263],[-70.901406,-33.712754],[-70.902161,-33.712839],[-70.902953,-33.712899],[-70.903658,-33.712834],[-70.904298,-33.713056],[-70.90513,-33.713172],[-70.906338,-33.713734],[-70.906726,-33.713902],[-70.907087,-33.713896],[-70.907917,-33.713755],[-70.909178,-33.713529],[-70.910759,-33.713814],[-70.912306,-33.713996],[-70.913394,-33.714341],[-70.913528,-33.714777],[-70.913304,-33.715813],[-70.913284,-33.716172],[-70.913552,-33.716218],[-70.914386,-33.716399],[-70.915158,-33.716419],[-70.916414,-33.716529],[-70.917608,-33.716397],[-70.919092,-33.716342],[-70.920231,-33.716356],[-70.920833,-33.716508],[-70.921513,-33.716732],[-70.922328,-33.716953],[-70.922389,-33.716983],[-70.922606,-33.716802],[-70.9228,-33.716636],[-70.922908,-33.716544],[-70.923171,-33.716318],[-70.923243,-33.716254],[-70.923272,-33.716269],[-70.923342,-33.716345],[-70.923457,-33.716473],[-70.923544,-33.71657],[-70.923605,-33.716638],[-70.923836,-33.716766],[-70.923863,-33.716781],[-70.923884,-33.716793],[-70.923956,-33.716833],[-70.924004,-33.716845],[-70.924042,-33.716854],[-70.924049,-33.716856],[-70.924069,-33.716861],[-70.924096,-33.716868],[-70.924099,-33.716869],[-70.924142,-33.716879],[-70.924353,-33.716897],[-70.924577,-33.716901],[-70.924718,-33.716878],[-70.924741,-33.716874],[-70.924955,-33.716839],[-70.925052,-33.716823],[-70.925112,-33.716819],[-70.925117,-33.716968],[-70.925023,-33.717239],[-70.924834,-33.717473],[-70.924739,-33.717557],[-70.924727,-33.717567],[-70.92453,-33.717737],[-70.924778,-33.717785],[-70.925184,-33.717819],[-70.925811,-33.717809],[-70.926434,-33.717647],[-70.92703,-33.717524],[-70.927478,-33.717292],[-70.927509,-33.717277],[-70.927627,-33.717324],[-70.927742,-33.717369],[-70.927792,-33.717389],[-70.927979,-33.71742],[-70.928085,-33.717438],[-70.92825,-33.717431],[-70.928254,-33.717431],[-70.928546,-33.717395],[-70.928611,-33.717369],[-70.928693,-33.717337],[-70.928727,-33.717319],[-70.928962,-33.717196],[-70.929555,-33.716885],[-70.929636,-33.716842],[-70.92981,-33.71675],[-70.929858,-33.716725],[-70.930022,-33.716597],[-70.930033,-33.716584],[-70.930034,-33.716583],[-70.930149,-33.716448],[-70.930181,-33.716404],[-70.930297,-33.716247],[-70.930327,-33.716227],[-70.930368,-33.716223],[-70.930903,-33.716087],[-70.93094,-33.716084],[-70.931118,-33.716091],[-70.931397,-33.716113],[-70.931655,-33.7161],[-70.931755,-33.716058],[-70.931758,-33.716057],[-70.93188,-33.716005],[-70.932198,-33.715829],[-70.932469,-33.715738],[-70.932482,-33.715734],[-70.93267,-33.715705],[-70.932803,-33.715684],[-70.932959,-33.715671],[-70.933271,-33.715646],[-70.933331,-33.715642],[-70.933859,-33.715607],[-70.933862,-33.715606],[-70.934182,-33.715585],[-70.934881,-33.715455],[-70.935305,-33.715377],[-70.935858,-33.715329],[-70.935883,-33.715327],[-70.935886,-33.715327],[-70.935887,-33.715326],[-70.93589,-33.715326],[-70.936049,-33.715312],[-70.936175,-33.715302],[-70.936193,-33.715301],[-70.936208,-33.715301],[-70.936212,-33.715301],[-70.936312,-33.715298],[-70.936482,-33.715294],[-70.936863,-33.715276],[-70.936884,-33.715275],[-70.936923,-33.715273],[-70.936946,-33.715271],[-70.937053,-33.715259],[-70.937095,-33.715254],[-70.937103,-33.715253],[-70.937165,-33.715246],[-70.937241,-33.715225],[-70.937654,-33.715107],[-70.937704,-33.715088],[-70.937768,-33.715063],[-70.937916,-33.715004],[-70.93804,-33.714956],[-70.938558,-33.714753],[-70.938871,-33.71463],[-70.938891,-33.714622],[-70.939009,-33.714576],[-70.939066,-33.714555],[-70.939205,-33.714505],[-70.939357,-33.71445],[-70.939966,-33.71446],[-70.941432,-33.714453],[-70.942139,-33.714579],[-70.942811,-33.714842],[-70.943365,-33.715043],[-70.94411,-33.715152],[-70.945112,-33.71508],[-70.945941,-33.715067],[-70.946859,-33.715101],[-70.947515,-33.715107],[-70.948027,-33.715155],[-70.948305,-33.715132],[-70.948575,-33.715493],[-70.949355,-33.715836],[-70.950032,-33.715906],[-70.951113,-33.715953],[-70.952329,-33.71595],[-70.952989,-33.716133],[-70.954114,-33.716405],[-70.955299,-33.716774],[-70.956935,-33.717441],[-70.957343,-33.717564],[-70.958172,-33.717502],[-70.958714,-33.71759],[-70.959334,-33.717693],[-70.959839,-33.717863],[-70.9604,-33.717902],[-70.961905,-33.717894],[-70.962863,-33.717637],[-70.964099,-33.71765],[-70.965027,-33.717748],[-70.965725,-33.717882],[-70.966615,-33.717981],[-70.967461,-33.717854],[-70.968485,-33.717935],[-70.969471,-33.718016],[-70.970268,-33.718277],[-70.970848,-33.718332],[-70.971699,-33.718399],[-70.972555,-33.718445],[-70.972602,-33.718456],[-70.972728,-33.718483],[-70.972828,-33.718505],[-70.972962,-33.718534],[-70.973457,-33.718624],[-70.973849,-33.718695],[-70.973948,-33.718713],[-70.974634,-33.718747],[-70.975528,-33.718701],[-70.976858,-33.718739],[-70.977241,-33.71875],[-70.97779,-33.718822],[-70.977861,-33.718841],[-70.979515,-33.719282],[-70.979625,-33.719312],[-70.981398,-33.719797],[-70.982615,-33.720666],[-70.983509,-33.721061],[-70.983863,-33.721217],[-70.983916,-33.72124],[-70.984229,-33.721379],[-70.98426,-33.721392],[-70.984549,-33.721533],[-70.984659,-33.721587],[-70.985313,-33.721905],[-70.985627,-33.722059],[-70.986928,-33.722693],[-70.98888,-33.723085],[-70.989089,-33.723127],[-70.991541,-33.723151],[-70.993058,-33.723189],[-70.994048,-33.723032],[-70.994381,-33.722978],[-70.995657,-33.722326],[-70.997414,-33.721428],[-70.99799,-33.721232],[-70.999793,-33.720617],[-70.999905,-33.720579],[-71.00024,-33.720464],[-71.000829,-33.720264],[-71.00122,-33.720095],[-71.001567,-33.720047],[-71.001763,-33.719861],[-71.001921,-33.719793],[-71.001957,-33.719807],[-71.001997,-33.719855],[-71.002036,-33.719886],[-71.002076,-33.719918],[-71.002114,-33.719917],[-71.002153,-33.719917],[-71.002191,-33.719916],[-71.00223,-33.719915],[-71.002269,-33.719915],[-71.002307,-33.719914],[-71.002345,-33.719897],[-71.002384,-33.719881],[-71.002422,-33.71988],[-71.002441,-33.719847],[-71.002479,-33.719847],[-71.002498,-33.719814],[-71.002536,-33.719798],[-71.002574,-33.719781],[-71.002613,-33.71978],[-71.002651,-33.719763],[-71.00269,-33.719763],[-71.002728,-33.719746],[-71.002766,-33.719729],[-71.002805,-33.719729],[-71.002843,-33.719728],[-71.002882,-33.719727],[-71.00292,-33.719711],[-71.002958,-33.719694],[-71.002996,-33.719677],[-71.003035,-33.719677],[-71.003073,-33.71966],[-71.003111,-33.719643],[-71.003149,-33.719626],[-71.003188,-33.71961],[-71.003226,-33.719593],[-71.003264,-33.719592],[-71.003302,-33.719559],[-71.00336,-33.719542],[-71.003398,-33.719542],[-71.003436,-33.719509],[-71.003474,-33.719492],[-71.003513,-33.719475],[-71.003531,-33.719443],[-71.003569,-33.719426],[-71.003608,-33.719409],[-71.003645,-33.719376],[-71.003684,-33.719376],[-71.003722,-33.719359],[-71.00376,-33.719342],[-71.003799,-33.719326],[-71.003837,-33.719309],[-71.003875,-33.719292],[-71.003914,-33.719291],[-71.003952,-33.719275],[-71.00399,-33.719274],[-71.004029,-33.719257],[-71.004086,-33.719256],[-71.004144,-33.719256],[-71.004182,-33.719239],[-71.00424,-33.719222],[-71.004298,-33.719221],[-71.004336,-33.719188],[-71.004374,-33.719171],[-71.004432,-33.71917],[-71.00447,-33.719153],[-71.004527,-33.719136],[-71.004566,-33.719136],[-71.004605,-33.719135],[-71.004643,-33.719118],[-71.0047,-33.719101],[-71.004739,-33.719101],[-71.004777,-33.719084],[-71.004816,-33.719083],[-71.004854,-33.719083],[-71.004893,-33.719082],[-71.004931,-33.719081],[-71.004969,-33.719065],[-71.005008,-33.719064],[-71.005047,-33.719063],[-71.005085,-33.719063],[-71.005124,-33.719062],[-71.005181,-33.719045],[-71.00522,-33.719045],[-71.005258,-33.719044],[-71.005297,-33.719027],[-71.005355,-33.719026],[-71.005393,-33.719026],[-71.005432,-33.719025],[-71.00547,-33.719024],[-71.005528,-33.719023],[-71.005566,-33.719007],[-71.005605,-33.719006],[-71.005643,-33.718989],[-71.005682,-33.718989],[-71.00572,-33.718988],[-71.005758,-33.718971],[-71.005797,-33.718971],[-71.005836,-33.71897],[-71.005874,-33.718969],[-71.005913,-33.718969],[-71.005951,-33.718936],[-71.005989,-33.718935],[-71.006028,-33.718935],[-71.006066,-33.718934],[-71.006104,-33.718917],[-71.006143,-33.718901],[-71.006181,-33.718884],[-71.006219,-33.718883],[-71.006258,-33.718883],[-71.006297,-33.718882],[-71.006335,-33.718881],[-71.006374,-33.718881],[-71.006412,-33.71888],[-71.006451,-33.718896],[-71.00649,-33.718895],[-71.006529,-33.71891],[-71.006567,-33.71891],[-71.006606,-33.718909],[-71.006645,-33.718909],[-71.006683,-33.718908],[-71.006722,-33.718907],[-71.00676,-33.718907],[-71.006799,-33.718906],[-71.006837,-33.718905],[-71.006876,-33.718905],[-71.006915,-33.718904],[-71.006953,-33.718904],[-71.007011,-33.718903],[-71.00705,-33.718902],[-71.007088,-33.718901],[-71.007146,-33.7189],[-71.007185,-33.7189],[-71.007242,-33.718899],[-71.007281,-33.718898],[-71.00732,-33.718898],[-71.007359,-33.718913],[-71.007398,-33.718929],[-71.007436,-33.718928],[-71.007475,-33.718927],[-71.007513,-33.718927],[-71.007552,-33.718926],[-71.00759,-33.718925],[-71.007629,-33.718925],[-71.007668,-33.718924],[-71.007706,-33.718924],[-71.007745,-33.718923],[-71.007783,-33.718922],[-71.007822,-33.718922],[-71.00786,-33.718921],[-71.007899,-33.71892],[-71.007938,-33.71892],[-71.007976,-33.718919],[-71.008015,-33.718919],[-71.008053,-33.718918],[-71.008092,-33.718917],[-71.00813,-33.718917],[-71.008169,-33.718916],[-71.008208,-33.718915],[-71.008246,-33.718915],[-71.008285,-33.718914],[-71.008323,-33.718913],[-71.008362,-33.718913],[-71.008401,-33.718912],[-71.008439,-33.718912],[-71.008478,-33.718911],[-71.008516,-33.71891],[-71.008555,-33.71891],[-71.008593,-33.718909],[-71.008632,-33.718908],[-71.008671,-33.718924],[-71.00871,-33.718939],[-71.008748,-33.718939],[-71.008787,-33.718938],[-71.008826,-33.718954],[-71.008865,-33.718953],[-71.008903,-33.718952],[-71.008942,-33.718968],[-71.008981,-33.718967],[-71.00902,-33.718983],[-71.009058,-33.718982],[-71.009097,-33.718998],[-71.009136,-33.719013],[-71.009175,-33.719029],[-71.009214,-33.719028],[-71.009253,-33.71906],[-71.009292,-33.719059],[-71.00933,-33.719074],[-71.009369,-33.71909],[-71.009408,-33.719105],[-71.009447,-33.719121],[-71.009486,-33.719136],[-71.009525,-33.719136],[-71.009564,-33.719151],[-71.009602,-33.719151],[-71.009622,-33.719183],[-71.009661,-33.719182],[-71.0097,-33.719197],[-71.009758,-33.719213],[-71.009797,-33.719228],[-71.009836,-33.719227],[-71.009875,-33.719243],[-71.009914,-33.719258],[-71.009952,-33.719258],[-71.009992,-33.719289],[-71.01003,-33.719305],[-71.010069,-33.719304],[-71.010108,-33.719304],[-71.010147,-33.719335],[-71.010186,-33.719351],[-71.010224,-33.71935],[-71.010263,-33.719366],[-71.010302,-33.719381],[-71.01036,-33.71938],[-71.010399,-33.71938],[-71.010437,-33.719379],[-71.010477,-33.719411],[-71.010515,-33.71941],[-71.010554,-33.719409],[-71.010593,-33.719425],[-71.010631,-33.719424],[-71.010651,-33.719456],[-71.01069,-33.719455],[-71.010729,-33.719455],[-71.010768,-33.71947],[-71.010806,-33.719486],[-71.010845,-33.719501],[-71.010884,-33.719517],[-71.010923,-33.719516],[-71.010962,-33.719532],[-71.011,-33.719531],[-71.01104,-33.719563],[-71.011078,-33.719562],[-71.011137,-33.719577],[-71.011175,-33.719577],[-71.011214,-33.719576],[-71.011252,-33.719575],[-71.011291,-33.719591],[-71.01135,-33.719606],[-71.011389,-33.719621],[-71.011446,-33.71962],[-71.011485,-33.71962],[-71.011524,-33.719619],[-71.011562,-33.719635],[-71.011601,-33.71965],[-71.01164,-33.71965],[-71.011679,-33.719665],[-71.011718,-33.719681],[-71.011757,-33.719696],[-71.011796,-33.719712],[-71.011834,-33.719711],[-71.011873,-33.71971],[-71.011912,-33.71971],[-71.011951,-33.719725],[-71.011989,-33.719725],[-71.012028,-33.71974],[-71.012067,-33.719739],[-71.012105,-33.719739],[-71.012144,-33.719738],[-71.012183,-33.719754],[-71.012203,-33.719786],[-71.012241,-33.719785],[-71.01228,-33.719784],[-71.0123,-33.719816],[-71.012339,-33.719832],[-71.012377,-33.719831],[-71.012398,-33.719863],[-71.012436,-33.719878],[-71.012495,-33.71991],[-71.012515,-33.719942],[-71.012554,-33.719957],[-71.012593,-33.719973],[-71.012632,-33.719988],[-71.012652,-33.72002],[-71.012691,-33.720036],[-71.01273,-33.720051],[-71.012769,-33.720083],[-71.012808,-33.720098],[-71.012848,-33.72013],[-71.012886,-33.720129],[-71.012906,-33.720161],[-71.012945,-33.720177],[-71.012984,-33.720208],[-71.013023,-33.720224],[-71.013062,-33.720223],[-71.013082,-33.720255],[-71.013121,-33.720254],[-71.013141,-33.720286],[-71.013179,-33.720286],[-71.013218,-33.720301],[-71.013238,-33.720333],[-71.013277,-33.720348],[-71.013316,-33.72038],[-71.013355,-33.720396],[-71.013394,-33.720395],[-71.013414,-33.720427],[-71.013453,-33.720458],[-71.013492,-33.720474],[-71.013531,-33.720489],[-71.013551,-33.720521],[-71.01359,-33.720521],[-71.01361,-33.720553],[-71.013649,-33.720552],[-71.013669,-33.720584],[-71.013708,-33.720599],[-71.013746,-33.720599],[-71.013766,-33.720631],[-71.013805,-33.72063],[-71.013825,-33.720662],[-71.013864,-33.720678],[-71.013903,-33.720693],[-71.013923,-33.720725],[-71.013962,-33.720757],[-71.013982,-33.720788],[-71.014021,-33.720804],[-71.014041,-33.720836],[-71.014061,-33.720868],[-71.0141,-33.720883],[-71.014101,-33.720915],[-71.01414,-33.720947],[-71.01416,-33.720979],[-71.014199,-33.720995],[-71.014219,-33.721026],[-71.014239,-33.721058],[-71.014278,-33.721058],[-71.014298,-33.72109],[-71.014337,-33.721105],[-71.014357,-33.721137],[-71.014396,-33.721153],[-71.014435,-33.721184],[-71.014474,-33.7212],[-71.014494,-33.721232],[-71.014533,-33.721231],[-71.014533,-33.721263],[-71.014572,-33.721279],[-71.014611,-33.721294],[-71.01465,-33.72131],[-71.01467,-33.721342],[-71.014709,-33.721341],[-71.014748,-33.721373],[-71.014788,-33.721404],[-71.014827,-33.72142],[-71.014865,-33.721435],[-71.014904,-33.721451],[-71.014943,-33.721466],[-71.014983,-33.721498],[-71.015022,-33.721529],[-71.015061,-33.721545],[-71.015081,-33.721577],[-71.01512,-33.721576],[-71.01514,-33.721608],[-71.015179,-33.721623],[-71.015179,-33.721656],[-71.015218,-33.721655],[-71.015219,-33.721687],[-71.015257,-33.721687],[-71.015277,-33.721719],[-71.015316,-33.721734],[-71.015336,-33.721766],[-71.015376,-33.721798],[-71.015396,-33.72183],[-71.015435,-33.721845],[-71.015455,-33.721877],[-71.015475,-33.721909],[-71.015513,-33.721908],[-71.015514,-33.72194],[-71.015553,-33.721956],[-71.015573,-33.721988],[-71.015593,-33.72202],[-71.015632,-33.722035],[-71.015652,-33.722067],[-71.015672,-33.722099],[-71.015711,-33.722115],[-71.015712,-33.722147],[-71.015751,-33.722162],[-71.015771,-33.722194],[-71.01581,-33.72221],[-71.01583,-33.722242],[-71.01585,-33.722274],[-71.01587,-33.722306],[-71.015909,-33.722321],[-71.015948,-33.722337],[-71.015949,-33.722369],[-71.015987,-33.722368],[-71.016007,-33.7224],[-71.016027,-33.722432],[-71.016047,-33.722464],[-71.016067,-33.722496],[-71.016087,-33.722528],[-71.016107,-33.72256],[-71.016127,-33.722592],[-71.016147,-33.722623],[-71.016148,-33.722656],[-71.016168,-33.722688],[-71.016169,-33.72272],[-71.016208,-33.722719],[-71.016208,-33.722751],[-71.016228,-33.722783],[-71.016248,-33.722815],[-71.016249,-33.722848],[-71.016269,-33.722879],[-71.016308,-33.722895],[-71.016328,-33.722927],[-71.016348,-33.722959],[-71.016368,-33.722991],[-71.016369,-33.723023],[-71.016408,-33.723055],[-71.016409,-33.723087],[-71.016449,-33.723118],[-71.016449,-33.723151],[-71.016469,-33.723183],[-71.016509,-33.723214],[-71.016509,-33.723246],[-71.016529,-33.723278],[-71.016549,-33.72331],[-71.01655,-33.723342],[-71.016589,-33.723358],[-71.016609,-33.72339],[-71.01661,-33.723422],[-71.016649,-33.723438],[-71.01665,-33.72347],[-71.01667,-33.723502],[-71.01669,-33.723534],[-71.01671,-33.723566],[-71.016711,-33.723598],[-71.01675,-33.723613],[-71.01677,-33.723645],[-71.016809,-33.723677],[-71.016848,-33.723708],[-71.016849,-33.723741],[-71.016869,-33.723773],[-71.016908,-33.723788],[-71.016909,-33.72382],[-71.016929,-33.723852],[-71.016949,-33.723884],[-71.01695,-33.723916],[-71.016989,-33.723932],[-71.016999,-33.723948],[-71.016989,-33.723948],[-71.01695,-33.723949],[-71.016951,-33.723981],[-71.016952,-33.724013],[-71.016953,-33.724045],[-71.016953,-33.724078],[-71.016954,-33.72411],[-71.016955,-33.724142],[-71.016956,-33.724174],[-71.016956,-33.724207],[-71.016976,-33.724238],[-71.016977,-33.724271],[-71.016978,-33.724303],[-71.016998,-33.724335],[-71.016999,-33.724367],[-71.017019,-33.724399],[-71.01702,-33.724431],[-71.01704,-33.724463],[-71.01706,-33.724495],[-71.01708,-33.724527],[-71.0171,-33.724559],[-71.0171,-33.724591],[-71.01712,-33.724623],[-71.01716,-33.724655],[-71.017161,-33.724703],[-71.017181,-33.724735],[-71.017201,-33.724767],[-71.017221,-33.724799],[-71.017241,-33.724831],[-71.017261,-33.724863],[-71.017281,-33.724895],[-71.017301,-33.724926],[-71.017302,-33.724959],[-71.017303,-33.724991],[-71.017323,-33.725023],[-71.017324,-33.725055],[-71.017324,-33.725087],[-71.017325,-33.72512],[-71.017326,-33.725152],[-71.017327,-33.725184],[-71.017327,-33.725216],[-71.017328,-33.725249],[-71.017329,-33.725281],[-71.01733,-33.725313],[-71.017311,-33.725346],[-71.017312,-33.725378],[-71.017313,-33.72541],[-71.017294,-33.725443],[-71.017276,-33.725475],[-71.017276,-33.725507],[-71.017277,-33.72554],[-71.017258,-33.725572],[-71.017259,-33.725604],[-71.01726,-33.725637],[-71.017261,-33.725669],[-71.017262,-33.725701],[-71.017262,-33.725733],[-71.017263,-33.725766],[-71.017264,-33.725798],[-71.017265,-33.72583],[-71.017265,-33.725862],[-71.017266,-33.725895],[-71.017267,-33.725927],[-71.017287,-33.725959],[-71.017288,-33.725991],[-71.017288,-33.726023],[-71.017308,-33.726055],[-71.017328,-33.726087],[-71.01733,-33.726135],[-71.01735,-33.726167],[-71.017389,-33.726199],[-71.01739,-33.726231],[-71.01741,-33.726263],[-71.01741,-33.726295],[-71.01745,-33.726327],[-71.01747,-33.726375],[-71.017471,-33.726407],[-71.017491,-33.726439],[-71.017492,-33.726487],[-71.017532,-33.726519],[-71.017552,-33.726551],[-71.017552,-33.726583],[-71.017592,-33.726631],[-71.017593,-33.726663],[-71.017613,-33.726695],[-71.017633,-33.726743],[-71.017654,-33.726791],[-71.017693,-33.726823],[-71.017713,-33.726855],[-71.017714,-33.726887],[-71.017753,-33.726918],[-71.017773,-33.72695],[-71.017774,-33.726983],[-71.017794,-33.727015],[-71.017814,-33.727046],[-71.017815,-33.727079],[-71.017854,-33.72711],[-71.017874,-33.727142],[-71.017875,-33.727174],[-71.017914,-33.727206],[-71.017915,-33.727238],[-71.017916,-33.727271],[-71.017955,-33.727302],[-71.017976,-33.72735],[-71.017976,-33.727382],[-71.018016,-33.727414],[-71.018017,-33.727462],[-71.018017,-33.727495],[-71.018038,-33.727527],[-71.018058,-33.727558],[-71.018058,-33.727591],[-71.018078,-33.727623],[-71.018079,-33.727655],[-71.01808,-33.727687],[-71.018118,-33.727686],[-71.018119,-33.727719],[-71.01812,-33.727751],[-71.018121,-33.727783],[-71.018141,-33.727815],[-71.018142,-33.727847],[-71.018142,-33.72788],[-71.018162,-33.727911],[-71.018182,-33.727943],[-71.018202,-33.727975],[-71.018222,-33.728007],[-71.018223,-33.728039],[-71.018243,-33.728071],[-71.018263,-33.728103],[-71.018283,-33.728135],[-71.018284,-33.728167],[-71.018285,-33.7282],[-71.018324,-33.728215],[-71.018325,-33.728247],[-71.018345,-33.728279],[-71.018365,-33.728311],[-71.018385,-33.728343],[-71.018405,-33.728375],[-71.018425,-33.728407],[-71.018426,-33.728439],[-71.018446,-33.728471],[-71.018485,-33.728503],[-71.018505,-33.728535],[-71.018525,-33.728567],[-71.018526,-33.728599],[-71.018565,-33.72863],[-71.018566,-33.728663],[-71.018586,-33.728695],[-71.018606,-33.728727],[-71.018626,-33.728758],[-71.018627,-33.728791],[-71.018628,-33.728823],[-71.018648,-33.728855],[-71.018668,-33.728887],[-71.018668,-33.728919],[-71.018669,-33.728951],[-71.018689,-33.728983],[-71.01869,-33.729015],[-71.018691,-33.729048],[-71.018711,-33.72908],[-71.018711,-33.729112],[-71.018732,-33.729144],[-71.018732,-33.729176],[-71.018733,-33.729208],[-71.018734,-33.72924],[-71.018772,-33.72924],[-71.018773,-33.729272],[-71.018774,-33.729304],[-71.018775,-33.729337],[-71.018775,-33.729369],[-71.018795,-33.729401],[-71.018796,-33.729433],[-71.018797,-33.729465],[-71.018817,-33.729497],[-71.018837,-33.729529],[-71.018857,-33.729561],[-71.018877,-33.729593],[-71.018878,-33.729625],[-71.018879,-33.729657],[-71.018918,-33.729673],[-71.018918,-33.729705],[-71.018919,-33.729737],[-71.018939,-33.729769],[-71.01894,-33.729801],[-71.018941,-33.729834],[-71.01898,-33.729849],[-71.019,-33.729881],[-71.019,-33.729913],[-71.019039,-33.729913],[-71.01904,-33.729945],[-71.019079,-33.72996],[-71.019099,-33.729992],[-71.019138,-33.730008],[-71.019158,-33.73004],[-71.019178,-33.730072],[-71.019217,-33.730087],[-71.019237,-33.730119],[-71.019276,-33.730135],[-71.019296,-33.730166],[-71.019335,-33.730182],[-71.019374,-33.730197],[-71.019412,-33.730197],[-71.019432,-33.730229],[-71.019471,-33.730228],[-71.01951,-33.730244],[-71.019548,-33.730243],[-71.019569,-33.730275],[-71.019607,-33.730274],[-71.019646,-33.730274],[-71.019685,-33.730289],[-71.019723,-33.730288],[-71.019762,-33.730288],[-71.019801,-33.730303],[-71.019839,-33.730303],[-71.019859,-33.730335],[-71.019898,-33.730334],[-71.019937,-33.730349],[-71.019975,-33.730349],[-71.020014,-33.730364],[-71.020053,-33.730364],[-71.020092,-33.730379],[-71.020131,-33.730395],[-71.02017,-33.730394],[-71.020208,-33.730409],[-71.020247,-33.730409],[-71.020286,-33.730408],[-71.020306,-33.73044],[-71.020344,-33.73044],[-71.020383,-33.730455],[-71.020422,-33.730454],[-71.020461,-33.73047],[-71.020499,-33.730469],[-71.020538,-33.730469],[-71.020577,-33.730468],[-71.020615,-33.730467],[-71.020654,-33.730483],[-71.020673,-33.730482],[-71.020683,-33.730507],[-71.021424,-33.730953],[-71.022202,-33.731398],[-71.023099,-33.73098],[-71.022937,-33.729338],[-71.022694,-33.726865],[-71.024128,-33.724829],[-71.026947,-33.723906],[-71.032559,-33.723607],[-71.038798,-33.723711],[-71.043618,-33.723889],[-71.048194,-33.724174],[-71.05185,-33.724681],[-71.052391,-33.726684],[-71.052708,-33.72962],[-71.050061,-33.729974],[-71.044386,-33.730223],[-71.041485,-33.730271],[-71.041573,-33.730484],[-71.041891,-33.731547],[-71.041808,-33.732679],[-71.041129,-33.733362],[-71.039912,-33.733672],[-71.038599,-33.733801],[-71.037526,-33.734032],[-71.036303,-33.734098],[-71.035299,-33.734161],[-71.034408,-33.734343],[-71.033273,-33.734255],[-71.032003,-33.733909],[-71.031014,-33.733788],[-71.029237,-33.733634],[-71.028672,-33.733689],[-71.027743,-33.733842],[-71.026801,-33.734194],[-71.025657,-33.734502],[-71.024673,-33.734625],[-71.023837,-33.734838],[-71.022968,-33.735188],[-71.022022,-33.735387],[-71.020714,-33.735729],[-71.019896,-33.73591],[-71.018781,-33.735913],[-71.01795,-33.735575],[-71.017859,-33.735387],[-71.017764,-33.735309],[-71.017645,-33.73518],[-71.017629,-33.735163],[-71.017453,-33.734877],[-71.017366,-33.73464],[-71.017357,-33.734614],[-71.017275,-33.734365],[-71.01719,-33.734122],[-71.017089,-33.733845],[-71.017084,-33.733829],[-71.017059,-33.733756],[-71.016953,-33.733561],[-71.016344,-33.732548],[-71.016037,-33.731911],[-71.016011,-33.730797],[-71.015779,-33.730281],[-71.015585,-33.729796],[-71.015264,-33.729343],[-71.014663,-33.72865],[-71.01409,-33.727621],[-71.013074,-33.72634],[-71.012948,-33.725639],[-71.012677,-33.725002],[-71.012278,-33.724367],[-71.011791,-33.723871],[-71.011125,-33.7235],[-71.009912,-33.723215],[-71.00886,-33.722759],[-71.00795,-33.722147],[-71.007034,-33.72207],[-71.006289,-33.722235],[-71.005576,-33.722232],[-71.004808,-33.722198],[-71.004039,-33.72215],[-71.002625,-33.722661],[-71.002124,-33.723097],[-71.001311,-33.723523],[-71.000604,-33.723763],[-71.000601,-33.723763],[-71.000391,-33.723899],[-71.000062,-33.724045],[-70.999743,-33.724131],[-70.999432,-33.724175],[-70.999083,-33.72418],[-70.99883,-33.72416],[-70.99852,-33.724103],[-70.998508,-33.724101],[-70.998489,-33.724127],[-70.998233,-33.724733],[-70.997681,-33.725383],[-70.996923,-33.725808],[-70.995915,-33.725656],[-70.995216,-33.725469],[-70.994393,-33.725452],[-70.993541,-33.72574],[-70.993314,-33.726202],[-70.99267,-33.726823],[-70.991578,-33.727788],[-70.991256,-33.728129],[-70.990917,-33.728486],[-70.990762,-33.728885],[-70.990537,-33.729439],[-70.98993,-33.730029],[-70.989574,-33.730447],[-70.989513,-33.730998],[-70.989306,-33.731535],[-70.989083,-33.732165],[-70.988108,-33.73267],[-70.987463,-33.733245],[-70.986563,-33.733824],[-70.985307,-33.734058],[-70.984434,-33.734256],[-70.983779,-33.734373],[-70.983142,-33.734521],[-70.982354,-33.734411],[-70.981981,-33.734081],[-70.9815,-33.73383],[-70.980824,-33.73384],[-70.979766,-33.733934],[-70.979148,-33.734112],[-70.978599,-33.734059],[-70.977936,-33.733841],[-70.97711,-33.733701],[-70.976509,-33.733803],[-70.975877,-33.734118],[-70.975081,-33.734497],[-70.974808,-33.734532],[-70.974331,-33.734464],[-70.973822,-33.734563],[-70.973037,-33.734622],[-70.972438,-33.734799],[-70.971854,-33.734839],[-70.971179,-33.734896],[-70.970688,-33.735011],[-70.969901,-33.734962],[-70.969405,-33.734878],[-70.968671,-33.734722],[-70.968137,-33.734563],[-70.967261,-33.734638],[-70.966773,-33.734844],[-70.966252,-33.735265],[-70.965607,-33.735825],[-70.965528,-33.736391],[-70.965562,-33.737047],[-70.965539,-33.737658],[-70.965405,-33.73821],[-70.965288,-33.738685],[-70.965057,-33.738964],[-70.96444,-33.739157],[-70.963655,-33.739185],[-70.962849,-33.739137],[-70.961753,-33.739154],[-70.960913,-33.739183],[-70.959876,-33.739413],[-70.959131,-33.739608],[-70.958383,-33.739666],[-70.957904,-33.739505],[-70.95746,-33.739268],[-70.95714,-33.738876],[-70.95695,-33.738543],[-70.956844,-33.737903],[-70.956835,-33.736727],[-70.956599,-33.735968],[-70.956477,-33.73545],[-70.955861,-33.73488],[-70.955272,-33.734691],[-70.954231,-33.734707],[-70.953479,-33.734627],[-70.952471,-33.734506],[-70.951775,-33.734441],[-70.951172,-33.73442],[-70.950094,-33.734437],[-70.949471,-33.73437],[-70.949119,-33.734177],[-70.948332,-33.734128],[-70.947744,-33.734016],[-70.94681,-33.733939],[-70.945804,-33.733878],[-70.944139,-33.733828],[-70.943121,-33.734073],[-70.94124,-33.734118],[-70.939852,-33.734201],[-70.938701,-33.734204],[-70.937805,-33.734202],[-70.936912,-33.734293],[-70.935819,-33.734493],[-70.935256,-33.734624],[-70.934637,-33.734726],[-70.933704,-33.734694],[-70.932967,-33.734462],[-70.932226,-33.734015],[-70.931706,-33.733657],[-70.931072,-33.733102],[-70.930438,-33.732531],[-70.929572,-33.731399],[-70.928606,-33.730712],[-70.92749,-33.729844],[-70.926688,-33.729123],[-70.925902,-33.72828],[-70.925192,-33.727604],[-70.924759,-33.72703],[-70.924251,-33.726366],[-70.923704,-33.725642],[-70.923349,-33.725281],[-70.922951,-33.725249],[-70.922747,-33.725391],[-70.922458,-33.725601],[-70.922419,-33.725629],[-70.922171,-33.725792],[-70.922136,-33.725815],[-70.921902,-33.725957],[-70.921893,-33.725962],[-70.921671,-33.726094],[-70.921655,-33.726103],[-70.921363,-33.726366],[-70.921362,-33.726367],[-70.921411,-33.726396],[-70.921495,-33.726452],[-70.921549,-33.726492],[-70.921657,-33.726584],[-70.9217,-33.726626],[-70.92174,-33.726664],[-70.92175,-33.726674],[-70.921792,-33.726715],[-70.921835,-33.726755],[-70.921855,-33.726775],[-70.921897,-33.726818],[-70.921916,-33.726837],[-70.92193,-33.726848],[-70.921966,-33.726877],[-70.922014,-33.726914],[-70.92207,-33.726956],[-70.922128,-33.727],[-70.922197,-33.727058],[-70.922251,-33.727106],[-70.922335,-33.727192],[-70.92238,-33.727246],[-70.922479,-33.727387],[-70.922512,-33.727445],[-70.922582,-33.727608],[-70.922601,-33.727671],[-70.922624,-33.72777],[-70.922635,-33.727838],[-70.922638,-33.72786],[-70.922647,-33.727927],[-70.922649,-33.72795],[-70.922656,-33.728016],[-70.922663,-33.728078],[-70.922671,-33.728143],[-70.922678,-33.728203],[-70.922681,-33.728223],[-70.922681,-33.728226],[-70.923131,-33.728598],[-70.923205,-33.728662],[-70.923262,-33.728673],[-70.92334,-33.72869],[-70.92341,-33.728707],[-70.923487,-33.728728],[-70.923494,-33.72873],[-70.92357,-33.728751],[-70.923705,-33.728798],[-70.923778,-33.728829],[-70.923842,-33.728858],[-70.923914,-33.728892],[-70.923983,-33.72893],[-70.924052,-33.728969],[-70.924071,-33.728981],[-70.924136,-33.72902],[-70.924247,-33.729097],[-70.9243,-33.729139],[-70.924349,-33.729177],[-70.924434,-33.729249],[-70.924489,-33.729302],[-70.924498,-33.72931],[-70.924553,-33.729364],[-70.924559,-33.72937],[-70.924613,-33.729423],[-70.924628,-33.729439],[-70.924679,-33.729492],[-70.924695,-33.729509],[-70.924743,-33.729562],[-70.924763,-33.729585],[-70.924809,-33.729638],[-70.924815,-33.729645],[-70.9249,-33.729668],[-70.924956,-33.729685],[-70.925078,-33.729723],[-70.925216,-33.729777],[-70.925263,-33.729799],[-70.925293,-33.729813],[-70.925346,-33.72984],[-70.925538,-33.729962],[-70.925588,-33.730002],[-70.925675,-33.73008],[-70.925718,-33.730124],[-70.925825,-33.730254],[-70.925861,-33.730307],[-70.925895,-33.73036],[-70.925925,-33.730414],[-70.925937,-33.730435],[-70.925966,-33.730489],[-70.925983,-33.730521],[-70.926012,-33.730538],[-70.926026,-33.730548],[-70.926043,-33.730559],[-70.926158,-33.730645],[-70.9262,-33.73068],[-70.926258,-33.730733],[-70.926293,-33.730769],[-70.926409,-33.730909],[-70.926438,-33.730954],[-70.926487,-33.731037],[-70.92651,-33.731081],[-70.926531,-33.731136],[-70.92668,-33.731215],[-70.927334,-33.731831],[-70.927845,-33.732633],[-70.928128,-33.733243],[-70.928179,-33.733263],[-70.928181,-33.733264],[-70.928227,-33.733282],[-70.928341,-33.733322],[-70.928373,-33.733334],[-70.928441,-33.73336],[-70.9285,-33.733384],[-70.928539,-33.733401],[-70.928577,-33.733416],[-70.928642,-33.733443],[-70.92871,-33.733474],[-70.92872,-33.733478],[-70.928786,-33.733509],[-70.928855,-33.733544],[-70.928919,-33.733579],[-70.928982,-33.733616],[-70.929044,-33.733656],[-70.92906,-33.733666],[-70.92912,-33.733706],[-70.929172,-33.733743],[-70.92923,-33.733788],[-70.929235,-33.733791],[-70.929277,-33.733823],[-70.929316,-33.733851],[-70.929363,-33.733886],[-70.929407,-33.733921],[-70.929448,-33.733951],[-70.929577,-33.734066],[-70.929623,-33.734115],[-70.929724,-33.734244],[-70.929759,-33.734298],[-70.929834,-33.734445],[-70.929857,-33.734503],[-70.929876,-33.734557],[-70.929894,-33.734615],[-70.929904,-33.734648],[-70.929919,-33.734707],[-70.929934,-33.734761],[-70.92995,-33.734819],[-70.929955,-33.734835],[-70.92997,-33.734898],[-70.929984,-33.734953],[-70.929998,-33.735003],[-70.930001,-33.735012],[-70.930017,-33.735075],[-70.930019,-33.735082],[-70.930035,-33.735145],[-70.930042,-33.735174],[-70.930056,-33.735242],[-70.930062,-33.735275],[-70.930073,-33.735338],[-70.93008,-33.735393],[-70.930086,-33.73546],[-70.930088,-33.735479],[-70.930092,-33.735547],[-70.930093,-33.735564],[-70.930096,-33.735627],[-70.930096,-33.735636],[-70.930099,-33.735704],[-70.930101,-33.735771],[-70.930101,-33.735775],[-70.930101,-33.735787],[-70.930774,-33.736115],[-70.931556,-33.736713],[-70.931913,-33.737128],[-70.931921,-33.737135],[-70.931958,-33.737166],[-70.931965,-33.737173],[-70.932016,-33.737217],[-70.932027,-33.737226],[-70.932066,-33.737261],[-70.932103,-33.737292],[-70.932124,-33.73731],[-70.932174,-33.737354],[-70.932256,-33.737436],[-70.932291,-33.737476],[-70.932379,-33.737594],[-70.932405,-33.737635],[-70.932442,-33.737699],[-70.932466,-33.737747],[-70.93249,-33.737795],[-70.932526,-33.737876],[-70.932538,-33.737907],[-70.932559,-33.737955],[-70.932574,-33.737993],[-70.932637,-33.73816],[-70.932643,-33.738168],[-70.932654,-33.738186],[-70.932666,-33.738199],[-70.932674,-33.738209],[-70.932692,-33.738228],[-70.932708,-33.738244],[-70.932749,-33.738287],[-70.932769,-33.73831],[-70.932788,-33.738329],[-70.932792,-33.738333],[-70.932826,-33.738368],[-70.932875,-33.738423],[-70.932908,-33.738463],[-70.932923,-33.738481],[-70.932954,-33.738521],[-70.932975,-33.738548],[-70.933004,-33.738588],[-70.933021,-33.738613],[-70.933049,-33.738653],[-70.93309,-33.73872],[-70.933115,-33.738765],[-70.933135,-33.738805],[-70.933157,-33.73885],[-70.933172,-33.738882],[-70.933191,-33.738927],[-70.933201,-33.738951],[-70.933218,-33.738996],[-70.933222,-33.739006],[-70.933239,-33.739051],[-70.933243,-33.739061],[-70.933259,-33.739105],[-70.933266,-33.739126],[-70.933281,-33.73917],[-70.933304,-33.739257],[-70.933314,-33.739307],[-70.933329,-33.739428],[-70.933331,-33.739477],[-70.933326,-33.739605],[-70.93332,-33.739654],[-70.933298,-33.739752],[-70.933699,-33.740192],[-70.934369,-33.740701],[-70.935019,-33.741164],[-70.935834,-33.741655],[-70.936579,-33.742239],[-70.936996,-33.742905],[-70.937348,-33.743953],[-70.937584,-33.744667],[-70.93811,-33.745315],[-70.938494,-33.746149],[-70.938711,-33.746833],[-70.938821,-33.747656],[-70.938861,-33.748617],[-70.93875,-33.749383],[-70.938353,-33.750412],[-70.937925,-33.751702],[-70.937315,-33.753025],[-70.936751,-33.753996],[-70.935969,-33.75497],[-70.935281,-33.756096],[-70.934971,-33.75694],[-70.934917,-33.757781],[-70.935537,-33.75852],[-70.936118,-33.759137],[-70.936479,-33.759772],[-70.936879,-33.760469],[-70.93704,-33.761123],[-70.936513,-33.762078],[-70.935446,-33.762629],[-70.934513,-33.763392],[-70.93349,-33.764248],[-70.932698,-33.764825],[-70.93165,-33.765376],[-70.930398,-33.765824],[-70.929599,-33.766065],[-70.928503,-33.766082],[-70.927804,-33.765925],[-70.92685,-33.765757],[-70.925822,-33.765574],[-70.92485,-33.765467],[-70.924061,-33.765342],[-70.923126,-33.765235],[-70.922303,-33.765202],[-70.921641,-33.765044],[-70.92107,-33.76487],[-70.920624,-33.764691],[-70.919546,-33.764877],[-70.917876,-33.76529],[-70.916937,-33.765627],[-70.916208,-33.7658],[-70.916096,-33.765827],[-70.91612,-33.765996],[-70.915394,-33.766111],[-70.913785,-33.766684],[-70.912944,-33.767084],[-70.912805,-33.767211],[-70.912692,-33.766614],[-70.912685,-33.766576],[-70.91202,-33.766646],[-70.911947,-33.766653],[-70.911398,-33.766704],[-70.911296,-33.766769],[-70.911248,-33.76681],[-70.911109,-33.766925],[-70.910573,-33.767375],[-70.90988,-33.769067],[-70.909753,-33.769377],[-70.90963,-33.769676],[-70.90961,-33.769739],[-70.90943,-33.770301],[-70.909313,-33.770825],[-70.909142,-33.771591],[-70.909049,-33.772023],[-70.908773,-33.773296],[-70.908447,-33.774365],[-70.908336,-33.774647],[-70.908084,-33.775286],[-70.907366,-33.776546],[-70.907281,-33.776698],[-70.906747,-33.777651],[-70.906662,-33.777822],[-70.906391,-33.778369],[-70.906271,-33.77861],[-70.906239,-33.778681],[-70.905895,-33.779445],[-70.905714,-33.779957],[-70.905634,-33.780405],[-70.905633,-33.780422],[-70.905611,-33.780892],[-70.905677,-33.781329],[-70.905683,-33.781631],[-70.90571,-33.781829],[-70.905717,-33.781913],[-70.905726,-33.782036],[-70.905766,-33.782288],[-70.905768,-33.782414],[-70.90577,-33.782477],[-70.905879,-33.782646],[-70.90561,-33.782854],[-70.905568,-33.782881],[-70.903985,-33.78271],[-70.90232,-33.782542],[-70.901237,-33.782446],[-70.899899,-33.782192],[-70.898868,-33.78187],[-70.897685,-33.781614],[-70.897656,-33.785581],[-70.897584,-33.786694],[-70.897246,-33.787135],[-70.896383,-33.78739],[-70.895787,-33.787512],[-70.895111,-33.78749],[-70.894546,-33.787289],[-70.894171,-33.786908],[-70.89403,-33.786825],[-70.89397,-33.786838],[-70.893881,-33.786863],[-70.893942,-33.787228],[-70.893944,-33.787242],[-70.894004,-33.787648],[-70.894061,-33.788002],[-70.894063,-33.788016],[-70.894118,-33.788404],[-70.894168,-33.788724],[-70.894177,-33.788802],[-70.894193,-33.789101],[-70.89423,-33.789365],[-70.894232,-33.789379],[-70.894238,-33.789429],[-70.89426,-33.78957],[-70.894262,-33.78958],[-70.894287,-33.789752],[-70.894314,-33.789929],[-70.894345,-33.79012],[-70.894349,-33.790148],[-70.894359,-33.790233],[-70.89437,-33.79032],[-70.894399,-33.790491],[-70.894435,-33.790684],[-70.894435,-33.790689],[-70.894472,-33.790896],[-70.894474,-33.790906],[-70.894509,-33.791122],[-70.89451,-33.791129],[-70.894543,-33.791345],[-70.894581,-33.791556],[-70.894585,-33.79158],[-70.894618,-33.791809],[-70.894618,-33.79181],[-70.894649,-33.792026],[-70.894653,-33.79206],[-70.894673,-33.792262],[-70.894675,-33.792284],[-70.894688,-33.792475],[-70.894712,-33.792667],[-70.894745,-33.792893],[-70.894746,-33.792895],[-70.89478,-33.793133],[-70.894813,-33.79336],[-70.89485,-33.793587],[-70.894852,-33.793604],[-70.894883,-33.793821],[-70.894919,-33.794015],[-70.894921,-33.794028],[-70.89496,-33.794257],[-70.894961,-33.794261],[-70.894998,-33.794488],[-70.89504,-33.794702],[-70.895046,-33.794739],[-70.895078,-33.794961],[-70.895111,-33.795166],[-70.895143,-33.795348],[-70.895147,-33.795374],[-70.895155,-33.795428],[-70.895174,-33.795621],[-70.895151,-33.795898],[-70.895128,-33.795979],[-70.895016,-33.796221],[-70.894827,-33.796426],[-70.894575,-33.796577],[-70.894488,-33.796615],[-70.894241,-33.796692],[-70.89398,-33.796717],[-70.893777,-33.796716],[-70.893767,-33.796716],[-70.893464,-33.796711],[-70.89344,-33.796711],[-70.89326,-33.796705],[-70.893045,-33.796699],[-70.892828,-33.796694],[-70.892604,-33.796693],[-70.892368,-33.796692],[-70.892293,-33.79669],[-70.89206,-33.796675],[-70.891779,-33.796626],[-70.891562,-33.796562],[-70.891407,-33.796504],[-70.891216,-33.796418],[-70.891078,-33.796361],[-70.891064,-33.796378],[-70.890929,-33.796547],[-70.890786,-33.796732],[-70.890784,-33.796735],[-70.890631,-33.796931],[-70.890628,-33.796935],[-70.890482,-33.797122],[-70.890454,-33.797158],[-70.890343,-33.797308],[-70.89019,-33.797513],[-70.890185,-33.797519],[-70.890037,-33.797716],[-70.890036,-33.797716],[-70.889902,-33.797893],[-70.889783,-33.79806],[-70.88972,-33.798139],[-70.889601,-33.798272],[-70.889234,-33.798531],[-70.889154,-33.798566],[-70.888804,-33.798659],[-70.888437,-33.798648],[-70.888356,-33.798634],[-70.887976,-33.798501],[-70.887818,-33.798413],[-70.887702,-33.798338],[-70.887561,-33.798234],[-70.887405,-33.798132],[-70.887356,-33.798098],[-70.887198,-33.797982],[-70.887045,-33.797879],[-70.887008,-33.797853],[-70.886878,-33.797757],[-70.886754,-33.797673],[-70.886749,-33.79767],[-70.886619,-33.797582],[-70.886618,-33.797581],[-70.886608,-33.797574],[-70.886582,-33.797571],[-70.886487,-33.797555],[-70.886323,-33.797521],[-70.886269,-33.797509],[-70.886118,-33.797471],[-70.886064,-33.797456],[-70.885936,-33.797417],[-70.885849,-33.797383],[-70.885769,-33.797355],[-70.885661,-33.797319],[-70.885657,-33.797317],[-70.88547,-33.797253],[-70.885271,-33.797186],[-70.884881,-33.797058],[-70.88487,-33.797055],[-70.884654,-33.796981],[-70.884614,-33.796967],[-70.884438,-33.7969],[-70.884296,-33.796857],[-70.883999,-33.796722],[-70.883768,-33.796517],[-70.883623,-33.796262],[-70.88358,-33.795982],[-70.883643,-33.795705],[-70.883805,-33.795457],[-70.884051,-33.795264],[-70.884357,-33.795143],[-70.884692,-33.795107],[-70.885024,-33.79516],[-70.885209,-33.795215],[-70.885292,-33.795243],[-70.885489,-33.795318],[-70.885679,-33.795383],[-70.886066,-33.79551],[-70.886072,-33.795512],[-70.886278,-33.795581],[-70.886284,-33.795583],[-70.886472,-33.795647],[-70.88661,-33.795694],[-70.886675,-33.795718],[-70.886708,-33.795731],[-70.886707,-33.795732],[-70.886708,-33.795733],[-70.886771,-33.795752],[-70.886868,-33.795776],[-70.886956,-33.795794],[-70.886989,-33.795798],[-70.887066,-33.795808],[-70.887178,-33.795828],[-70.887332,-33.795862],[-70.887645,-33.795978],[-70.887775,-33.796048],[-70.88787,-33.796106],[-70.887985,-33.796185],[-70.888111,-33.796271],[-70.888253,-33.796366],[-70.888292,-33.796393],[-70.888414,-33.796484],[-70.888508,-33.796357],[-70.888619,-33.796207],[-70.888654,-33.796161],[-70.888669,-33.796141],[-70.888822,-33.795947],[-70.888972,-33.795754],[-70.889119,-33.795564],[-70.889128,-33.795552],[-70.889274,-33.795369],[-70.889288,-33.795352],[-70.889431,-33.795182],[-70.889568,-33.795016],[-70.889608,-33.794971],[-70.889758,-33.794811],[-70.889979,-33.794634],[-70.89025,-33.794516],[-70.890462,-33.794454],[-70.890735,-33.794406],[-70.891014,-33.794418],[-70.891228,-33.794451],[-70.891495,-33.794523],[-70.891715,-33.79461],[-70.891744,-33.794622],[-70.89196,-33.794714],[-70.892185,-33.794806],[-70.892226,-33.794824],[-70.892363,-33.794886],[-70.892364,-33.794886],[-70.892415,-33.794889],[-70.892614,-33.79489],[-70.89285,-33.794891],[-70.892876,-33.794891],[-70.892888,-33.794892],[-70.892864,-33.794766],[-70.89286,-33.794744],[-70.892821,-33.794507],[-70.892784,-33.794286],[-70.892746,-33.794081],[-70.89274,-33.794048],[-70.892709,-33.793822],[-70.892672,-33.793597],[-70.89267,-33.793583],[-70.892636,-33.793348],[-70.892601,-33.793111],[-70.892567,-33.792878],[-70.892565,-33.792862],[-70.892538,-33.792641],[-70.892534,-33.792601],[-70.89252,-33.7924],[-70.892503,-33.792225],[-70.892474,-33.792026],[-70.892442,-33.791809],[-70.892405,-33.791601],[-70.892402,-33.791582],[-70.892368,-33.791361],[-70.892335,-33.791154],[-70.8923,-33.790955],[-70.892264,-33.79076],[-70.892262,-33.79075],[-70.892229,-33.790556],[-70.892224,-33.790522],[-70.892211,-33.790418],[-70.892202,-33.790347],[-70.892173,-33.790168],[-70.892172,-33.790162],[-70.892144,-33.789977],[-70.892143,-33.78997],[-70.892118,-33.789799],[-70.892095,-33.789651],[-70.892092,-33.789627],[-70.892085,-33.789571],[-70.892043,-33.789281],[-70.892037,-33.789215],[-70.892021,-33.788921],[-70.891976,-33.788634],[-70.891974,-33.788622],[-70.891919,-33.788235],[-70.891863,-33.787883],[-70.891861,-33.787873],[-70.891813,-33.787546],[-70.890333,-33.788031],[-70.888727,-33.788733],[-70.885322,-33.790236],[-70.884388,-33.790799],[-70.883452,-33.791265],[-70.882961,-33.791772],[-70.882177,-33.792139],[-70.881571,-33.792664],[-70.881136,-33.79309],[-70.880682,-33.793516],[-70.880279,-33.793635],[-70.87974,-33.79374],[-70.878725,-33.79411],[-70.878094,-33.794378],[-70.877939,-33.794503],[-70.877497,-33.794476],[-70.876449,-33.794266],[-70.875738,-33.793503],[-70.87533,-33.792509],[-70.874827,-33.790711],[-70.874685,-33.78952],[-70.875137,-33.788997],[-70.875858,-33.788405],[-70.876816,-33.788068],[-70.877355,-33.787996],[-70.87863,-33.787976],[-70.879325,-33.787966],[-70.880364,-33.787821],[-70.882092,-33.787343],[-70.883315,-33.786776],[-70.884313,-33.786503],[-70.885887,-33.786027],[-70.887077,-33.785719],[-70.889072,-33.785108],[-70.890063,-33.784512],[-70.891022,-33.784207],[-70.892284,-33.78364],[-70.893042,-33.782983],[-70.892947,-33.778663],[-70.89292,-33.777438],[-70.892936,-33.776438],[-70.89292,-33.775697],[-70.893067,-33.77534],[-70.893582,-33.774203],[-70.8948,-33.773378],[-70.894841,-33.773371],[-70.894816,-33.773129],[-70.894765,-33.772857],[-70.894499,-33.772283],[-70.894473,-33.77222],[-70.894345,-33.77187],[-70.894327,-33.771816],[-70.894298,-33.771713],[-70.894277,-33.771619],[-70.894261,-33.771511],[-70.894256,-33.771314],[-70.894272,-33.771169],[-70.894278,-33.771124],[-70.894308,-33.770947],[-70.894311,-33.77092],[-70.894212,-33.77075],[-70.894194,-33.770718],[-70.894181,-33.770692],[-70.894148,-33.770665],[-70.894084,-33.770612],[-70.893576,-33.770243],[-70.893368,-33.770107],[-70.893304,-33.77007],[-70.893273,-33.770057],[-70.89317,-33.770025],[-70.893047,-33.769994],[-70.892998,-33.769988],[-70.892928,-33.769981],[-70.892809,-33.769982],[-70.892763,-33.769981],[-70.892603,-33.769976],[-70.892441,-33.769978],[-70.892409,-33.769979],[-70.892231,-33.769977],[-70.892049,-33.769975],[-70.89202,-33.769974],[-70.891827,-33.769968],[-70.891807,-33.769968],[-70.891594,-33.769958],[-70.891391,-33.769949],[-70.89122,-33.769952],[-70.891018,-33.769972],[-70.890752,-33.770006],[-70.890467,-33.770042],[-70.890181,-33.770077],[-70.890178,-33.770078],[-70.889888,-33.770114],[-70.889602,-33.770149],[-70.888778,-33.770254],[-70.888508,-33.770297],[-70.888219,-33.770342],[-70.888213,-33.770343],[-70.88775,-33.770413],[-70.887744,-33.770413],[-70.88681,-33.77055],[-70.886707,-33.770561],[-70.886011,-33.770605],[-70.885714,-33.770649],[-70.885672,-33.770697],[-70.885473,-33.770836],[-70.885427,-33.770861],[-70.88523,-33.770945],[-70.885176,-33.770963],[-70.884851,-33.771022],[-70.88472,-33.771029],[-70.884674,-33.771031],[-70.884398,-33.771035],[-70.884137,-33.771039],[-70.88392,-33.771049],[-70.883855,-33.77105],[-70.883492,-33.771048],[-70.883458,-33.771048],[-70.883168,-33.771039],[-70.88311,-33.771036],[-70.882814,-33.771013],[-70.882752,-33.771007],[-70.882241,-33.770943],[-70.882012,-33.77092],[-70.88188,-33.770912],[-70.881833,-33.770908],[-70.881601,-33.770886],[-70.881357,-33.770837],[-70.881227,-33.770798],[-70.881152,-33.770772],[-70.880887,-33.770673],[-70.880839,-33.770653],[-70.8801,-33.770338],[-70.880048,-33.770314],[-70.879823,-33.770204],[-70.879605,-33.770064],[-70.879519,-33.769992],[-70.879449,-33.769928],[-70.879386,-33.769865],[-70.879262,-33.769708],[-70.879215,-33.769632],[-70.879188,-33.769586],[-70.87916,-33.769535],[-70.879139,-33.769535],[-70.878192,-33.769514],[-70.877349,-33.769509],[-70.876425,-33.769526],[-70.876223,-33.769536],[-70.875478,-33.769616],[-70.875435,-33.769623],[-70.87538,-33.76963],[-70.875226,-33.769646],[-70.875214,-33.769647],[-70.875042,-33.769663],[-70.875035,-33.769664],[-70.874849,-33.76968],[-70.874817,-33.769682],[-70.874644,-33.769693],[-70.874469,-33.769708],[-70.874297,-33.769723],[-70.874133,-33.769742],[-70.874096,-33.769746],[-70.873913,-33.769761],[-70.873753,-33.769777],[-70.873695,-33.769787],[-70.873623,-33.769797],[-70.872984,-33.769868],[-70.872675,-33.769865],[-70.872379,-33.769788],[-70.872121,-33.769645],[-70.871923,-33.769446],[-70.871801,-33.76921],[-70.870997,-33.76913],[-70.870215,-33.76869],[-70.869621,-33.76799],[-70.869224,-33.76748],[-70.869199,-33.766319],[-70.869298,-33.765576],[-70.869162,-33.764643],[-70.86884,-33.764035],[-70.868255,-33.763754],[-70.867441,-33.763605],[-70.866354,-33.763363],[-70.865768,-33.76305],[-70.865144,-33.762737],[-70.86471,-33.762324],[-70.86462,-33.761745],[-70.865029,-33.760997],[-70.865788,-33.760405],[-70.866548,-33.759813],[-70.866729,-33.759262],[-70.866006,-33.757983],[-70.865565,-33.757216],[-70.865278,-33.756478],[-70.865724,-33.755665],[-70.866491,-33.755428],[-70.867222,-33.75532],[-70.867724,-33.755313],[-70.868144,-33.755113],[-70.868213,-33.754692],[-70.867648,-33.753572],[-70.867012,-33.752743],[-70.866369,-33.751592],[-70.865727,-33.750473],[-70.865135,-33.749837],[-70.864551,-33.74962],[-70.863436,-33.749863],[-70.862558,-33.750295],[-70.8616,-33.750632],[-70.860413,-33.751069],[-70.859491,-33.751309],[-70.859099,-33.751025],[-70.858743,-33.750611],[-70.858382,-33.750003],[-70.858255,-33.749457],[-70.858667,-33.748903],[-70.859317,-33.748603],[-70.861925,-33.747822],[-70.862577,-33.747618],[-70.863152,-33.747416],[-70.863808,-33.747406],[-70.864033,-33.747113],[-70.864102,-33.746725],[-70.863142,-33.745159],[-70.862176,-33.743335],[-70.86114,-33.741867],[-70.860344,-33.740718],[-70.859785,-33.739856],[-70.859735,-33.739373],[-70.85961,-33.738924],[-70.858873,-33.738773],[-70.85719,-33.739476],[-70.85451,-33.740484],[-70.853551,-33.740788],[-70.853056,-33.741086],[-70.853051,-33.741085],[-70.85303,-33.741111],[-70.852737,-33.741296],[-70.849187,-33.742174],[-70.845516,-33.743777],[-70.842704,-33.745161],[-70.840074,-33.746387],[-70.837264,-33.747822],[-70.833045,-33.749845],[-70.829796,-33.751029],[-70.827903,-33.752037],[-70.826137,-33.75325],[-70.825505,-33.753995],[-70.825501,-33.754171],[-70.825427,-33.756139],[-70.824574,-33.756877],[-70.824557,-33.756774],[-70.824267,-33.756314],[-70.824091,-33.756092],[-70.823493,-33.755338],[-70.82348,-33.755322],[-70.82347,-33.75531],[-70.823046,-33.754793],[-70.822461,-33.75408],[-70.822455,-33.754073],[-70.822003,-33.753456],[-70.821994,-33.753444],[-70.82199,-33.753438],[-70.821982,-33.753426],[-70.821992,-33.753419],[-70.822294,-33.753211],[-70.822514,-33.75306],[-70.822624,-33.752984],[-70.822909,-33.752787],[-70.822984,-33.752736],[-70.823157,-33.752618],[-70.823412,-33.752443],[-70.823529,-33.752363],[-70.823606,-33.75231],[-70.824064,-33.751997],[-70.824081,-33.751947],[-70.824092,-33.751917],[-70.824139,-33.751784],[-70.824159,-33.751728],[-70.824289,-33.751361],[-70.824292,-33.751353],[-70.824314,-33.751291],[-70.824321,-33.751271],[-70.824336,-33.751243],[-70.824433,-33.751071],[-70.824587,-33.750796],[-70.824596,-33.75078],[-70.824675,-33.750638],[-70.824705,-33.750586],[-70.824945,-33.750261],[-70.825164,-33.750034],[-70.825553,-33.74963],[-70.825621,-33.74954],[-70.825906,-33.749159],[-70.826223,-33.748733],[-70.82623,-33.748088],[-70.827025,-33.747731],[-70.828321,-33.74697],[-70.830191,-33.745974],[-70.831457,-33.745601],[-70.83299,-33.745062],[-70.834482,-33.744395],[-70.836082,-33.743404],[-70.837378,-33.742643],[-70.8394,-33.741516],[-70.841703,-33.740901],[-70.843804,-33.73987],[-70.846099,-33.738901],[-70.84763,-33.738265],[-70.849659,-33.737493],[-70.852026,-33.736296],[-70.85285,-33.735123],[-70.852659,-33.733417],[-70.852694,-33.731449],[-70.852819,-33.730093],[-70.853134,-33.728572],[-70.853237,-33.726184],[-70.853181,-33.723573],[-70.853272,-33.722443],[-70.853659,-33.720663],[-70.853825,-33.719435],[-70.853385,-33.7187],[-70.852408,-33.718134],[-70.850972,-33.717769],[-70.84861,-33.717385],[-70.846833,-33.717283],[-70.845508,-33.716722],[-70.845401,-33.715305],[-70.845221,-33.714114],[-70.845661,-33.713043],[-70.84634,-33.712291],[-70.846856,-33.711644],[-70.847036,-33.711569],[-70.847157,-33.71178],[-70.847165,-33.711793],[-70.847179,-33.711817],[-70.847285,-33.712],[-70.847318,-33.712057],[-70.84734,-33.712095],[-70.847342,-33.712098],[-70.847401,-33.712198],[-70.847405,-33.712205],[-70.847487,-33.712344],[-70.847602,-33.712541],[-70.847665,-33.712647],[-70.847772,-33.71283],[-70.847776,-33.712837],[-70.84783,-33.712929],[-70.847838,-33.712941],[-70.84792,-33.713073],[-70.847934,-33.713097],[-70.848029,-33.713249],[-70.848092,-33.71335],[-70.848124,-33.7134],[-70.848132,-33.713413],[-70.848157,-33.713453],[-70.848175,-33.713482],[-70.848212,-33.713541],[-70.848298,-33.713678],[-70.8483,-33.713682],[-70.848313,-33.713703],[-70.848483,-33.713975],[-70.848576,-33.714133],[-70.848576,-33.714134],[-70.848699,-33.714342],[-70.848714,-33.714343],[-70.848726,-33.714344],[-70.848727,-33.714343],[-70.848993,-33.714145],[-70.849183,-33.714004],[-70.849269,-33.71394],[-70.849285,-33.713928],[-70.849358,-33.713874],[-70.849364,-33.713871],[-70.849373,-33.713865],[-70.849534,-33.71377],[-70.849565,-33.713751],[-70.849629,-33.713721],[-70.849716,-33.713679],[-70.849933,-33.713577],[-70.850011,-33.71354],[-70.850083,-33.713506],[-70.850123,-33.713487],[-70.850128,-33.713485],[-70.850183,-33.713459],[-70.850295,-33.713409],[-70.850415,-33.713356],[-70.850428,-33.71335],[-70.85043,-33.713349],[-70.850451,-33.71334],[-70.850623,-33.713263],[-70.850655,-33.713249],[-70.850845,-33.713164],[-70.850848,-33.713163],[-70.850907,-33.713136],[-70.850973,-33.713107],[-70.851062,-33.713067],[-70.851106,-33.713048],[-70.851109,-33.713047],[-70.851156,-33.713027],[-70.85124,-33.712991],[-70.851303,-33.712965],[-70.851519,-33.712873],[-70.851526,-33.712871],[-70.851571,-33.712852],[-70.851763,-33.71277],[-70.85183,-33.712742],[-70.851833,-33.712741],[-70.851837,-33.712739],[-70.851848,-33.712735],[-70.851937,-33.7127],[-70.852001,-33.712674],[-70.852248,-33.712576],[-70.852276,-33.712565],[-70.852279,-33.712563],[-70.852335,-33.712541],[-70.852554,-33.712454],[-70.852659,-33.71242],[-70.852713,-33.712403],[-70.852735,-33.712396],[-70.852759,-33.712388],[-70.852822,-33.712368],[-70.852926,-33.712334],[-70.852963,-33.712323],[-70.852974,-33.712319],[-70.853041,-33.712298],[-70.853103,-33.712278],[-70.853225,-33.712239],[-70.853327,-33.712206],[-70.853463,-33.712162],[-70.853488,-33.712154],[-70.853571,-33.712127],[-70.853581,-33.712124],[-70.853676,-33.712096],[-70.853727,-33.712081],[-70.853891,-33.712033],[-70.853945,-33.712017],[-70.854022,-33.711994],[-70.854176,-33.711949],[-70.854253,-33.711926],[-70.854447,-33.711869],[-70.854689,-33.711798],[-70.8548,-33.711765],[-70.854828,-33.711757],[-70.854969,-33.711715],[-70.855011,-33.711704],[-70.85516,-33.711664],[-70.855297,-33.711627],[-70.855582,-33.711537],[-70.855625,-33.711524],[-70.855674,-33.711508],[-70.855749,-33.711485],[-70.855868,-33.711448],[-70.855902,-33.711437],[-70.856077,-33.711383],[-70.856103,-33.711379],[-70.856177,-33.71137],[-70.856227,-33.711363],[-70.856322,-33.711333],[-70.856521,-33.711269],[-70.856557,-33.711258],[-70.856577,-33.711251],[-70.85661,-33.711241],[-70.856611,-33.711241],[-70.856618,-33.711238],[-70.856621,-33.711237],[-70.856628,-33.711235],[-70.856629,-33.711235],[-70.856641,-33.711231],[-70.856644,-33.71123],[-70.856682,-33.71122],[-70.85672,-33.711211],[-70.856721,-33.71121],[-70.856741,-33.711205],[-70.856746,-33.711204],[-70.856747,-33.711204],[-70.856751,-33.711203],[-70.856756,-33.711201],[-70.856762,-33.7112],[-70.856776,-33.711196],[-70.856782,-33.711195],[-70.856792,-33.711192],[-70.856794,-33.711192],[-70.85681,-33.711188],[-70.856813,-33.711187],[-70.856818,-33.711186],[-70.856828,-33.711183],[-70.856839,-33.71118],[-70.856844,-33.711179],[-70.856852,-33.711177],[-70.856854,-33.711176],[-70.856859,-33.711175],[-70.856878,-33.711169],[-70.856885,-33.711167],[-70.856886,-33.711167],[-70.85689,-33.711166],[-70.856894,-33.711164],[-70.856895,-33.711164],[-70.856908,-33.71116],[-70.856919,-33.711156],[-70.856971,-33.711141],[-70.857006,-33.71113],[-70.857056,-33.711115],[-70.857066,-33.711112],[-70.85707,-33.711111],[-70.857094,-33.711103],[-70.857101,-33.711101],[-70.857182,-33.711077],[-70.857189,-33.711075],[-70.857281,-33.711041],[-70.857317,-33.711028],[-70.857358,-33.711012]]]}}]}
