{"type":"FeatureCollection","name":"Límite ZOIT Pirque","crs_note":"Coordinates stored as longitude/latitude in EPSG:4326; web display uses Web Mercator.","features":[{"type":"Feature","properties":{"name":"ZOIT Pirque","source_name":"Viña Concha y Toro","source":"ZOIT PIRQUE.kmz","descripción":"","tessellate":"-1","extrude":"0","visibility":"-1","drawOrder":"0","COUNT":"463.00000000000","SHAPE_Leng":"1.58700069881","SHAPE_Area":"0.00160255460"},"geometry":{"type":"Polygon","coordinates":[[[-70.622129,-33.717441],[-70.622123,-33.71746],[-70.620955,-33.718468],[-70.618866,-33.719392],[-70.616538,-33.719731],[-70.614199,-33.719453],[-70.612077,-33.718584],[-70.61038,-33.71721],[-70.609274,-33.715464],[-70.608868,-33.713519],[-70.609202,-33.711564],[-70.610241,-33.709791],[-70.611083,-33.709065],[-70.610845,-33.708145],[-70.610737,-33.707731],[-70.610697,-33.707577],[-70.610628,-33.707313],[-70.610441,-33.706595],[-70.610374,-33.706341],[-70.610226,-33.705772],[-70.610019,-33.704981],[-70.609991,-33.704873],[-70.609991,-33.704872],[-70.60999,-33.704871],[-70.609985,-33.704849],[-70.609555,-33.703189],[-70.609428,-33.702695],[-70.609384,-33.702528],[-70.609161,-33.701663],[-70.609153,-33.701629],[-70.609152,-33.701625],[-70.609145,-33.7016],[-70.608877,-33.700566],[-70.608636,-33.699634],[-70.608544,-33.699279],[-70.608282,-33.698287],[-70.608151,-33.697792],[-70.60793,-33.696953],[-70.607765,-33.696329],[-70.607485,-33.695271],[-70.607406,-33.694972],[-70.605794,-33.695492],[-70.604859,-33.695793],[-70.604121,-33.696031],[-70.603738,-33.696154],[-70.603656,-33.696181],[-70.603256,-33.696304],[-70.603251,-33.696306],[-70.602983,-33.696389],[-70.602978,-33.69639],[-70.602671,-33.696485],[-70.600599,-33.697126],[-70.600593,-33.697128],[-70.600442,-33.697175],[-70.60005,-33.697296],[-70.600044,-33.697298],[-70.59994,-33.69733],[-70.599351,-33.697506],[-70.599345,-33.697508],[-70.598689,-33.697704],[-70.598684,-33.697706],[-70.598224,-33.697844],[-70.598218,-33.697845],[-70.598028,-33.697902],[-70.596652,-33.698341],[-70.596166,-33.698496],[-70.59615,-33.6985],[-70.596044,-33.698528],[-70.595695,-33.698601],[-70.595631,-33.698614],[-70.595565,-33.698628],[-70.595529,-33.698636],[-70.595375,-33.698668],[-70.595362,-33.69867],[-70.595239,-33.698689],[-70.59513,-33.698695],[-70.594787,-33.698699],[-70.594771,-33.698699],[-70.594646,-33.698693],[-70.594522,-33.698675],[-70.594402,-33.698645],[-70.594287,-33.698603],[-70.594178,-33.698551],[-70.594077,-33.698488],[-70.593986,-33.698416],[-70.59396,-33.698392],[-70.593723,-33.698166],[-70.593713,-33.698157],[-70.593659,-33.698101],[-70.593628,-33.698064],[-70.593422,-33.697808],[-70.593417,-33.697802],[-70.593279,-33.69763],[-70.593129,-33.697442],[-70.593117,-33.697427],[-70.593014,-33.6973],[-70.592916,-33.697176],[-70.592451,-33.696547],[-70.592435,-33.696525],[-70.59239,-33.696453],[-70.59111,-33.694144],[-70.590844,-33.693664],[-70.590567,-33.693185],[-70.590296,-33.692716],[-70.589941,-33.692101],[-70.589493,-33.691326],[-70.588561,-33.689712],[-70.588042,-33.688796],[-70.587975,-33.688678],[-70.587961,-33.688653],[-70.587832,-33.688701],[-70.58722,-33.688928],[-70.586908,-33.689044],[-70.586506,-33.689193],[-70.585526,-33.689555],[-70.584474,-33.689945],[-70.584299,-33.69001],[-70.583709,-33.690229],[-70.583609,-33.690263],[-70.583223,-33.690399],[-70.583424,-33.690828],[-70.583503,-33.690997],[-70.583627,-33.691262],[-70.583898,-33.69184],[-70.584362,-33.692833],[-70.584447,-33.693014],[-70.585025,-33.694248],[-70.585359,-33.694962],[-70.5856,-33.695479],[-70.586111,-33.69657],[-70.586154,-33.696657],[-70.586357,-33.697065],[-70.586375,-33.6971],[-70.587322,-33.699003],[-70.58736,-33.699091],[-70.587389,-33.699193],[-70.5874,-33.699261],[-70.587433,-33.699546],[-70.587582,-33.700801],[-70.587604,-33.70099],[-70.587629,-33.7012],[-70.587687,-33.701693],[-70.587866,-33.703264],[-70.587979,-33.703619],[-70.588085,-33.703789],[-70.588723,-33.704803],[-70.588816,-33.70494],[-70.588934,-33.705113],[-70.588984,-33.705187],[-70.589458,-33.705883],[-70.58952,-33.705982],[-70.590477,-33.707532],[-70.590533,-33.707623],[-70.591067,-33.708411],[-70.592675,-33.710781],[-70.59296,-33.711244],[-70.593434,-33.712013],[-70.593535,-33.712138],[-70.593557,-33.712127],[-70.593836,-33.711988],[-70.593907,-33.711955],[-70.594022,-33.711913],[-70.594142,-33.711883],[-70.594266,-33.711865],[-70.594391,-33.711859],[-70.594516,-33.711865],[-70.59464,-33.711883],[-70.594685,-33.711893],[-70.594857,-33.711934],[-70.594932,-33.711954],[-70.595047,-33.711996],[-70.595156,-33.712048],[-70.595256,-33.712111],[-70.595348,-33.712183],[-70.595428,-33.712263],[-70.595497,-33.712351],[-70.595548,-33.712434],[-70.59566,-33.712643],[-70.59568,-33.712682],[-70.595732,-33.712664],[-70.595852,-33.712634],[-70.595976,-33.712616],[-70.596101,-33.71261],[-70.596226,-33.712616],[-70.596262,-33.71262],[-70.596571,-33.712659],[-70.596659,-33.712673],[-70.596779,-33.712703],[-70.596894,-33.712745],[-70.597003,-33.712797],[-70.597103,-33.71286],[-70.597195,-33.712932],[-70.597275,-33.713012],[-70.597344,-33.7131],[-70.5974,-33.713194],[-70.597443,-33.713292],[-70.597472,-33.713394],[-70.597487,-33.713498],[-70.597487,-33.713603],[-70.597472,-33.713707],[-70.597443,-33.713809],[-70.5974,-33.713908],[-70.597344,-33.714001],[-70.597275,-33.714089],[-70.597195,-33.714169],[-70.597103,-33.714241],[-70.597003,-33.714304],[-70.596894,-33.714356],[-70.596779,-33.714398],[-70.596659,-33.714428],[-70.596535,-33.714446],[-70.59641,-33.714452],[-70.596285,-33.714446],[-70.59626,-33.714443],[-70.596072,-33.714516],[-70.595742,-33.714629],[-70.595704,-33.714641],[-70.595584,-33.714671],[-70.59546,-33.714689],[-70.595335,-33.714695],[-70.59521,-33.714689],[-70.595086,-33.714671],[-70.594966,-33.714641],[-70.594851,-33.714599],[-70.594794,-33.714574],[-70.594622,-33.71449],[-70.594569,-33.714463],[-70.594469,-33.714401],[-70.594378,-33.714329],[-70.594297,-33.714248],[-70.594258,-33.714201],[-70.594084,-33.713978],[-70.593807,-33.714123],[-70.593797,-33.714128],[-70.593708,-33.71417],[-70.593593,-33.714212],[-70.593473,-33.714242],[-70.593349,-33.71426],[-70.593224,-33.714266],[-70.593099,-33.71426],[-70.592975,-33.714242],[-70.592855,-33.714212],[-70.59274,-33.71417],[-70.592631,-33.714118],[-70.592531,-33.714055],[-70.592439,-33.713983],[-70.592359,-33.713903],[-70.59233,-33.713869],[-70.591962,-33.713413],[-70.59161,-33.712978],[-70.59157,-33.712924],[-70.591545,-33.712886],[-70.591042,-33.712069],[-70.590777,-33.711639],[-70.589191,-33.709301],[-70.588645,-33.708497],[-70.588644,-33.708494],[-70.588625,-33.708466],[-70.588559,-33.708359],[-70.587602,-33.706809],[-70.587561,-33.706743],[-70.587109,-33.706079],[-70.587059,-33.706006],[-70.586941,-33.705832],[-70.58683,-33.705669],[-70.586173,-33.704624],[-70.58601,-33.704362],[-70.585977,-33.704303],[-70.585934,-33.704205],[-70.585925,-33.704178],[-70.585758,-33.703656],[-70.585739,-33.70358],[-70.585727,-33.703509],[-70.58554,-33.701867],[-70.585482,-33.701377],[-70.585457,-33.701168],[-70.585435,-33.700978],[-70.585287,-33.699723],[-70.585269,-33.699572],[-70.584383,-33.697792],[-70.584366,-33.697757],[-70.584163,-33.697349],[-70.584111,-33.697245],[-70.583591,-33.696135],[-70.58335,-33.695619],[-70.583016,-33.694905],[-70.582438,-33.693671],[-70.582353,-33.69349],[-70.581889,-33.692497],[-70.581618,-33.691919],[-70.581494,-33.691653],[-70.581415,-33.691485],[-70.581236,-33.691102],[-70.581193,-33.691117],[-70.580161,-33.691506],[-70.579946,-33.691587],[-70.579445,-33.691775],[-70.578961,-33.691958],[-70.578384,-33.692175],[-70.57831,-33.6922],[-70.578237,-33.69222],[-70.577868,-33.692308],[-70.57782,-33.692318],[-70.577697,-33.692336],[-70.577588,-33.692342],[-70.577431,-33.692344],[-70.577414,-33.692344],[-70.577289,-33.692338],[-70.577166,-33.69232],[-70.577046,-33.69229],[-70.57693,-33.692249],[-70.576905,-33.692238],[-70.576776,-33.69218],[-70.576692,-33.692138],[-70.576592,-33.692076],[-70.5765,-33.692004],[-70.57642,-33.691923],[-70.576351,-33.691836],[-70.576295,-33.691742],[-70.576252,-33.691643],[-70.576223,-33.691541],[-70.57622,-33.691526],[-70.576188,-33.691359],[-70.576177,-33.691271],[-70.576177,-33.691166],[-70.576191,-33.691062],[-70.57622,-33.69096],[-70.576241,-33.690908],[-70.576309,-33.690752],[-70.576332,-33.690705],[-70.576364,-33.690651],[-70.576362,-33.690548],[-70.576362,-33.690518],[-70.576355,-33.690148],[-70.576352,-33.689993],[-70.576311,-33.689546],[-70.57625,-33.68888],[-70.576236,-33.688793],[-70.576231,-33.688762],[-70.575931,-33.68915],[-70.57589,-33.6892],[-70.575854,-33.689238],[-70.575285,-33.689809],[-70.574978,-33.690099],[-70.574809,-33.690354],[-70.574794,-33.690387],[-70.574689,-33.690627],[-70.574667,-33.690675],[-70.57461,-33.690769],[-70.574602,-33.69078],[-70.574318,-33.691177],[-70.574258,-33.691254],[-70.574177,-33.691334],[-70.574086,-33.691406],[-70.574044,-33.691433],[-70.573629,-33.691696],[-70.573528,-33.691753],[-70.573294,-33.691869],[-70.57296,-33.692035],[-70.572686,-33.692221],[-70.572385,-33.692498],[-70.571961,-33.692886],[-70.570844,-33.693981],[-70.570723,-33.694094],[-70.570653,-33.694159],[-70.570614,-33.694197],[-70.57023,-33.694607],[-70.570163,-33.694672],[-70.569637,-33.695137],[-70.569616,-33.695156],[-70.569555,-33.695206],[-70.569522,-33.69523],[-70.569298,-33.6954],[-70.569268,-33.695422],[-70.56923,-33.695447],[-70.569024,-33.695579],[-70.568346,-33.696012],[-70.568342,-33.696014],[-70.568255,-33.696064],[-70.567676,-33.696364],[-70.567191,-33.696614],[-70.566964,-33.696732],[-70.566857,-33.696792],[-70.566785,-33.696832],[-70.566732,-33.696862],[-70.566724,-33.696867],[-70.566723,-33.696867],[-70.566717,-33.696871],[-70.566698,-33.696882],[-70.566064,-33.697238],[-70.565892,-33.697343],[-70.565877,-33.697352],[-70.565868,-33.697358],[-70.565045,-33.697859],[-70.565011,-33.69788],[-70.56478,-33.698026],[-70.564614,-33.698132],[-70.564256,-33.69842],[-70.564129,-33.698575],[-70.564066,-33.698708],[-70.56402,-33.698866],[-70.563934,-33.699165],[-70.563785,-33.699679],[-70.563767,-33.699771],[-70.563785,-33.69983],[-70.563954,-33.70037],[-70.564052,-33.700685],[-70.564104,-33.70085],[-70.56415,-33.700998],[-70.564329,-33.701571],[-70.564412,-33.701835],[-70.564609,-33.702465],[-70.564739,-33.702881],[-70.564981,-33.703657],[-70.565118,-33.704093],[-70.56521,-33.704389],[-70.565355,-33.704847],[-70.565493,-33.705286],[-70.565753,-33.706109],[-70.565986,-33.706847],[-70.566117,-33.707263],[-70.566206,-33.707259],[-70.566331,-33.707265],[-70.56643,-33.707279],[-70.566543,-33.707299],[-70.566553,-33.707301],[-70.566577,-33.707305],[-70.56661,-33.707312],[-70.566613,-33.707313],[-70.5667,-33.707336],[-70.566815,-33.707378],[-70.566924,-33.70743],[-70.566988,-33.707468],[-70.567062,-33.707516],[-70.567099,-33.70754],[-70.56719,-33.707612],[-70.56727,-33.707692],[-70.567339,-33.70778],[-70.567396,-33.707874],[-70.567439,-33.707972],[-70.567462,-33.708049],[-70.567476,-33.708106],[-70.567539,-33.708365],[-70.567628,-33.708727],[-70.56764,-33.708787],[-70.567669,-33.70896],[-70.56769,-33.709087],[-70.567752,-33.709386],[-70.567815,-33.709566],[-70.567853,-33.709661],[-70.567943,-33.70991],[-70.568104,-33.710236],[-70.568248,-33.710554],[-70.568476,-33.711067],[-70.568556,-33.711247],[-70.569001,-33.712251],[-70.569063,-33.712392],[-70.569167,-33.712628],[-70.569675,-33.713779],[-70.569678,-33.713785],[-70.569713,-33.713846],[-70.56974,-33.713904],[-70.569875,-33.714224],[-70.569926,-33.714346],[-70.570331,-33.715309],[-70.570415,-33.71549],[-70.57042,-33.715497],[-70.570638,-33.715726],[-70.570684,-33.715768],[-70.570689,-33.715773],[-70.570756,-33.715841],[-70.570825,-33.715928],[-70.570841,-33.715953],[-70.570915,-33.716067],[-70.570955,-33.716131],[-70.571322,-33.716752],[-70.57153,-33.717085],[-70.571577,-33.71717],[-70.571578,-33.717171],[-70.571581,-33.717177],[-70.57159,-33.717194],[-70.571591,-33.717195],[-70.571614,-33.717238],[-70.571627,-33.71726],[-70.571656,-33.717309],[-70.571762,-33.717489],[-70.571777,-33.717514],[-70.572189,-33.718234],[-70.57219,-33.718235],[-70.572191,-33.718236],[-70.572192,-33.718238],[-70.572248,-33.718337],[-70.572262,-33.718363],[-70.572268,-33.718373],[-70.572344,-33.718509],[-70.572841,-33.719143],[-70.573352,-33.719827],[-70.573384,-33.719876],[-70.573761,-33.720451],[-70.574186,-33.7211],[-70.574349,-33.721376],[-70.57465,-33.72183],[-70.574704,-33.721921],[-70.574737,-33.721978],[-70.574759,-33.722018],[-70.574802,-33.722117],[-70.574803,-33.722119],[-70.574835,-33.722209],[-70.574863,-33.722308],[-70.574877,-33.722412],[-70.574879,-33.722475],[-70.574877,-33.722628],[-70.574873,-33.722934],[-70.574872,-33.723013],[-70.574869,-33.723252],[-70.574908,-33.723655],[-70.57499,-33.724499],[-70.57499,-33.7245],[-70.575004,-33.724639],[-70.575206,-33.725209],[-70.575229,-33.725288],[-70.575262,-33.725426],[-70.575319,-33.725665],[-70.575438,-33.725924],[-70.575532,-33.726095],[-70.575537,-33.726106],[-70.575538,-33.726107],[-70.575555,-33.72614],[-70.575653,-33.726325],[-70.575655,-33.72633],[-70.575698,-33.726429],[-70.575727,-33.726531],[-70.575734,-33.726571],[-70.575783,-33.72688],[-70.57579,-33.726945],[-70.57579,-33.727049],[-70.57579,-33.727052],[-70.575756,-33.727518],[-70.575747,-33.727591],[-70.575602,-33.72843],[-70.575481,-33.729006],[-70.575481,-33.729007],[-70.575452,-33.729109],[-70.575449,-33.729118],[-70.575158,-33.729898],[-70.575165,-33.729923],[-70.57518,-33.730027],[-70.575181,-33.730076],[-70.575182,-33.730106],[-70.575581,-33.730246],[-70.576212,-33.730334],[-70.57622,-33.730335],[-70.576228,-33.730336],[-70.576312,-33.730349],[-70.576551,-33.730386],[-70.576605,-33.730395],[-70.576616,-33.730398],[-70.577047,-33.730487],[-70.577156,-33.730515],[-70.577245,-33.730545],[-70.577895,-33.7308],[-70.577922,-33.730811],[-70.57803,-33.730863],[-70.578131,-33.730926],[-70.578142,-33.730933],[-70.578611,-33.731271],[-70.578691,-33.731335],[-70.578772,-33.731415],[-70.578776,-33.73142],[-70.579365,-33.73209],[-70.57943,-33.732173],[-70.579436,-33.732183],[-70.579852,-33.732801],[-70.579902,-33.732885],[-70.579934,-33.732957],[-70.580234,-33.733704],[-70.580244,-33.733732],[-70.580273,-33.733834],[-70.58028,-33.733874],[-70.580393,-33.7346],[-70.5804,-33.734658],[-70.580416,-33.734854],[-70.580425,-33.73497],[-70.580437,-33.735135],[-70.580438,-33.735141],[-70.580438,-33.735246],[-70.580435,-33.735276],[-70.580409,-33.73552],[-70.580397,-33.735594],[-70.580368,-33.735696],[-70.580325,-33.735795],[-70.580268,-33.735888],[-70.580199,-33.735976],[-70.580119,-33.736056],[-70.580028,-33.736128],[-70.579927,-33.736191],[-70.579818,-33.736243],[-70.579703,-33.736285],[-70.579583,-33.736315],[-70.579459,-33.736333],[-70.579334,-33.736339],[-70.579209,-33.736333],[-70.579085,-33.736315],[-70.578965,-33.736285],[-70.57885,-33.736243],[-70.578741,-33.736191],[-70.57864,-33.736128],[-70.578549,-33.736056],[-70.578468,-33.735976],[-70.578399,-33.735888],[-70.578343,-33.735795],[-70.5783,-33.735696],[-70.578271,-33.735594],[-70.578257,-33.73549],[-70.578257,-33.735385],[-70.578259,-33.735355],[-70.578278,-33.735181],[-70.578271,-33.735087],[-70.578262,-33.734972],[-70.578249,-33.734804],[-70.578154,-33.734193],[-70.57792,-33.733609],[-70.577587,-33.733113],[-70.577109,-33.73257],[-70.576846,-33.73238],[-70.576425,-33.732216],[-70.576128,-33.732154],[-70.575923,-33.732123],[-70.575847,-33.732111],[-70.575102,-33.732007],[-70.575031,-33.731995],[-70.574911,-33.731965],[-70.574864,-33.73195],[-70.573875,-33.731604],[-70.573662,-33.731519],[-70.573648,-33.731513],[-70.573539,-33.73146],[-70.573438,-33.731398],[-70.573347,-33.731326],[-70.573266,-33.731245],[-70.573197,-33.731158],[-70.573141,-33.731064],[-70.573098,-33.730965],[-70.573069,-33.730863],[-70.573055,-33.730759],[-70.573055,-33.730654],[-70.573058,-33.730615],[-70.57306,-33.730604],[-70.573046,-33.730549],[-70.573041,-33.730526],[-70.573026,-33.730422],[-70.573025,-33.730372],[-70.573024,-33.730215],[-70.573023,-33.730212],[-70.573017,-33.730191],[-70.573009,-33.730156],[-70.573008,-33.730153],[-70.573008,-33.730152],[-70.572995,-33.730095],[-70.572986,-33.73004],[-70.572977,-33.729944],[-70.572975,-33.729888],[-70.572979,-33.729792],[-70.572984,-33.729737],[-70.573,-33.729641],[-70.57301,-33.729597],[-70.573012,-33.729587],[-70.573041,-33.729491],[-70.57306,-33.729439],[-70.573102,-33.729344],[-70.573111,-33.729327],[-70.573368,-33.728637],[-70.573471,-33.728146],[-70.573604,-33.727371],[-70.57363,-33.727028],[-70.573615,-33.726932],[-70.573579,-33.726864],[-70.573565,-33.726837],[-70.573461,-33.726646],[-70.573436,-33.726596],[-70.573272,-33.72624],[-70.573246,-33.726176],[-70.573221,-33.726094],[-70.573146,-33.72578],[-70.573123,-33.725682],[-70.572904,-33.725064],[-70.572903,-33.725061],[-70.572875,-33.724962],[-70.572862,-33.724879],[-70.572862,-33.724878],[-70.572839,-33.724645],[-70.572757,-33.723801],[-70.572714,-33.723356],[-70.572711,-33.723273],[-70.572714,-33.722993],[-70.572715,-33.722914],[-70.572719,-33.722638],[-70.572437,-33.722211],[-70.572272,-33.721932],[-70.571869,-33.721317],[-70.571492,-33.720743],[-70.571489,-33.720738],[-70.571023,-33.720114],[-70.570497,-33.719444],[-70.570466,-33.719401],[-70.570423,-33.719333],[-70.570314,-33.719138],[-70.5703,-33.719113],[-70.5703,-33.719112],[-70.570294,-33.719103],[-70.570243,-33.719012],[-70.569831,-33.718294],[-70.569821,-33.718277],[-70.56972,-33.718105],[-70.569691,-33.718056],[-70.569671,-33.718023],[-70.569661,-33.718005],[-70.569658,-33.717999],[-70.569628,-33.717945],[-70.569628,-33.717944],[-70.569618,-33.717926],[-70.569615,-33.717921],[-70.569615,-33.71792],[-70.569592,-33.717879],[-70.569398,-33.717569],[-70.569037,-33.716956],[-70.569013,-33.716919],[-70.569,-33.716899],[-70.568971,-33.716872],[-70.568694,-33.71658],[-70.568625,-33.716499],[-70.568533,-33.716377],[-70.568512,-33.716347],[-70.568456,-33.716253],[-70.56844,-33.716221],[-70.568307,-33.715932],[-70.567891,-33.714944],[-70.567839,-33.714822],[-70.567731,-33.714564],[-70.567696,-33.714503],[-70.567674,-33.714458],[-70.567671,-33.71445],[-70.567142,-33.713252],[-70.567039,-33.713016],[-70.566977,-33.712877],[-70.566973,-33.712868],[-70.56579,-33.713598],[-70.564638,-33.714309],[-70.564531,-33.714376],[-70.563655,-33.714925],[-70.562553,-33.715617],[-70.561765,-33.716111],[-70.561393,-33.716339],[-70.558944,-33.717841],[-70.55838,-33.718186],[-70.558206,-33.718295],[-70.557238,-33.718903],[-70.557175,-33.718942],[-70.556536,-33.719343],[-70.556407,-33.719418],[-70.555944,-33.719687],[-70.555929,-33.719695],[-70.55546,-33.719978],[-70.555062,-33.720217],[-70.554694,-33.720421],[-70.55469,-33.720423],[-70.554375,-33.720598],[-70.554371,-33.7206],[-70.554288,-33.720646],[-70.554218,-33.720684],[-70.554215,-33.720686],[-70.553843,-33.720892],[-70.552958,-33.721371],[-70.551865,-33.721961],[-70.551778,-33.72201],[-70.551505,-33.722164],[-70.550167,-33.722907],[-70.549385,-33.723315],[-70.549365,-33.723325],[-70.549188,-33.723418],[-70.549127,-33.723449],[-70.549125,-33.72345],[-70.549125,-33.723451],[-70.549094,-33.723467],[-70.549044,-33.723493],[-70.548433,-33.723834],[-70.548397,-33.723854],[-70.548395,-33.723855],[-70.547913,-33.724124],[-70.547868,-33.72415],[-70.547457,-33.724379],[-70.547454,-33.724381],[-70.547453,-33.724381],[-70.547449,-33.724384],[-70.547071,-33.724595],[-70.546393,-33.724962],[-70.545737,-33.725316],[-70.545687,-33.725343],[-70.544422,-33.726028],[-70.544394,-33.726043],[-70.544229,-33.726132],[-70.543388,-33.726593],[-70.543311,-33.726635],[-70.54331,-33.726636],[-70.543013,-33.726798],[-70.543012,-33.726799],[-70.542586,-33.727032],[-70.542584,-33.727033],[-70.542455,-33.727104],[-70.543806,-33.728199],[-70.54491,-33.729945],[-70.545315,-33.731891],[-70.54498,-33.733846],[-70.543938,-33.735618],[-70.542292,-33.737036],[-70.540202,-33.737958],[-70.537874,-33.738296],[-70.535534,-33.738016],[-70.533412,-33.737146],[-70.531716,-33.735771],[-70.530612,-33.734025],[-70.530207,-33.732079],[-70.530542,-33.730124],[-70.531584,-33.728351],[-70.53323,-33.726934],[-70.53532,-33.726012],[-70.537648,-33.725674],[-70.539988,-33.725954],[-70.540347,-33.726101],[-70.540687,-33.725916],[-70.540756,-33.725878],[-70.540758,-33.725878],[-70.5414,-33.725526],[-70.541401,-33.725525],[-70.541828,-33.725292],[-70.541829,-33.725291],[-70.542125,-33.725129],[-70.542127,-33.725128],[-70.542205,-33.725085],[-70.543051,-33.724622],[-70.543221,-33.724529],[-70.543249,-33.724514],[-70.544514,-33.72383],[-70.544564,-33.723803],[-70.54522,-33.723448],[-70.545885,-33.723088],[-70.54625,-33.722885],[-70.546254,-33.722882],[-70.546258,-33.72288],[-70.546669,-33.72265],[-70.546714,-33.722625],[-70.547195,-33.722356],[-70.547196,-33.722356],[-70.547197,-33.722355],[-70.547234,-33.722335],[-70.547873,-33.721978],[-70.547951,-33.721937],[-70.547982,-33.721921],[-70.547984,-33.72192],[-70.548045,-33.721888],[-70.548222,-33.721796],[-70.548242,-33.721785],[-70.548998,-33.721391],[-70.550068,-33.720797],[-70.550099,-33.720099],[-70.550113,-33.719797],[-70.550128,-33.719482],[-70.550152,-33.718955],[-70.550175,-33.718454],[-70.550194,-33.718031],[-70.550209,-33.717699],[-70.550213,-33.717604],[-70.550226,-33.71733],[-70.550248,-33.71684],[-70.55025,-33.716798],[-70.550268,-33.71641],[-70.550273,-33.716319],[-70.550286,-33.716081],[-70.550308,-33.715689],[-70.550311,-33.715618],[-70.550331,-33.715268],[-70.550373,-33.714499],[-70.550396,-33.714076],[-70.550439,-33.713293],[-70.550452,-33.713061],[-70.550476,-33.712624],[-70.550488,-33.712403],[-70.550499,-33.712199],[-70.550536,-33.711532],[-70.55054,-33.711458],[-70.550554,-33.711156],[-70.550574,-33.710752],[-70.550585,-33.710512],[-70.550598,-33.710257],[-70.55063,-33.709576],[-70.550695,-33.708222],[-70.550702,-33.70808],[-70.550709,-33.707931],[-70.550684,-33.707927],[-70.550426,-33.707884],[-70.550089,-33.707817],[-70.550088,-33.707816],[-70.550063,-33.707811],[-70.550002,-33.707815],[-70.549388,-33.707906],[-70.54875,-33.708056],[-70.548662,-33.708077],[-70.548263,-33.708153],[-70.548223,-33.708161],[-70.548003,-33.708202],[-70.547506,-33.708276],[-70.547208,-33.70832],[-70.546681,-33.708399],[-70.546246,-33.708478],[-70.546078,-33.708508],[-70.545877,-33.708544],[-70.545313,-33.708647],[-70.545002,-33.708713],[-70.544847,-33.708745],[-70.544393,-33.708842],[-70.543918,-33.708942],[-70.543167,-33.709087],[-70.542669,-33.709183],[-70.542663,-33.709185],[-70.542661,-33.709185],[-70.542656,-33.709186],[-70.540916,-33.709519],[-70.540886,-33.709525],[-70.540781,-33.709548],[-70.54023,-33.70967],[-70.540051,-33.70971],[-70.539879,-33.709748],[-70.539812,-33.709761],[-70.538917,-33.70991],[-70.53889,-33.709914],[-70.5384,-33.710004],[-70.537226,-33.71022],[-70.536905,-33.710281],[-70.535696,-33.710509],[-70.535432,-33.710559],[-70.534762,-33.710675],[-70.534227,-33.710767],[-70.533681,-33.710871],[-70.533023,-33.710995],[-70.532687,-33.711059],[-70.532326,-33.711127],[-70.532214,-33.711143],[-70.53218,-33.711146],[-70.532064,-33.711154],[-70.531622,-33.711186],[-70.531409,-33.711218],[-70.530528,-33.711351],[-70.530503,-33.711355],[-70.529967,-33.711453],[-70.52984,-33.711476],[-70.529661,-33.711509],[-70.529575,-33.711522],[-70.528892,-33.71162],[-70.527802,-33.711808],[-70.527308,-33.711903],[-70.527302,-33.711904],[-70.526616,-33.712037],[-70.526407,-33.712074],[-70.525822,-33.712177],[-70.525834,-33.712246],[-70.525844,-33.712327],[-70.525844,-33.712432],[-70.525833,-33.712521],[-70.525811,-33.712635],[-70.525808,-33.71265],[-70.525779,-33.712752],[-70.525774,-33.712767],[-70.525587,-33.713257],[-70.52555,-33.713341],[-70.525493,-33.713435],[-70.525424,-33.713523],[-70.525344,-33.713603],[-70.525253,-33.713675],[-70.525152,-33.713737],[-70.525043,-33.71379],[-70.525041,-33.713791],[-70.524852,-33.71387],[-70.524723,-33.713954],[-70.524594,-33.714059],[-70.524534,-33.714104],[-70.524443,-33.714162],[-70.524286,-33.71425],[-70.524164,-33.714337],[-70.524047,-33.714438],[-70.524019,-33.714462],[-70.523849,-33.714608],[-70.523769,-33.71467],[-70.523673,-33.71473],[-70.523608,-33.714766],[-70.523473,-33.714841],[-70.523469,-33.714844],[-70.52336,-33.714896],[-70.523245,-33.714938],[-70.523232,-33.714941],[-70.523152,-33.714965],[-70.523001,-33.715009],[-70.522732,-33.715077],[-70.522607,-33.715109],[-70.522515,-33.715135],[-70.522474,-33.715146],[-70.522323,-33.715208],[-70.522218,-33.715247],[-70.52209,-33.715292],[-70.521844,-33.715379],[-70.521731,-33.715413],[-70.521711,-33.715418],[-70.521687,-33.715424],[-70.521664,-33.715429],[-70.52135,-33.715496],[-70.521329,-33.715501],[-70.521206,-33.715519],[-70.521119,-33.715524],[-70.520915,-33.71553],[-70.520789,-33.715534],[-70.520724,-33.715535],[-70.520685,-33.715534],[-70.520609,-33.715532],[-70.520506,-33.715527],[-70.520495,-33.715526],[-70.520266,-33.715551],[-70.519998,-33.715575],[-70.519854,-33.715588],[-70.519736,-33.715602],[-70.519656,-33.71563],[-70.519341,-33.715778],[-70.519128,-33.715898],[-70.519094,-33.715917],[-70.51884,-33.716116],[-70.5188,-33.716148],[-70.518619,-33.716289],[-70.518577,-33.71632],[-70.518529,-33.716352],[-70.518458,-33.716396],[-70.518346,-33.716467],[-70.518202,-33.716551],[-70.518128,-33.716591],[-70.517845,-33.716731],[-70.517781,-33.71676],[-70.517666,-33.716801],[-70.517652,-33.716806],[-70.516955,-33.717008],[-70.516215,-33.717241],[-70.516138,-33.717262],[-70.515726,-33.717363],[-70.515672,-33.717374],[-70.515592,-33.717388],[-70.515236,-33.717435],[-70.514843,-33.717582],[-70.514764,-33.717609],[-70.51419,-33.717781],[-70.513645,-33.717952],[-70.512799,-33.71822],[-70.512667,-33.718261],[-70.512654,-33.718266],[-70.512534,-33.718296],[-70.51252,-33.718298],[-70.511952,-33.718404],[-70.511821,-33.718456],[-70.511551,-33.718588],[-70.511405,-33.718706],[-70.511348,-33.718749],[-70.511247,-33.718812],[-70.511188,-33.718842],[-70.510905,-33.718977],[-70.510835,-33.719007],[-70.510694,-33.719064],[-70.510638,-33.719116],[-70.51063,-33.719129],[-70.51046,-33.719388],[-70.510448,-33.719406],[-70.510379,-33.719494],[-70.510298,-33.719574],[-70.510209,-33.719645],[-70.509899,-33.719863],[-70.509897,-33.719865],[-70.509796,-33.719927],[-70.509687,-33.71998],[-70.509684,-33.719981],[-70.509522,-33.720049],[-70.50931,-33.720252],[-70.508897,-33.720677],[-70.508756,-33.720822],[-70.508345,-33.72127],[-70.508273,-33.721341],[-70.508182,-33.721413],[-70.508081,-33.721475],[-70.507973,-33.721528],[-70.507858,-33.721569],[-70.507754,-33.721596],[-70.507455,-33.721659],[-70.507439,-33.721663],[-70.507315,-33.721681],[-70.50719,-33.721687],[-70.507065,-33.721681],[-70.506994,-33.721672],[-70.506607,-33.721612],[-70.506267,-33.721543],[-70.506227,-33.721544],[-70.506085,-33.721576],[-70.505308,-33.721913],[-70.505232,-33.721943],[-70.504778,-33.722103],[-70.504713,-33.722124],[-70.504186,-33.722278],[-70.504101,-33.722369],[-70.504038,-33.72243],[-70.503946,-33.722502],[-70.50394,-33.722507],[-70.503939,-33.722507],[-70.503657,-33.722702],[-70.503564,-33.722759],[-70.503455,-33.722812],[-70.50334,-33.722853],[-70.503258,-33.722875],[-70.502931,-33.72295],[-70.502893,-33.722959],[-70.502769,-33.722977],[-70.502644,-33.722983],[-70.502519,-33.722977],[-70.50243,-33.722965],[-70.502101,-33.72291],[-70.502066,-33.722903],[-70.501945,-33.722873],[-70.50183,-33.722832],[-70.501784,-33.722811],[-70.501458,-33.722657],[-70.501364,-33.722617],[-70.501286,-33.722604],[-70.501145,-33.722779],[-70.501114,-33.722816],[-70.501033,-33.722896],[-70.501023,-33.722906],[-70.500685,-33.723196],[-70.500605,-33.723259],[-70.500504,-33.723321],[-70.500465,-33.723342],[-70.500203,-33.723473],[-70.499919,-33.72362],[-70.499444,-33.723856],[-70.499376,-33.723887],[-70.499261,-33.723929],[-70.499141,-33.723959],[-70.499081,-33.723968],[-70.498342,-33.724102],[-70.498158,-33.72423],[-70.498061,-33.72429],[-70.497982,-33.72433],[-70.497687,-33.724463],[-70.497438,-33.724576],[-70.497409,-33.724589],[-70.497294,-33.72463],[-70.497266,-33.724638],[-70.496733,-33.724787],[-70.49616,-33.724949],[-70.496063,-33.724972],[-70.49594,-33.72499],[-70.495815,-33.724996],[-70.49572,-33.724993],[-70.495524,-33.724978],[-70.495493,-33.724976],[-70.495369,-33.724957],[-70.495263,-33.724931],[-70.494738,-33.724778],[-70.494664,-33.724754],[-70.494295,-33.724621],[-70.494254,-33.724626],[-70.494143,-33.724634],[-70.493672,-33.724651],[-70.493627,-33.724651],[-70.493502,-33.724645],[-70.493379,-33.724627],[-70.493258,-33.724597],[-70.493159,-33.724562],[-70.492986,-33.724492],[-70.492971,-33.724486],[-70.492862,-33.724434],[-70.492761,-33.724371],[-70.492709,-33.72433],[-70.492592,-33.724327],[-70.492503,-33.724321],[-70.492379,-33.724303],[-70.492293,-33.724281],[-70.492233,-33.724358],[-70.49222,-33.724372],[-70.492051,-33.724553],[-70.491984,-33.724619],[-70.491893,-33.724691],[-70.491792,-33.724754],[-70.491768,-33.724767],[-70.491722,-33.72479],[-70.491414,-33.72495],[-70.49133,-33.724989],[-70.491215,-33.725031],[-70.491187,-33.725039],[-70.490549,-33.725217],[-70.490122,-33.725326],[-70.489358,-33.725709],[-70.489287,-33.725742],[-70.489218,-33.725768],[-70.48865,-33.725966],[-70.488558,-33.725994],[-70.487748,-33.726206],[-70.487627,-33.726232],[-70.487139,-33.72631],[-70.4863,-33.726449],[-70.485901,-33.726517],[-70.485799,-33.726554],[-70.485679,-33.726584],[-70.485555,-33.726602],[-70.48543,-33.726608],[-70.485305,-33.726602],[-70.485181,-33.726584],[-70.485061,-33.726554],[-70.484946,-33.726513],[-70.484837,-33.72646],[-70.484737,-33.726397],[-70.484645,-33.726326],[-70.484565,-33.726245],[-70.484496,-33.726158],[-70.484439,-33.726064],[-70.484396,-33.725965],[-70.484367,-33.725863],[-70.484353,-33.725759],[-70.484353,-33.725654],[-70.484367,-33.72555],[-70.484396,-33.725448],[-70.484439,-33.72535],[-70.484496,-33.725256],[-70.484565,-33.725168],[-70.484645,-33.725088],[-70.484737,-33.725016],[-70.484755,-33.725003],[-70.484814,-33.724964],[-70.484896,-33.724915],[-70.485004,-33.724862],[-70.485119,-33.724821],[-70.48524,-33.72479],[-70.485271,-33.724785],[-70.485291,-33.724781],[-70.485442,-33.724755],[-70.485873,-33.724681],[-70.486727,-33.72454],[-70.487161,-33.72447],[-70.487865,-33.724286],[-70.488315,-33.724129],[-70.489037,-33.723767],[-70.489125,-33.723723],[-70.489196,-33.72369],[-70.489311,-33.723649],[-70.489365,-33.723634],[-70.489892,-33.723499],[-70.490324,-33.723379],[-70.490323,-33.723319],[-70.490324,-33.723253],[-70.490339,-33.723149],[-70.49034,-33.723142],[-70.490394,-33.722902],[-70.490421,-33.722807],[-70.490464,-33.722709],[-70.49052,-33.722615],[-70.490547,-33.722578],[-70.490581,-33.722533],[-70.490591,-33.722509],[-70.490588,-33.72244],[-70.490588,-33.722345],[-70.490603,-33.722241],[-70.49061,-33.722211],[-70.490653,-33.722041],[-70.490675,-33.72197],[-70.490718,-33.721871],[-70.490718,-33.72187],[-70.490798,-33.721716],[-70.490854,-33.721623],[-70.490855,-33.721621],[-70.490909,-33.721544],[-70.490977,-33.721458],[-70.491057,-33.721378],[-70.491149,-33.721306],[-70.491249,-33.721243],[-70.491358,-33.721191],[-70.491473,-33.721149],[-70.491593,-33.721119],[-70.491717,-33.721101],[-70.491842,-33.721095],[-70.491967,-33.721101],[-70.492091,-33.721119],[-70.492211,-33.721149],[-70.49229,-33.721176],[-70.492489,-33.721252],[-70.492564,-33.721284],[-70.49274,-33.72133],[-70.493194,-33.721431],[-70.493225,-33.721438],[-70.493563,-33.721522],[-70.493623,-33.721539],[-70.493739,-33.72158],[-70.493847,-33.721633],[-70.493948,-33.721696],[-70.493981,-33.72172],[-70.49413,-33.721833],[-70.494188,-33.721881],[-70.494269,-33.721961],[-70.494338,-33.722049],[-70.494394,-33.722142],[-70.494437,-33.722241],[-70.494466,-33.722343],[-70.494474,-33.722387],[-70.494494,-33.722521],[-70.494494,-33.722525],[-70.494501,-33.722585],[-70.494501,-33.72269],[-70.494487,-33.722794],[-70.494485,-33.722799],[-70.494492,-33.722822],[-70.494712,-33.722846],[-70.494826,-33.722863],[-70.494946,-33.722893],[-70.495007,-33.722913],[-70.495486,-33.723087],[-70.495746,-33.723162],[-70.496046,-33.723078],[-70.496494,-33.722953],[-70.496659,-33.722878],[-70.49686,-33.722787],[-70.497165,-33.722575],[-70.497262,-33.722515],[-70.497371,-33.722462],[-70.497486,-33.722421],[-70.497606,-33.722391],[-70.497626,-33.722387],[-70.498497,-33.722229],[-70.498799,-33.722079],[-70.499081,-33.721933],[-70.499236,-33.721855],[-70.499406,-33.721708],[-70.499757,-33.72127],[-70.499788,-33.721233],[-70.499869,-33.721153],[-70.49996,-33.721081],[-70.500061,-33.721018],[-70.500069,-33.721014],[-70.500295,-33.720892],[-70.500396,-33.720844],[-70.500511,-33.720802],[-70.500631,-33.720772],[-70.500755,-33.720754],[-70.50088,-33.720748],[-70.500924,-33.720749],[-70.501181,-33.720758],[-70.501263,-33.720763],[-70.501353,-33.720775],[-70.50194,-33.720875],[-70.501973,-33.720881],[-70.502093,-33.720911],[-70.502209,-33.720953],[-70.502215,-33.720956],[-70.502479,-33.721069],[-70.502549,-33.721101],[-70.502643,-33.721001],[-70.502706,-33.720939],[-70.502798,-33.720868],[-70.502898,-33.720805],[-70.502995,-33.720758],[-70.503221,-33.72066],[-70.503234,-33.720654],[-70.503349,-33.720613],[-70.503362,-33.720609],[-70.503968,-33.720432],[-70.504352,-33.720296],[-70.505193,-33.719932],[-70.505206,-33.719926],[-70.505321,-33.719885],[-70.505404,-33.719863],[-70.505788,-33.719775],[-70.505825,-33.719767],[-70.505948,-33.719748],[-70.506058,-33.719742],[-70.506372,-33.719739],[-70.506388,-33.719738],[-70.506513,-33.719745],[-70.506637,-33.719763],[-70.506642,-33.719764],[-70.506951,-33.719826],[-70.507062,-33.719705],[-70.507222,-33.71954],[-70.507646,-33.719104],[-70.507659,-33.719092],[-70.50767,-33.71908],[-70.508035,-33.71873],[-70.508064,-33.718703],[-70.508155,-33.718631],[-70.508256,-33.718568],[-70.508365,-33.718516],[-70.508368,-33.718515],[-70.508607,-33.718415],[-70.508664,-33.718375],[-70.508737,-33.718263],[-70.508804,-33.718162],[-70.508816,-33.718144],[-70.508884,-33.718056],[-70.508941,-33.717998],[-70.509222,-33.717732],[-70.509246,-33.71771],[-70.509337,-33.717638],[-70.509438,-33.717576],[-70.509547,-33.717523],[-70.509567,-33.717515],[-70.509644,-33.717484],[-70.509872,-33.717394],[-70.510002,-33.717332],[-70.510143,-33.717217],[-70.5102,-33.717174],[-70.510301,-33.717112],[-70.510348,-33.717087],[-70.510773,-33.716879],[-70.510861,-33.71684],[-70.511145,-33.716729],[-70.511233,-33.716699],[-70.511353,-33.716669],[-70.511366,-33.716666],[-70.511402,-33.71666],[-70.511974,-33.716553],[-70.512035,-33.716533],[-70.512883,-33.716265],[-70.513447,-33.716088],[-70.513997,-33.715923],[-70.514482,-33.715741],[-70.514556,-33.715716],[-70.514676,-33.715686],[-70.514757,-33.715672],[-70.515187,-33.715615],[-70.515495,-33.715541],[-70.516221,-33.715313],[-70.516841,-33.715132],[-70.516994,-33.715057],[-70.517074,-33.715009],[-70.517164,-33.714953],[-70.517191,-33.714936],[-70.517328,-33.714829],[-70.517366,-33.7148],[-70.517681,-33.714553],[-70.517726,-33.714519],[-70.517817,-33.714462],[-70.517924,-33.714402],[-70.518172,-33.714262],[-70.518244,-33.714225],[-70.518643,-33.714037],[-70.518668,-33.714027],[-70.518697,-33.714014],[-70.518778,-33.713982],[-70.518935,-33.713927],[-70.519032,-33.713893],[-70.519079,-33.713878],[-70.519199,-33.713848],[-70.519298,-33.713832],[-70.519429,-33.713817],[-70.519587,-33.713799],[-70.519764,-33.713783],[-70.520013,-33.71376],[-70.520324,-33.713727],[-70.520335,-33.713726],[-70.52046,-33.713719],[-70.520528,-33.713721],[-70.520641,-33.713727],[-70.520704,-33.71373],[-70.520738,-33.713731],[-70.520745,-33.713731],[-70.520839,-33.713728],[-70.520925,-33.713726],[-70.521071,-33.713694],[-70.521248,-33.713632],[-70.52136,-33.713592],[-70.521413,-33.713572],[-70.52159,-33.7135],[-70.521694,-33.713464],[-70.521715,-33.713457],[-70.521821,-33.713427],[-70.521947,-33.713392],[-70.522107,-33.713351],[-70.522333,-33.713294],[-70.522387,-33.713278],[-70.522472,-33.713205],[-70.522499,-33.713182],[-70.522652,-33.71305],[-70.522726,-33.712992],[-70.522934,-33.712844],[-70.52303,-33.712783],[-70.523157,-33.712712],[-70.523258,-33.712629],[-70.523347,-33.712564],[-70.523575,-33.712415],[-70.523574,-33.712413],[-70.523505,-33.712326],[-70.523448,-33.712232],[-70.523432,-33.712198],[-70.523389,-33.712105],[-70.523362,-33.71204],[-70.523334,-33.711938],[-70.523319,-33.711834],[-70.523317,-33.711795],[-70.523316,-33.711728],[-70.523316,-33.711727],[-70.523316,-33.711712],[-70.523316,-33.711701],[-70.523316,-33.711699],[-70.523317,-33.711637],[-70.523317,-33.711636],[-70.523332,-33.711532],[-70.523361,-33.71143],[-70.523404,-33.711331],[-70.523458,-33.711241],[-70.523469,-33.711225],[-70.52347,-33.711223],[-70.523547,-33.71111],[-70.523549,-33.711107],[-70.523618,-33.71102],[-70.523699,-33.710939],[-70.523763,-33.710887],[-70.523818,-33.710846],[-70.523822,-33.710843],[-70.523826,-33.71084],[-70.523867,-33.710809],[-70.523894,-33.710789],[-70.523995,-33.710727],[-70.524103,-33.710674],[-70.524162,-33.710651],[-70.524307,-33.710599],[-70.524364,-33.710581],[-70.524484,-33.710551],[-70.524547,-33.71054],[-70.52517,-33.710449],[-70.525963,-33.710309],[-70.526151,-33.710276],[-70.52681,-33.710149],[-70.526816,-33.710148],[-70.527341,-33.710046],[-70.528491,-33.709848],[-70.529208,-33.709745],[-70.529246,-33.709739],[-70.529377,-33.709715],[-70.529504,-33.709692],[-70.530079,-33.709586],[-70.530144,-33.709576],[-70.531025,-33.709443],[-70.531288,-33.709404],[-70.531388,-33.709393],[-70.531881,-33.709358],[-70.531923,-33.709355],[-70.532212,-33.7093],[-70.532546,-33.709237],[-70.533204,-33.709112],[-70.53377,-33.709005],[-70.534325,-33.708909],[-70.534976,-33.708796],[-70.53522,-33.70875],[-70.536429,-33.708522],[-70.536756,-33.70846],[-70.537937,-33.708243],[-70.538449,-33.708149],[-70.538496,-33.708141],[-70.539357,-33.707998],[-70.539496,-33.707968],[-70.539676,-33.707928],[-70.540226,-33.707805],[-70.540368,-33.707774],[-70.540427,-33.707763],[-70.540435,-33.707761],[-70.542175,-33.707428],[-70.542177,-33.707428],[-70.542178,-33.707427],[-70.542179,-33.707427],[-70.542681,-33.70733],[-70.54341,-33.70719],[-70.543863,-33.707094],[-70.544317,-33.706998],[-70.544471,-33.706965],[-70.544819,-33.706891],[-70.54542,-33.706782],[-70.54562,-33.706746],[-70.545788,-33.706715],[-70.546263,-33.706629],[-70.54683,-33.706545],[-70.547128,-33.706501],[-70.547576,-33.706434],[-70.547746,-33.706402],[-70.547786,-33.706394],[-70.54813,-33.706329],[-70.548164,-33.706321],[-70.548877,-33.706153],[-70.548922,-33.706143],[-70.549045,-33.706125],[-70.549053,-33.706125],[-70.549678,-33.706032],[-70.549785,-33.706021],[-70.550068,-33.706003],[-70.550149,-33.706],[-70.550274,-33.706006],[-70.550398,-33.706024],[-70.550399,-33.706025],[-70.550587,-33.706062],[-70.550588,-33.706062],[-70.550704,-33.706085],[-70.550698,-33.705981],[-70.550686,-33.705629],[-70.550647,-33.705087],[-70.550643,-33.70485],[-70.550644,-33.704782],[-70.550661,-33.704556],[-70.550677,-33.704326],[-70.550682,-33.704264],[-70.550665,-33.704073],[-70.550664,-33.70406],[-70.550664,-33.703955],[-70.550669,-33.703909],[-70.550695,-33.703713],[-70.550705,-33.703656],[-70.550734,-33.703554],[-70.550768,-33.703473],[-70.550792,-33.703423],[-70.550769,-33.703408],[-70.550677,-33.703336],[-70.550645,-33.703306],[-70.550538,-33.703202],[-70.550462,-33.703166],[-70.550362,-33.703103],[-70.55027,-33.703031],[-70.55019,-33.702951],[-70.550121,-33.702863],[-70.550065,-33.70277],[-70.550022,-33.702671],[-70.549993,-33.702569],[-70.549978,-33.702465],[-70.549978,-33.70236],[-70.549993,-33.702256],[-70.550022,-33.702154],[-70.550065,-33.702056],[-70.550121,-33.701962],[-70.55019,-33.701874],[-70.55027,-33.701794],[-70.550362,-33.701722],[-70.550462,-33.701659],[-70.550571,-33.701607],[-70.550686,-33.701565],[-70.550806,-33.701535],[-70.550928,-33.701517],[-70.551002,-33.70151],[-70.551004,-33.70151],[-70.551129,-33.701504],[-70.551255,-33.70151],[-70.551378,-33.701528],[-70.551498,-33.701558],[-70.551613,-33.7016],[-70.551722,-33.701652],[-70.551823,-33.701715],[-70.55191,-33.701783],[-70.552036,-33.701894],[-70.552201,-33.702053],[-70.552553,-33.702273],[-70.552593,-33.7023],[-70.552645,-33.702336],[-70.55267,-33.702353],[-70.552677,-33.702358],[-70.552769,-33.70243],[-70.552849,-33.70251],[-70.552918,-33.702598],[-70.552974,-33.702692],[-70.553017,-33.70279],[-70.553026,-33.702817],[-70.553037,-33.70285],[-70.553051,-33.702893],[-70.553071,-33.702969],[-70.553085,-33.703073],[-70.553085,-33.703177],[-70.553071,-33.703282],[-70.553062,-33.703317],[-70.553053,-33.703352],[-70.553049,-33.70341],[-70.553035,-33.703514],[-70.553006,-33.703616],[-70.552997,-33.703638],[-70.552983,-33.703674],[-70.552933,-33.703803],[-70.552918,-33.703835],[-70.552907,-33.703862],[-70.552877,-33.703925],[-70.552825,-33.704031],[-70.552839,-33.704195],[-70.55284,-33.704208],[-70.55284,-33.704313],[-70.55284,-33.704319],[-70.552831,-33.704439],[-70.552814,-33.704664],[-70.5528,-33.704857],[-70.552803,-33.705019],[-70.552842,-33.705549],[-70.552854,-33.705917],[-70.552868,-33.706192],[-70.552909,-33.706362],[-70.552913,-33.706381],[-70.552928,-33.706486],[-70.55293,-33.706548],[-70.552927,-33.706748],[-70.552899,-33.707302],[-70.552892,-33.707433],[-70.552888,-33.707509],[-70.552875,-33.707781],[-70.552858,-33.708152],[-70.552851,-33.708294],[-70.552786,-33.709648],[-70.552753,-33.710329],[-70.552741,-33.710585],[-70.552736,-33.710684],[-70.552882,-33.710618],[-70.553335,-33.710411],[-70.553802,-33.710198],[-70.554001,-33.710107],[-70.554706,-33.709785],[-70.555095,-33.709608],[-70.555317,-33.709507],[-70.555811,-33.709281],[-70.556033,-33.70918],[-70.556233,-33.709089],[-70.556897,-33.708787],[-70.557319,-33.708595],[-70.557978,-33.708295],[-70.558139,-33.708229],[-70.558313,-33.708157],[-70.558453,-33.708094],[-70.559551,-33.707602],[-70.559951,-33.707422],[-70.560881,-33.707004],[-70.561274,-33.706828],[-70.561978,-33.706512],[-70.562014,-33.706496],[-70.562663,-33.706204],[-70.56314,-33.70599],[-70.563442,-33.705855],[-70.563407,-33.705745],[-70.563269,-33.705307],[-70.563124,-33.704846],[-70.56303,-33.704549],[-70.562894,-33.704112],[-70.562651,-33.703336],[-70.562522,-33.702921],[-70.562325,-33.702291],[-70.562242,-33.702027],[-70.562063,-33.701454],[-70.562017,-33.701306],[-70.561965,-33.701141],[-70.561867,-33.700826],[-70.561698,-33.700286],[-70.561653,-33.700142],[-70.561634,-33.700071],[-70.561626,-33.700022],[-70.561604,-33.699869],[-70.561598,-33.699814],[-70.561598,-33.699709],[-70.561611,-33.699612],[-70.561625,-33.699544],[-70.561664,-33.699349],[-70.561679,-33.699287],[-70.561837,-33.698742],[-70.561923,-33.698443],[-70.561987,-33.698223],[-70.562002,-33.698176],[-70.562033,-33.698101],[-70.562152,-33.69785],[-70.562169,-33.697815],[-70.562181,-33.697792],[-70.562237,-33.697698],[-70.562281,-33.69764],[-70.562538,-33.697326],[-70.562563,-33.697296],[-70.562644,-33.697216],[-70.56268,-33.697186],[-70.563163,-33.696797],[-70.563218,-33.696755],[-70.563259,-33.696728],[-70.563475,-33.69659],[-70.563724,-33.696433],[-70.563775,-33.696401],[-70.564597,-33.695901],[-70.564612,-33.695892],[-70.564622,-33.695886],[-70.564826,-33.695761],[-70.565493,-33.695386],[-70.565512,-33.695375],[-70.565518,-33.695372],[-70.565519,-33.695371],[-70.565527,-33.695367],[-70.56558,-33.695337],[-70.565652,-33.695296],[-70.565794,-33.695217],[-70.566056,-33.695081],[-70.566541,-33.69483],[-70.567075,-33.694554],[-70.567714,-33.694146],[-70.567884,-33.694037],[-70.568076,-33.693893],[-70.568077,-33.693891],[-70.568561,-33.693464],[-70.568936,-33.693063],[-70.568982,-33.693016],[-70.569046,-33.692957],[-70.569116,-33.692891],[-70.56922,-33.692795],[-70.570343,-33.691694],[-70.570791,-33.691283],[-70.571147,-33.690956],[-70.571159,-33.690945],[-70.57125,-33.690873],[-70.571264,-33.690864],[-70.571661,-33.690594],[-70.571749,-33.690541],[-70.571791,-33.690519],[-70.572193,-33.690319],[-70.572375,-33.690229],[-70.572574,-33.690103],[-70.572698,-33.689928],[-70.572769,-33.689768],[-70.572811,-33.68967],[-70.572834,-33.689622],[-70.57288,-33.689544],[-70.572882,-33.68954],[-70.573147,-33.68914],[-70.573157,-33.689124],[-70.573226,-33.689037],[-70.573285,-33.688977],[-70.573649,-33.688633],[-70.574154,-33.688127],[-70.574947,-33.687098],[-70.57501,-33.687026],[-70.575496,-33.686514],[-70.575545,-33.686467],[-70.576094,-33.685965],[-70.576282,-33.685761],[-70.576669,-33.685339],[-70.576919,-33.685067],[-70.576977,-33.685009],[-70.577024,-33.684966],[-70.577179,-33.684824],[-70.577487,-33.684541],[-70.577505,-33.684342],[-70.577514,-33.68428],[-70.577579,-33.683912],[-70.577588,-33.683861],[-70.577669,-33.683408],[-70.577746,-33.682967],[-70.577751,-33.682941],[-70.57778,-33.682839],[-70.577806,-33.682775],[-70.577878,-33.682617],[-70.577888,-33.682595],[-70.577905,-33.68256],[-70.577962,-33.682466],[-70.578031,-33.682379],[-70.578111,-33.682299],[-70.578121,-33.68229],[-70.578416,-33.682035],[-70.578497,-33.681972],[-70.578598,-33.68191],[-70.578626,-33.681895],[-70.579005,-33.6817],[-70.57906,-33.681672],[-70.580186,-33.681039],[-70.580617,-33.680814],[-70.580801,-33.680648],[-70.580884,-33.680554],[-70.581085,-33.680324],[-70.581448,-33.679824],[-70.581767,-33.679423],[-70.581839,-33.679342],[-70.582204,-33.67898],[-70.582245,-33.678941],[-70.582315,-33.678884],[-70.582379,-33.678837],[-70.582383,-33.678834],[-70.582401,-33.678816],[-70.582563,-33.67856],[-70.582733,-33.678242],[-70.582815,-33.678088],[-70.582892,-33.677923],[-70.582947,-33.677803],[-70.582958,-33.677747],[-70.583009,-33.677492],[-70.583069,-33.677016],[-70.583077,-33.676945],[-70.583104,-33.676735],[-70.583116,-33.676636],[-70.583122,-33.67659],[-70.583125,-33.676566],[-70.583142,-33.67643],[-70.583179,-33.676131],[-70.583189,-33.676051],[-70.583241,-33.675629],[-70.582641,-33.675558],[-70.580521,-33.674688],[-70.578825,-33.673313],[-70.577721,-33.671568],[-70.577506,-33.670537],[-70.576446,-33.670588],[-70.574608,-33.670695],[-70.571785,-33.670835],[-70.571668,-33.670841],[-70.570083,-33.67092],[-70.567273,-33.671055],[-70.565364,-33.671147],[-70.565175,-33.671156],[-70.564964,-33.671166],[-70.56469,-33.67118],[-70.56211,-33.671307],[-70.55894,-33.671511],[-70.55862,-33.671552],[-70.558595,-33.671556],[-70.558538,-33.671563],[-70.558516,-33.671566],[-70.558512,-33.671566],[-70.558506,-33.671567],[-70.558421,-33.671578],[-70.557856,-33.671651],[-70.55776,-33.67166],[-70.557616,-33.671668],[-70.55743,-33.671678],[-70.556192,-33.671744],[-70.55617,-33.671745],[-70.556005,-33.671754],[-70.555949,-33.671757],[-70.555908,-33.671759],[-70.551997,-33.671959],[-70.551565,-33.671981],[-70.551525,-33.671983],[-70.551458,-33.671986],[-70.550444,-33.672036],[-70.548118,-33.672151],[-70.547562,-33.672178],[-70.546814,-33.672215],[-70.546746,-33.672219],[-70.546374,-33.672242],[-70.544754,-33.672341],[-70.544696,-33.672344],[-70.544544,-33.672353],[-70.544109,-33.67238],[-70.542409,-33.672473],[-70.54218,-33.672485],[-70.540975,-33.672551],[-70.538671,-33.672648],[-70.53844,-33.672658],[-70.537505,-33.672698],[-70.537359,-33.672704],[-70.534437,-33.672758],[-70.533841,-33.672784],[-70.533779,-33.672787],[-70.533619,-33.672794],[-70.533804,-33.675213],[-70.533889,-33.676329],[-70.534031,-33.678189],[-70.534074,-33.678646],[-70.534199,-33.679995],[-70.534275,-33.680806],[-70.534298,-33.681054],[-70.53431,-33.681285],[-70.534311,-33.681311],[-70.534311,-33.681321],[-70.534312,-33.681361],[-70.534325,-33.681529],[-70.534338,-33.68169],[-70.534356,-33.681923],[-70.534359,-33.681958],[-70.53436,-33.681965],[-70.534362,-33.681979],[-70.534404,-33.682308],[-70.534432,-33.682624],[-70.534459,-33.682923],[-70.534495,-33.683312],[-70.534502,-33.683506],[-70.534525,-33.683715],[-70.534529,-33.683769],[-70.534535,-33.683927],[-70.534556,-33.684101],[-70.534559,-33.684136],[-70.53456,-33.684138],[-70.53456,-33.68414],[-70.534586,-33.684494],[-70.534609,-33.684647],[-70.53462,-33.684717],[-70.534622,-33.684731],[-70.534624,-33.684744],[-70.534641,-33.684854],[-70.534922,-33.68597],[-70.534943,-33.686059],[-70.534948,-33.68608],[-70.534961,-33.686167],[-70.534967,-33.686235],[-70.534973,-33.686301],[-70.535018,-33.686793],[-70.53502,-33.686809],[-70.535021,-33.686898],[-70.535013,-33.687047],[-70.537018,-33.687287],[-70.539139,-33.688157],[-70.540834,-33.689533],[-70.541938,-33.691279],[-70.542342,-33.693224],[-70.542007,-33.695179],[-70.540966,-33.696952],[-70.539321,-33.698369],[-70.537232,-33.699292],[-70.536411,-33.699411],[-70.536427,-33.699614],[-70.536428,-33.699616],[-70.536428,-33.699625],[-70.536428,-33.69973],[-70.536414,-33.699834],[-70.536385,-33.699936],[-70.536342,-33.700035],[-70.536286,-33.700129],[-70.536217,-33.700216],[-70.536136,-33.700296],[-70.536045,-33.700368],[-70.535944,-33.700431],[-70.535836,-33.700483],[-70.53572,-33.700525],[-70.5356,-33.700555],[-70.535477,-33.700573],[-70.535351,-33.700579],[-70.535226,-33.700573],[-70.535103,-33.700555],[-70.534983,-33.700525],[-70.534867,-33.700483],[-70.534759,-33.700431],[-70.534658,-33.700368],[-70.534567,-33.700296],[-70.534486,-33.700216],[-70.534417,-33.700129],[-70.534361,-33.700035],[-70.534318,-33.699936],[-70.534289,-33.699834],[-70.534275,-33.699739],[-70.534275,-33.699737],[-70.53426,-33.699553],[-70.532565,-33.69935],[-70.530444,-33.698479],[-70.528749,-33.697104],[-70.527646,-33.695358],[-70.527242,-33.693412],[-70.527577,-33.691457],[-70.528618,-33.689684],[-70.530263,-33.688267],[-70.532352,-33.687345],[-70.532846,-33.687273],[-70.532847,-33.687205],[-70.532863,-33.686878],[-70.532823,-33.68644],[-70.532816,-33.686374],[-70.532815,-33.68636],[-70.532809,-33.686334],[-70.532521,-33.685189],[-70.532506,-33.685117],[-70.532484,-33.684971],[-70.532482,-33.684957],[-70.53248,-33.684944],[-70.53247,-33.684876],[-70.532442,-33.684696],[-70.532435,-33.684635],[-70.532408,-33.684266],[-70.532385,-33.684078],[-70.53238,-33.684014],[-70.532374,-33.683851],[-70.532352,-33.683643],[-70.532349,-33.683613],[-70.532348,-33.683588],[-70.532347,-33.683584],[-70.532347,-33.683576],[-70.532341,-33.68341],[-70.532308,-33.683061],[-70.532281,-33.682758],[-70.532256,-33.682472],[-70.532217,-33.682171],[-70.532215,-33.682158],[-70.532214,-33.682145],[-70.532213,-33.682137],[-70.532212,-33.682132],[-70.532209,-33.682099],[-70.532208,-33.682095],[-70.532204,-33.682042],[-70.532186,-33.68181],[-70.532173,-33.681648],[-70.532156,-33.681434],[-70.532154,-33.681348],[-70.532154,-33.681338],[-70.532145,-33.681164],[-70.532125,-33.680946],[-70.532049,-33.680135],[-70.531923,-33.678786],[-70.53188,-33.678317],[-70.531737,-33.676444],[-70.531651,-33.675328],[-70.531449,-33.672679],[-70.531394,-33.672652],[-70.531355,-33.67263],[-70.530999,-33.672415],[-70.530937,-33.672374],[-70.530845,-33.672303],[-70.530765,-33.672222],[-70.530745,-33.672199],[-70.530383,-33.671765],[-70.530339,-33.671705],[-70.529837,-33.671028],[-70.529799,-33.670973],[-70.52965,-33.670735],[-70.529614,-33.670672],[-70.529571,-33.670574],[-70.529542,-33.670472],[-70.529527,-33.670367],[-70.529526,-33.670293],[-70.529537,-33.669931],[-70.529546,-33.669832],[-70.529595,-33.669531],[-70.529595,-33.669529],[-70.529655,-33.669111],[-70.529769,-33.66832],[-70.529818,-33.667967],[-70.529829,-33.667907],[-70.529855,-33.667791],[-70.529925,-33.667312],[-70.529926,-33.6673],[-70.529989,-33.666816],[-70.53,-33.666757],[-70.530002,-33.66675],[-70.530016,-33.666661],[-70.530165,-33.665896],[-70.530168,-33.665883],[-70.530439,-33.664533],[-70.530496,-33.664195],[-70.531249,-33.659725],[-70.53133,-33.659242],[-70.5317,-33.656852],[-70.531785,-33.656302],[-70.532158,-33.653891],[-70.532293,-33.653017],[-70.532369,-33.652526],[-70.532425,-33.652207],[-70.532749,-33.650046],[-70.532799,-33.64971],[-70.532903,-33.648996],[-70.532935,-33.6488],[-70.532947,-33.648732],[-70.533012,-33.648345],[-70.533057,-33.648078],[-70.533107,-33.647783],[-70.533115,-33.64774],[-70.533226,-33.646896],[-70.533304,-33.646451],[-70.533378,-33.646025],[-70.533509,-33.645267],[-70.533588,-33.644827],[-70.533649,-33.644485],[-70.53372,-33.643855],[-70.533933,-33.642582],[-70.534113,-33.641507],[-70.53426,-33.640629],[-70.534504,-33.639168],[-70.534957,-33.636467],[-70.535195,-33.634526],[-70.535206,-33.634461],[-70.535221,-33.634401],[-70.535252,-33.634297],[-70.535265,-33.634255],[-70.535308,-33.634156],[-70.535364,-33.634063],[-70.535433,-33.633975],[-70.535435,-33.633973],[-70.535535,-33.633861],[-70.535537,-33.633859],[-70.535616,-33.633781],[-70.535661,-33.633745],[-70.535661,-33.633744],[-70.535661,-33.63364],[-70.535664,-33.633606],[-70.535664,-33.633605],[-70.53567,-33.633554],[-70.535672,-33.633531],[-70.535684,-33.633431],[-70.53569,-33.633382],[-70.535719,-33.633127],[-70.535731,-33.633055],[-70.53575,-33.632964],[-70.535785,-33.632799],[-70.535834,-33.632571],[-70.535877,-33.63237],[-70.535908,-33.632225],[-70.535917,-33.632179],[-70.535933,-33.632106],[-70.535933,-33.632104],[-70.535971,-33.631927],[-70.535975,-33.631911],[-70.53596,-33.631878],[-70.535952,-33.631861],[-70.535946,-33.631845],[-70.535934,-33.631818],[-70.535928,-33.631803],[-70.535917,-33.631775],[-70.535911,-33.631762],[-70.535911,-33.631761],[-70.53591,-33.631759],[-70.535909,-33.631757],[-70.535908,-33.631755],[-70.535907,-33.631752],[-70.535906,-33.63175],[-70.535905,-33.631747],[-70.535904,-33.631745],[-70.535903,-33.631743],[-70.535902,-33.631741],[-70.535901,-33.631737],[-70.535899,-33.631732],[-70.535899,-33.631731],[-70.535897,-33.631727],[-70.535896,-33.631726],[-70.535894,-33.631721],[-70.535894,-33.63172],[-70.535893,-33.631718],[-70.535892,-33.631715],[-70.535891,-33.631712],[-70.53589,-33.631712],[-70.53589,-33.631711],[-70.535889,-33.631708],[-70.535888,-33.631706],[-70.535885,-33.631698],[-70.535883,-33.631693],[-70.535879,-33.631683],[-70.535878,-33.631681],[-70.535874,-33.631671],[-70.535873,-33.63167],[-70.535872,-33.631667],[-70.535871,-33.631665],[-70.535867,-33.631656],[-70.535866,-33.631652],[-70.535865,-33.631649],[-70.535862,-33.631643],[-70.535859,-33.631635],[-70.535854,-33.631624],[-70.535849,-33.631612],[-70.535835,-33.631575],[-70.535806,-33.631473],[-70.535791,-33.631369],[-70.535791,-33.631264],[-70.535796,-33.631217],[-70.535804,-33.631155],[-70.535875,-33.630621],[-70.535974,-33.629867],[-70.535996,-33.629707],[-70.536001,-33.629664],[-70.536004,-33.62965],[-70.536005,-33.629639],[-70.536006,-33.629634],[-70.53601,-33.629607],[-70.536014,-33.629585],[-70.536185,-33.628552],[-70.536333,-33.627616],[-70.536337,-33.627589],[-70.536341,-33.627562],[-70.536341,-33.627561],[-70.536343,-33.627551],[-70.536343,-33.627548],[-70.536496,-33.626677],[-70.536712,-33.625389],[-70.536713,-33.625385],[-70.536713,-33.625384],[-70.536867,-33.624508],[-70.53687,-33.624489],[-70.536891,-33.624338],[-70.536911,-33.624192],[-70.536942,-33.623974],[-70.537084,-33.6231],[-70.537116,-33.622901],[-70.537121,-33.622872],[-70.537133,-33.622799],[-70.536584,-33.622585],[-70.536553,-33.622573],[-70.536345,-33.622485],[-70.536292,-33.622463],[-70.536185,-33.622411],[-70.536084,-33.622349],[-70.536083,-33.622348],[-70.536074,-33.622341],[-70.535944,-33.62225],[-70.535926,-33.622237],[-70.535836,-33.622166],[-70.535756,-33.622086],[-70.535748,-33.622077],[-70.535647,-33.621961],[-70.535606,-33.621913],[-70.535568,-33.621871],[-70.535515,-33.621814],[-70.535509,-33.621806],[-70.53544,-33.621719],[-70.535396,-33.621647],[-70.53537,-33.621602],[-70.535318,-33.621507],[-70.535306,-33.621485],[-70.535263,-33.621386],[-70.53526,-33.621378],[-70.535224,-33.621273],[-70.535198,-33.62118],[-70.535186,-33.621107],[-70.535162,-33.62089],[-70.535157,-33.620819],[-70.535154,-33.620617],[-70.53515,-33.620574],[-70.535077,-33.620459],[-70.53505,-33.620427],[-70.535004,-33.62038],[-70.534881,-33.62029],[-70.534833,-33.620264],[-70.53479,-33.62024],[-70.534705,-33.620216],[-70.534578,-33.620183],[-70.534465,-33.620175],[-70.534435,-33.620176],[-70.534334,-33.62022],[-70.534194,-33.620296],[-70.534026,-33.62039],[-70.533828,-33.62051],[-70.533787,-33.620534],[-70.533706,-33.620574],[-70.533604,-33.620621],[-70.5335,-33.620662],[-70.533444,-33.620681],[-70.533354,-33.620712],[-70.533314,-33.620725],[-70.533194,-33.620755],[-70.533184,-33.620757],[-70.532959,-33.6208],[-70.532845,-33.620816],[-70.532789,-33.62082],[-70.532603,-33.62083],[-70.532378,-33.620842],[-70.532008,-33.620851],[-70.531963,-33.620852],[-70.53193,-33.620852],[-70.531393,-33.620848],[-70.531277,-33.620842],[-70.531234,-33.620837],[-70.531141,-33.620825],[-70.531061,-33.620811],[-70.530941,-33.620781],[-70.5309,-33.620768],[-70.530807,-33.620736],[-70.530795,-33.620732],[-70.530721,-33.620704],[-70.530641,-33.620667],[-70.530301,-33.620492],[-70.530171,-33.620425],[-70.530051,-33.620364],[-70.529967,-33.62032],[-70.528847,-33.619784],[-70.528486,-33.619609],[-70.52834,-33.619537],[-70.528219,-33.619473],[-70.528157,-33.619439],[-70.528076,-33.619396],[-70.527907,-33.619334],[-70.527514,-33.619208],[-70.527267,-33.619135],[-70.527128,-33.619093],[-70.526758,-33.618986],[-70.526653,-33.618973],[-70.526535,-33.618959],[-70.52638,-33.618941],[-70.525922,-33.618883],[-70.52585,-33.618873],[-70.525373,-33.618805],[-70.525126,-33.618763],[-70.525093,-33.618757],[-70.524989,-33.618732],[-70.52424,-33.618515],[-70.523992,-33.618453],[-70.523729,-33.618419],[-70.523351,-33.618388],[-70.523309,-33.61839],[-70.523172,-33.618395],[-70.523082,-33.6184],[-70.522686,-33.618418],[-70.522444,-33.618433],[-70.522373,-33.618436],[-70.522018,-33.618438],[-70.52183,-33.618454],[-70.521533,-33.618498],[-70.521426,-33.618515],[-70.521071,-33.618574],[-70.521052,-33.618578],[-70.520924,-33.618601],[-70.520884,-33.618608],[-70.52078,-33.618623],[-70.520671,-33.618629],[-70.520666,-33.618629],[-70.520543,-33.61863],[-70.520527,-33.61863],[-70.520402,-33.618624],[-70.52038,-33.618622],[-70.520234,-33.618605],[-70.52012,-33.618587],[-70.520107,-33.618584],[-70.51981,-33.618522],[-70.519656,-33.618486],[-70.519555,-33.618458],[-70.519526,-33.618449],[-70.519457,-33.618426],[-70.519362,-33.618391],[-70.519253,-33.618339],[-70.519253,-33.618338],[-70.519092,-33.61825],[-70.518992,-33.618188],[-70.518901,-33.618116],[-70.51882,-33.618035],[-70.518803,-33.618016],[-70.518707,-33.617901],[-70.518405,-33.617817],[-70.518376,-33.617809],[-70.518278,-33.617774],[-70.518029,-33.617674],[-70.51778,-33.6176],[-70.517773,-33.617598],[-70.517658,-33.617556],[-70.517631,-33.617545],[-70.516948,-33.617237],[-70.51644,-33.617007],[-70.516343,-33.616964],[-70.516124,-33.616867],[-70.516042,-33.616831],[-70.515207,-33.616475],[-70.514698,-33.616253],[-70.51426,-33.616181],[-70.513668,-33.616115],[-70.513592,-33.616104],[-70.513045,-33.61601],[-70.512858,-33.616001],[-70.512461,-33.616017],[-70.512368,-33.616017],[-70.512223,-33.616013],[-70.512076,-33.616008],[-70.511992,-33.616003],[-70.511917,-33.615993],[-70.511537,-33.615933],[-70.511501,-33.615927],[-70.511404,-33.615908],[-70.510817,-33.615767],[-70.510745,-33.615748],[-70.510657,-33.615717],[-70.509701,-33.615342],[-70.509674,-33.615332],[-70.509566,-33.615279],[-70.5095,-33.61524],[-70.509312,-33.615119],[-70.509302,-33.615112],[-70.508995,-33.614968],[-70.508723,-33.614867],[-70.508678,-33.614849],[-70.50857,-33.614797],[-70.508484,-33.614744],[-70.508158,-33.614523],[-70.50803,-33.614437],[-70.50764,-33.614241],[-70.507156,-33.614037],[-70.507049,-33.613986],[-70.506948,-33.613923],[-70.506857,-33.613851],[-70.50678,-33.613775],[-70.506632,-33.613609],[-70.506628,-33.613605],[-70.506559,-33.613518],[-70.506503,-33.613424],[-70.506463,-33.613333],[-70.50643,-33.613246],[-70.506407,-33.613181],[-70.506128,-33.613301],[-70.506121,-33.613303],[-70.506006,-33.613345],[-70.505886,-33.613375],[-70.505763,-33.613393],[-70.505637,-33.613399],[-70.505607,-33.613399],[-70.505246,-33.613391],[-70.505151,-33.613385],[-70.505046,-33.61337],[-70.504683,-33.613304],[-70.504665,-33.6133],[-70.504545,-33.61327],[-70.504508,-33.613258],[-70.504215,-33.613159],[-70.504137,-33.613129],[-70.504028,-33.613077],[-70.503927,-33.613014],[-70.503836,-33.612942],[-70.503808,-33.612916],[-70.503732,-33.612843],[-70.50368,-33.612789],[-70.503611,-33.612701],[-70.503588,-33.612663],[-70.503579,-33.612721],[-70.503572,-33.612754],[-70.503544,-33.612856],[-70.503501,-33.612954],[-70.503444,-33.613048],[-70.503439,-33.613056],[-70.503394,-33.61312],[-70.503323,-33.61322],[-70.503286,-33.613273],[-70.503222,-33.613352],[-70.503142,-33.613433],[-70.503051,-33.613505],[-70.503017,-33.613527],[-70.502956,-33.613567],[-70.502849,-33.613636],[-70.502848,-33.613637],[-70.502781,-33.613677],[-70.502673,-33.613729],[-70.502557,-33.613771],[-70.502465,-33.613795],[-70.502461,-33.613796],[-70.502238,-33.613845],[-70.50221,-33.613851],[-70.502087,-33.613869],[-70.502079,-33.61387],[-70.501837,-33.613892],[-70.50178,-33.613898],[-70.501663,-33.613903],[-70.501538,-33.613897],[-70.501501,-33.613893],[-70.501368,-33.613876],[-70.501249,-33.613861],[-70.501072,-33.613838],[-70.500985,-33.613824],[-70.500865,-33.613794],[-70.500794,-33.61377],[-70.500761,-33.613758],[-70.499948,-33.613562],[-70.499382,-33.613442],[-70.499271,-33.613418],[-70.499127,-33.613388],[-70.498407,-33.613259],[-70.498384,-33.613254],[-70.498264,-33.613224],[-70.498149,-33.613183],[-70.498098,-33.61316],[-70.497757,-33.612997],[-70.497699,-33.612967],[-70.497627,-33.612924],[-70.497386,-33.612766],[-70.497358,-33.612747],[-70.497287,-33.612692],[-70.496879,-33.61235],[-70.495678,-33.611555],[-70.495651,-33.611569],[-70.495561,-33.611611],[-70.495446,-33.611653],[-70.495421,-33.61166],[-70.495016,-33.611774],[-70.49492,-33.611797],[-70.494853,-33.611809],[-70.494608,-33.611844],[-70.494551,-33.611851],[-70.494426,-33.611857],[-70.494301,-33.611851],[-70.494178,-33.611832],[-70.494058,-33.611802],[-70.49399,-33.61178],[-70.493603,-33.611636],[-70.493556,-33.611618],[-70.493462,-33.611573],[-70.493237,-33.611454],[-70.493222,-33.611446],[-70.493122,-33.611383],[-70.493031,-33.611311],[-70.49295,-33.611231],[-70.492881,-33.611143],[-70.492825,-33.611049],[-70.492801,-33.610998],[-70.492713,-33.610793],[-70.492694,-33.610746],[-70.492675,-33.610684],[-70.492641,-33.610558],[-70.492458,-33.610346],[-70.492397,-33.610268],[-70.492354,-33.610198],[-70.492353,-33.610196],[-70.492298,-33.610097],[-70.492159,-33.609942],[-70.491922,-33.609785],[-70.491117,-33.609315],[-70.491064,-33.609282],[-70.490355,-33.608812],[-70.488793,-33.608021],[-70.488755,-33.608007],[-70.48856,-33.607933],[-70.488392,-33.607902],[-70.488367,-33.607897],[-70.488281,-33.607894],[-70.487695,-33.607871],[-70.486977,-33.607832],[-70.486093,-33.607889],[-70.485795,-33.607926],[-70.48576,-33.60793],[-70.485635,-33.607936],[-70.48551,-33.60793],[-70.485386,-33.607912],[-70.48533,-33.6079],[-70.485225,-33.607874],[-70.485082,-33.607838],[-70.483781,-33.607461],[-70.483747,-33.607452],[-70.483708,-33.60746],[-70.483479,-33.607525],[-70.483293,-33.607624],[-70.483197,-33.60767],[-70.483082,-33.607712],[-70.482962,-33.607742],[-70.4829,-33.607753],[-70.48289,-33.607754],[-70.482863,-33.607758],[-70.482592,-33.607798],[-70.482482,-33.607814],[-70.482464,-33.607817],[-70.482045,-33.607882],[-70.481886,-33.607907],[-70.481814,-33.607916],[-70.481689,-33.607922],[-70.481564,-33.607916],[-70.481521,-33.607911],[-70.481415,-33.607897],[-70.481357,-33.607889],[-70.481107,-33.607856],[-70.481026,-33.607843],[-70.480906,-33.607813],[-70.480831,-33.607787],[-70.479932,-33.607447],[-70.479757,-33.607398],[-70.479699,-33.607414],[-70.479626,-33.607432],[-70.479157,-33.607533],[-70.479137,-33.607537],[-70.479013,-33.607555],[-70.47898,-33.607558],[-70.478781,-33.607573],[-70.478689,-33.607576],[-70.478564,-33.60757],[-70.478441,-33.607552],[-70.47832,-33.607521],[-70.478205,-33.60748],[-70.478104,-33.607431],[-70.477975,-33.607361],[-70.477967,-33.607357],[-70.477867,-33.607295],[-70.477776,-33.607223],[-70.477715,-33.607164],[-70.477508,-33.606946],[-70.477269,-33.606793],[-70.477014,-33.606671],[-70.476919,-33.606619],[-70.476833,-33.606602],[-70.476354,-33.606589],[-70.476266,-33.606583],[-70.476142,-33.606565],[-70.4761,-33.606556],[-70.475713,-33.606465],[-70.475636,-33.606444],[-70.475521,-33.606402],[-70.475412,-33.60635],[-70.475312,-33.606287],[-70.475268,-33.606255],[-70.474882,-33.605953],[-70.474155,-33.605395],[-70.47396,-33.605269],[-70.473691,-33.605177],[-70.473633,-33.605155],[-70.473145,-33.604958],[-70.473129,-33.604952],[-70.473021,-33.604899],[-70.473014,-33.604895],[-70.472596,-33.604662],[-70.472503,-33.604603],[-70.472488,-33.604593],[-70.47194,-33.604194],[-70.471863,-33.604132],[-70.471823,-33.604095],[-70.471229,-33.603505],[-70.471188,-33.603462],[-70.471146,-33.603411],[-70.470648,-33.602762],[-70.470609,-33.602705],[-70.470583,-33.602677],[-70.469908,-33.601882],[-70.469212,-33.601175],[-70.468173,-33.600183],[-70.467947,-33.599996],[-70.467646,-33.599826],[-70.467616,-33.59981],[-70.467325,-33.599652],[-70.467168,-33.599562],[-70.467086,-33.599509],[-70.466995,-33.599437],[-70.466914,-33.599357],[-70.46686,-33.59929],[-70.466726,-33.599108],[-70.466712,-33.599087],[-70.466655,-33.598993],[-70.466634,-33.598948],[-70.466376,-33.598364],[-70.466269,-33.598129],[-70.466062,-33.597671],[-70.465917,-33.597373],[-70.465909,-33.597359],[-70.465896,-33.597334],[-70.465835,-33.597247],[-70.465726,-33.597092],[-70.465214,-33.596524],[-70.463615,-33.594754],[-70.463575,-33.594706],[-70.463435,-33.594527],[-70.463227,-33.594263],[-70.462937,-33.593935],[-70.462885,-33.593889],[-70.462848,-33.593863],[-70.462801,-33.593832],[-70.462754,-33.593805],[-70.462706,-33.593781],[-70.462659,-33.593761],[-70.462613,-33.593744],[-70.462567,-33.593729],[-70.462521,-33.593717],[-70.462475,-33.593709],[-70.46243,-33.593702],[-70.462386,-33.593698],[-70.462366,-33.593698],[-70.462341,-33.593697],[-70.462296,-33.593698],[-70.462217,-33.593704],[-70.462117,-33.593708],[-70.462066,-33.593707],[-70.461884,-33.5937],[-70.461675,-33.593682],[-70.461467,-33.593655],[-70.461261,-33.593619],[-70.461058,-33.593574],[-70.460857,-33.593521],[-70.460661,-33.593459],[-70.460503,-33.593402],[-70.460465,-33.593388],[-70.460458,-33.593385],[-70.460305,-33.593322],[-70.460134,-33.593244],[-70.460013,-33.593183],[-70.459967,-33.593159],[-70.459824,-33.59308],[-70.458875,-33.592549],[-70.458782,-33.5925],[-70.458635,-33.592458],[-70.458422,-33.592408],[-70.458342,-33.592387],[-70.458227,-33.592345],[-70.458164,-33.592317],[-70.457996,-33.592234],[-70.457951,-33.59221],[-70.45785,-33.592148],[-70.457775,-33.59209],[-70.457637,-33.591972],[-70.45762,-33.591958],[-70.45754,-33.591878],[-70.457471,-33.59179],[-70.457442,-33.591742],[-70.457189,-33.591653],[-70.457149,-33.591639],[-70.457083,-33.591614],[-70.456974,-33.591561],[-70.456874,-33.591499],[-70.456782,-33.591427],[-70.456702,-33.591346],[-70.456633,-33.591259],[-70.456577,-33.591165],[-70.456534,-33.591067],[-70.456505,-33.590965],[-70.456491,-33.59086],[-70.456491,-33.590756],[-70.456505,-33.590651],[-70.456534,-33.590549],[-70.456577,-33.590451],[-70.456633,-33.590357],[-70.456702,-33.59027],[-70.456782,-33.590189],[-70.456874,-33.590117],[-70.456974,-33.590055],[-70.457083,-33.590002],[-70.457198,-33.589961],[-70.457318,-33.589931],[-70.457441,-33.589912],[-70.457566,-33.589906],[-70.457691,-33.589912],[-70.457815,-33.589931],[-70.457935,-33.589961],[-70.457983,-33.589977],[-70.458022,-33.58999],[-70.458543,-33.590173],[-70.458689,-33.590231],[-70.458704,-33.590237],[-70.458813,-33.59029],[-70.458913,-33.590353],[-70.459004,-33.590424],[-70.459085,-33.590505],[-70.459118,-33.590544],[-70.459239,-33.590696],[-70.459267,-33.590734],[-70.459305,-33.590744],[-70.459604,-33.59083],[-70.459622,-33.590835],[-70.459737,-33.590876],[-70.459832,-33.590922],[-70.460051,-33.591039],[-70.461021,-33.59158],[-70.461125,-33.591638],[-70.46113,-33.591641],[-70.46121,-33.591681],[-70.461295,-33.59172],[-70.461382,-33.591756],[-70.461468,-33.591787],[-70.461564,-33.591817],[-70.461659,-33.591843],[-70.461755,-33.591864],[-70.461851,-33.59188],[-70.461947,-33.591893],[-70.462044,-33.591901],[-70.462093,-33.591903],[-70.462132,-33.5919],[-70.462201,-33.591896],[-70.462316,-33.591894],[-70.462386,-33.591894],[-70.462446,-33.591896],[-70.4625,-33.591898],[-70.46257,-33.591902],[-70.462684,-33.591911],[-70.462753,-33.591919],[-70.462867,-33.591935],[-70.462935,-33.591947],[-70.463047,-33.591969],[-70.463113,-33.591984],[-70.463224,-33.592012],[-70.46328,-33.592027],[-70.463289,-33.59203],[-70.463398,-33.592064],[-70.46346,-33.592085],[-70.463568,-33.592125],[-70.463627,-33.59215],[-70.463732,-33.592195],[-70.463789,-33.592222],[-70.463891,-33.592274],[-70.463945,-33.592302],[-70.464044,-33.592359],[-70.464095,-33.59239],[-70.464215,-33.592469],[-70.464331,-33.592553],[-70.464394,-33.592602],[-70.46453,-33.592718],[-70.464543,-33.59273],[-70.464624,-33.59281],[-70.464627,-33.592814],[-70.464995,-33.593232],[-70.465234,-33.593536],[-70.465356,-33.59369],[-70.466933,-33.595437],[-70.467123,-33.595648],[-70.467258,-33.595543],[-70.467562,-33.595308],[-70.467601,-33.595279],[-70.467676,-33.595231],[-70.467971,-33.595059],[-70.46845,-33.594778],[-70.468703,-33.59463],[-70.468755,-33.594594],[-70.468854,-33.594532],[-70.468962,-33.59448],[-70.469077,-33.594438],[-70.469198,-33.594408],[-70.469321,-33.59439],[-70.469446,-33.594384],[-70.469571,-33.59439],[-70.469694,-33.594408],[-70.469814,-33.594438],[-70.469929,-33.59448],[-70.470038,-33.594532],[-70.470138,-33.594595],[-70.47023,-33.594667],[-70.47031,-33.594747],[-70.470379,-33.594835],[-70.470435,-33.594929],[-70.470478,-33.595027],[-70.470507,-33.595129],[-70.470521,-33.595233],[-70.470521,-33.595338],[-70.470507,-33.595442],[-70.470478,-33.595544],[-70.470435,-33.595643],[-70.470379,-33.595736],[-70.47031,-33.595824],[-70.47023,-33.595904],[-70.470138,-33.595976],[-70.470137,-33.595977],[-70.47005,-33.596038],[-70.469976,-33.596085],[-70.469685,-33.596256],[-70.469205,-33.596537],[-70.468971,-33.596674],[-70.468721,-33.596867],[-70.468528,-33.597016],[-70.468338,-33.597163],[-70.468187,-33.597275],[-70.468284,-33.597488],[-70.468394,-33.597732],[-70.468598,-33.598193],[-70.468804,-33.598305],[-70.46885,-33.598331],[-70.469235,-33.598548],[-70.469325,-33.598605],[-70.469391,-33.598655],[-70.469716,-33.598925],[-70.469769,-33.598971],[-70.470854,-33.600007],[-70.471595,-33.600759],[-70.471643,-33.600811],[-70.472309,-33.601596],[-70.472313,-33.6016],[-70.472365,-33.601654],[-70.472434,-33.601742],[-70.472439,-33.60175],[-70.472494,-33.601832],[-70.472921,-33.602387],[-70.473417,-33.602878],[-70.473851,-33.603194],[-70.474149,-33.603361],[-70.474541,-33.603519],[-70.474913,-33.603648],[-70.474986,-33.603676],[-70.475095,-33.603728],[-70.475159,-33.603766],[-70.475505,-33.603989],[-70.475577,-33.604039],[-70.476346,-33.60463],[-70.476549,-33.604788],[-70.476557,-33.60479],[-70.477013,-33.604803],[-70.477101,-33.604809],[-70.477222,-33.604827],[-70.477623,-33.604905],[-70.477625,-33.604906],[-70.477745,-33.604936],[-70.47786,-33.604978],[-70.477968,-33.60503],[-70.47801,-33.605054],[-70.478135,-33.60513],[-70.4784,-33.605257],[-70.478458,-33.605287],[-70.478519,-33.605323],[-70.478923,-33.605581],[-70.478962,-33.605607],[-70.479053,-33.605679],[-70.479065,-33.60569],[-70.479328,-33.605616],[-70.479421,-33.605594],[-70.479544,-33.605576],[-70.479654,-33.60557],[-70.479825,-33.605568],[-70.47984,-33.605568],[-70.479966,-33.605574],[-70.480089,-33.605592],[-70.480184,-33.605615],[-70.480672,-33.605753],[-70.480772,-33.605785],[-70.481586,-33.606094],[-70.481674,-33.606105],[-70.482076,-33.606043],[-70.48208,-33.606043],[-70.482085,-33.606042],[-70.482108,-33.606038],[-70.482218,-33.606022],[-70.482314,-33.606008],[-70.482358,-33.605985],[-70.48243,-33.605946],[-70.482526,-33.6059],[-70.482641,-33.605859],[-70.482665,-33.605852],[-70.483063,-33.60574],[-70.48315,-33.605718],[-70.483519,-33.605642],[-70.483528,-33.605641],[-70.483651,-33.605622],[-70.483776,-33.605616],[-70.483902,-33.605622],[-70.484025,-33.605641],[-70.484088,-33.605655],[-70.484445,-33.605745],[-70.485713,-33.606113],[-70.485811,-33.606101],[-70.48589,-33.606093],[-70.486889,-33.60603],[-70.48697,-33.606027],[-70.487039,-33.606029],[-70.487815,-33.60607],[-70.488382,-33.606093],[-70.488559,-33.6061],[-70.488634,-33.606105],[-70.48874,-33.60612],[-70.488856,-33.606141],[-70.489134,-33.606192],[-70.48915,-33.606195],[-70.489271,-33.606225],[-70.489347,-33.606251],[-70.489644,-33.606364],[-70.489741,-33.606401],[-70.48978,-33.606417],[-70.489854,-33.606451],[-70.491529,-33.607299],[-70.491564,-33.607317],[-70.491641,-33.607364],[-70.492377,-33.607852],[-70.493181,-33.608322],[-70.493232,-33.608353],[-70.493605,-33.608599],[-70.49363,-33.608617],[-70.493721,-33.608689],[-70.4938,-33.608767],[-70.49409,-33.609092],[-70.494092,-33.609093],[-70.494161,-33.609181],[-70.494204,-33.609251],[-70.494264,-33.609358],[-70.494517,-33.609651],[-70.494577,-33.609729],[-70.494634,-33.609823],[-70.494644,-33.609846],[-70.494649,-33.609842],[-70.49474,-33.60977],[-70.49484,-33.609707],[-70.494949,-33.609655],[-70.495064,-33.609613],[-70.495184,-33.609583],[-70.495307,-33.609565],[-70.495432,-33.609559],[-70.49548,-33.60956],[-70.495611,-33.609565],[-70.495688,-33.60957],[-70.495812,-33.609588],[-70.495877,-33.609603],[-70.49607,-33.609652],[-70.496125,-33.609667],[-70.49624,-33.609709],[-70.496348,-33.609761],[-70.496354,-33.609764],[-70.496906,-33.610072],[-70.496977,-33.610115],[-70.498266,-33.610968],[-70.498291,-33.610985],[-70.498362,-33.61104],[-70.498767,-33.611381],[-70.498894,-33.611464],[-70.499022,-33.611525],[-70.499619,-33.611632],[-70.499803,-33.611671],[-70.499914,-33.611694],[-70.500511,-33.611822],[-70.501429,-33.612042],[-70.5015,-33.612061],[-70.50151,-33.612065],[-70.501521,-33.611994],[-70.501545,-33.611837],[-70.501553,-33.611795],[-70.501582,-33.611693],[-70.501625,-33.611595],[-70.501643,-33.61156],[-70.501754,-33.611368],[-70.501792,-33.611309],[-70.501861,-33.611221],[-70.501941,-33.611141],[-70.50203,-33.61107],[-70.502032,-33.611069],[-70.502185,-33.610961],[-70.502187,-33.61096],[-70.502288,-33.610897],[-70.502396,-33.610845],[-70.502402,-33.610842],[-70.50268,-33.610727],[-70.50293,-33.610613],[-70.502962,-33.610599],[-70.503077,-33.610558],[-70.503197,-33.610528],[-70.503321,-33.610509],[-70.50343,-33.610503],[-70.503744,-33.6105],[-70.50376,-33.610499],[-70.503885,-33.610506],[-70.504008,-33.610524],[-70.504123,-33.610552],[-70.504352,-33.610621],[-70.504357,-33.610623],[-70.504472,-33.610664],[-70.504581,-33.610717],[-70.504667,-33.610769],[-70.504926,-33.610945],[-70.504941,-33.610955],[-70.505032,-33.611027],[-70.505113,-33.611107],[-70.505182,-33.611195],[-70.505238,-33.611289],[-70.50524,-33.611293],[-70.505277,-33.611366],[-70.505389,-33.611586],[-70.505604,-33.611449],[-70.505665,-33.611412],[-70.505667,-33.611398],[-70.505673,-33.611317],[-70.50567,-33.611123],[-70.505666,-33.610923],[-70.505668,-33.610857],[-70.505682,-33.610753],[-70.505685,-33.610742],[-70.505729,-33.610546],[-70.505756,-33.610456],[-70.505799,-33.610357],[-70.505855,-33.610264],[-70.505924,-33.610176],[-70.506004,-33.610096],[-70.506095,-33.610024],[-70.506196,-33.609961],[-70.506256,-33.60993],[-70.50644,-33.609843],[-70.506488,-33.609822],[-70.506603,-33.60978],[-70.506723,-33.60975],[-70.506847,-33.609732],[-70.506972,-33.609726],[-70.507075,-33.60973],[-70.507183,-33.609739],[-70.507204,-33.60974],[-70.507328,-33.609759],[-70.507448,-33.609789],[-70.507563,-33.60983],[-70.507609,-33.609851],[-70.507681,-33.609885],[-70.507744,-33.609917],[-70.507844,-33.609979],[-70.507935,-33.610051],[-70.507952,-33.610067],[-70.507974,-33.610087],[-70.50799,-33.610336],[-70.508004,-33.610535],[-70.508061,-33.610749],[-70.508066,-33.610767],[-70.508067,-33.610769],[-70.508006,-33.611347],[-70.508044,-33.611389],[-70.508077,-33.611427],[-70.508082,-33.611521],[-70.508093,-33.611733],[-70.508039,-33.612037],[-70.508019,-33.612149],[-70.508115,-33.61245],[-70.508132,-33.612502],[-70.508143,-33.612537],[-70.508145,-33.612544],[-70.508147,-33.612549],[-70.508213,-33.612711],[-70.508235,-33.612735],[-70.50828,-33.612784],[-70.508408,-33.612925],[-70.508685,-33.613142],[-70.5088,-33.613189],[-70.508902,-33.613231],[-70.508985,-33.613265],[-70.509267,-33.613354],[-70.509348,-33.61338],[-70.509451,-33.613412],[-70.510116,-33.613485],[-70.510253,-33.613491],[-70.510425,-33.613572],[-70.51049,-33.613605],[-70.510555,-33.613644],[-70.510628,-33.613691],[-70.510722,-33.613751],[-70.511493,-33.614054],[-70.511718,-33.614108],[-70.511745,-33.614173],[-70.511769,-33.614244],[-70.511801,-33.614339],[-70.511832,-33.614429],[-70.511898,-33.614556],[-70.511945,-33.614644],[-70.511972,-33.614666],[-70.512055,-33.614733],[-70.512059,-33.614735],[-70.512062,-33.614738],[-70.512083,-33.614741],[-70.512156,-33.61475],[-70.512331,-33.614716],[-70.512424,-33.61468],[-70.512594,-33.614614],[-70.51271,-33.61456],[-70.512815,-33.614511],[-70.512849,-33.614495],[-70.512852,-33.614494],[-70.513473,-33.61449],[-70.513837,-33.61455],[-70.514036,-33.614583],[-70.514131,-33.614576],[-70.514259,-33.614567],[-70.514469,-33.614518],[-70.514549,-33.614495],[-70.514585,-33.614484],[-70.514621,-33.614469],[-70.514684,-33.614441],[-70.514724,-33.61442],[-70.515264,-33.614508],[-70.515307,-33.614515],[-70.515427,-33.614545],[-70.515542,-33.614587],[-70.515558,-33.614594],[-70.515635,-33.614628],[-70.516196,-33.614873],[-70.517034,-33.61523],[-70.51713,-33.615273],[-70.51735,-33.61537],[-70.517457,-33.615417],[-70.51789,-33.615613],[-70.5179,-33.615631],[-70.518057,-33.615805],[-70.51813,-33.615885],[-70.518229,-33.616002],[-70.518299,-33.616084],[-70.518346,-33.61614],[-70.518466,-33.616237],[-70.518769,-33.616341],[-70.518994,-33.616421],[-70.519036,-33.616438],[-70.519187,-33.616499],[-70.519332,-33.616521],[-70.5194,-33.616532],[-70.519602,-33.616522],[-70.519814,-33.616513],[-70.519819,-33.616513],[-70.519829,-33.616512],[-70.520044,-33.616502],[-70.520173,-33.61651],[-70.520212,-33.616513],[-70.520278,-33.616565],[-70.520359,-33.616646],[-70.520428,-33.616733],[-70.520468,-33.616801],[-70.520565,-33.616821],[-70.520613,-33.616812],[-70.520651,-33.616806],[-70.521005,-33.616747],[-70.521136,-33.616725],[-70.52117,-33.61672],[-70.521233,-33.616735],[-70.521555,-33.616807],[-70.521601,-33.616817],[-70.5217,-33.61684],[-70.521814,-33.616866],[-70.521863,-33.616877],[-70.523891,-33.616867],[-70.523983,-33.616867],[-70.524042,-33.616867],[-70.524177,-33.616866],[-70.524784,-33.61693],[-70.524788,-33.61693],[-70.524997,-33.616952],[-70.525161,-33.616969],[-70.525779,-33.617034],[-70.526209,-33.617095],[-70.526262,-33.617102],[-70.526692,-33.617156],[-70.526839,-33.617174],[-70.526958,-33.617188],[-70.527166,-33.617213],[-70.527262,-33.617228],[-70.527367,-33.617254],[-70.527843,-33.617392],[-70.52799,-33.617436],[-70.528261,-33.617517],[-70.528723,-33.617665],[-70.528955,-33.617749],[-70.529017,-33.617772],[-70.52907,-33.617793],[-70.529169,-33.61784],[-70.529323,-33.617922],[-70.529385,-33.617956],[-70.529464,-33.617999],[-70.529568,-33.618049],[-70.529923,-33.618221],[-70.531068,-33.61877],[-70.531181,-33.618828],[-70.5313,-33.618889],[-70.531429,-33.618956],[-70.531605,-33.619046],[-70.531943,-33.619048],[-70.53195,-33.619048],[-70.53228,-33.619041],[-70.532465,-33.619031],[-70.532565,-33.619025],[-70.532619,-33.619015],[-70.532624,-33.619013],[-70.532794,-33.61891],[-70.533011,-33.618789],[-70.533204,-33.618684],[-70.53329,-33.618642],[-70.533452,-33.618571],[-70.533551,-33.618528],[-70.533567,-33.618521],[-70.533682,-33.61848],[-70.533762,-33.618458],[-70.533949,-33.618415],[-70.533962,-33.618412],[-70.534002,-33.618403],[-70.534125,-33.618385],[-70.534203,-33.61838],[-70.53444,-33.618371],[-70.534487,-33.61837],[-70.534579,-33.618374],[-70.534876,-33.618395],[-70.53491,-33.618398],[-70.535033,-33.618416],[-70.535102,-33.618431],[-70.535372,-33.618501],[-70.535581,-33.618561],[-70.535618,-33.618572],[-70.535637,-33.618577],[-70.535752,-33.618619],[-70.53586,-33.618671],[-70.535926,-33.618707],[-70.536016,-33.618757],[-70.536125,-33.618816],[-70.536125,-33.618817],[-70.536226,-33.618879],[-70.53624,-33.61889],[-70.536485,-33.619068],[-70.536562,-33.61913],[-70.53661,-33.619175],[-70.536635,-33.6192],[-70.536636,-33.619201],[-70.536653,-33.619218],[-70.536656,-33.619222],[-70.53674,-33.619307],[-70.536791,-33.619363],[-70.536879,-33.619469],[-70.53693,-33.619535],[-70.536948,-33.619562],[-70.537112,-33.619819],[-70.537151,-33.619887],[-70.537194,-33.619985],[-70.537197,-33.619995],[-70.537252,-33.620157],[-70.537278,-33.620249],[-70.537292,-33.620342],[-70.537308,-33.620541],[-70.537312,-33.620756],[-70.537319,-33.620819],[-70.537336,-33.620838],[-70.537392,-33.620902],[-70.537399,-33.620911],[-70.537493,-33.62095],[-70.53879,-33.621454],[-70.538801,-33.621459],[-70.538804,-33.62146],[-70.539318,-33.621667],[-70.539944,-33.621919],[-70.541048,-33.62234],[-70.5423,-33.622817],[-70.543055,-33.623105],[-70.543299,-33.6232],[-70.544393,-33.623622],[-70.545204,-33.623925],[-70.54523,-33.623935],[-70.545251,-33.623943],[-70.545436,-33.624012],[-70.545446,-33.624016],[-70.54545,-33.624018],[-70.545588,-33.624071],[-70.545633,-33.624089],[-70.545876,-33.624181],[-70.545895,-33.624189],[-70.546388,-33.624377],[-70.547161,-33.624673],[-70.54729,-33.624723],[-70.54818,-33.625064],[-70.548605,-33.625227],[-70.549208,-33.625458],[-70.549209,-33.625458],[-70.54921,-33.625458],[-70.54921,-33.625459],[-70.549968,-33.625749],[-70.550272,-33.625865],[-70.551725,-33.626421],[-70.55215,-33.626582],[-70.553338,-33.627031],[-70.55335,-33.627036],[-70.553407,-33.627058],[-70.553466,-33.627081],[-70.553511,-33.627098],[-70.553597,-33.627131],[-70.553638,-33.627146],[-70.553691,-33.627167],[-70.553692,-33.627167],[-70.553751,-33.627189],[-70.553819,-33.627214],[-70.553838,-33.627221],[-70.553853,-33.627227],[-70.553875,-33.627235],[-70.553889,-33.62724],[-70.553912,-33.627249],[-70.55393,-33.627256],[-70.553935,-33.627257],[-70.55394,-33.627259],[-70.553948,-33.627262],[-70.553965,-33.627269],[-70.553986,-33.627277],[-70.554002,-33.627283],[-70.554021,-33.62729],[-70.554039,-33.627296],[-70.55405,-33.6273],[-70.554072,-33.627309],[-70.554085,-33.627314],[-70.554094,-33.627317],[-70.554109,-33.627323],[-70.554111,-33.627324],[-70.554123,-33.627328],[-70.554127,-33.62733],[-70.554128,-33.62733],[-70.554138,-33.627334],[-70.554148,-33.627338],[-70.554165,-33.627344],[-70.554258,-33.62738],[-70.554384,-33.627429],[-70.554675,-33.627535],[-70.55504,-33.627686],[-70.555433,-33.62784],[-70.555714,-33.62795],[-70.555962,-33.628047],[-70.555989,-33.628057],[-70.556518,-33.628255],[-70.556549,-33.628267],[-70.55666,-33.628308],[-70.558666,-33.629057],[-70.559421,-33.629353],[-70.559773,-33.629486],[-70.559803,-33.629498],[-70.559819,-33.629503],[-70.560181,-33.62964],[-70.560183,-33.62964],[-70.560184,-33.629641],[-70.560359,-33.629707],[-70.560619,-33.629806],[-70.561472,-33.630136],[-70.5631,-33.630767],[-70.563511,-33.630926],[-70.563551,-33.630942],[-70.563554,-33.630943],[-70.563647,-33.630979],[-70.56365,-33.630981],[-70.563669,-33.630988],[-70.5639,-33.631086],[-70.565486,-33.631683],[-70.566013,-33.631881],[-70.566205,-33.63196],[-70.566214,-33.631963],[-70.566234,-33.631971],[-70.566656,-33.632129],[-70.567628,-33.632488],[-70.567973,-33.6319],[-70.569617,-33.630482],[-70.571703,-33.629559],[-70.57369,-33.62927],[-70.573696,-33.629266],[-70.573739,-33.629241],[-70.573792,-33.629211],[-70.573811,-33.6292],[-70.573913,-33.629151],[-70.573952,-33.629134],[-70.573917,-33.629055],[-70.573889,-33.628953],[-70.573877,-33.628882],[-70.573876,-33.628871],[-70.573844,-33.628725],[-70.573828,-33.62864],[-70.573817,-33.628557],[-70.573811,-33.628482],[-70.57381,-33.628423],[-70.573814,-33.628324],[-70.573819,-33.628273],[-70.573832,-33.628197],[-70.573857,-33.628103],[-70.573858,-33.628102],[-70.57388,-33.62804],[-70.573931,-33.627908],[-70.573972,-33.62781],[-70.573995,-33.62776],[-70.57403,-33.627688],[-70.574102,-33.627535],[-70.574153,-33.627403],[-70.574182,-33.627339],[-70.574222,-33.627259],[-70.574272,-33.627171],[-70.574317,-33.627089],[-70.574349,-33.627029],[-70.574364,-33.626994],[-70.574383,-33.626956],[-70.574437,-33.626848],[-70.574491,-33.626743],[-70.574494,-33.626738],[-70.574539,-33.626647],[-70.574544,-33.626638],[-70.574633,-33.62646],[-70.574644,-33.626437],[-70.574659,-33.626407],[-70.574673,-33.626377],[-70.574696,-33.626326],[-70.574733,-33.626241],[-70.574861,-33.626282],[-70.574873,-33.626286],[-70.575197,-33.626442],[-70.575521,-33.626598],[-70.57554,-33.62662],[-70.57555,-33.62663],[-70.5756,-33.626688],[-70.575614,-33.626703],[-70.575614,-33.626704],[-70.575618,-33.626709],[-70.575646,-33.626741],[-70.575654,-33.626747],[-70.575656,-33.62675],[-70.575664,-33.626758],[-70.575666,-33.62676],[-70.575676,-33.62677],[-70.575677,-33.62677],[-70.575678,-33.626772],[-70.575679,-33.626772],[-70.575681,-33.626774],[-70.575683,-33.626776],[-70.575694,-33.626787],[-70.575727,-33.626821],[-70.575771,-33.626865],[-70.575934,-33.626955],[-70.576035,-33.627011],[-70.576373,-33.627191],[-70.576556,-33.627286],[-70.576533,-33.627333],[-70.576527,-33.627345],[-70.576479,-33.627439],[-70.576476,-33.627446],[-70.576422,-33.627553],[-70.576373,-33.627649],[-70.576368,-33.62766],[-70.576335,-33.62773],[-70.576282,-33.62783],[-70.576281,-33.627832],[-70.576276,-33.627841],[-70.576223,-33.627936],[-70.576191,-33.627993],[-70.576188,-33.627999],[-70.576131,-33.628142],[-70.576031,-33.628361],[-70.575997,-33.628428],[-70.575996,-33.628432],[-70.576086,-33.628534],[-70.576365,-33.628838],[-70.576467,-33.62896],[-70.576473,-33.628967],[-70.576494,-33.628993],[-70.576587,-33.629118],[-70.576604,-33.629142],[-70.57666,-33.629235],[-70.576682,-33.629282],[-70.576727,-33.629338],[-70.576757,-33.629381],[-70.576761,-33.629387],[-70.576765,-33.629393],[-70.576822,-33.629487],[-70.576865,-33.629586],[-70.576893,-33.629688],[-70.576894,-33.629689],[-70.576899,-33.629714],[-70.5769,-33.629719],[-70.578486,-33.630369],[-70.579828,-33.631459],[-70.579855,-33.631526],[-70.579876,-33.631579],[-70.580017,-33.63219],[-70.579979,-33.632376],[-70.579983,-33.632633],[-70.580002,-33.633061],[-70.580028,-33.63334],[-70.580069,-33.633556],[-70.580141,-33.633708],[-70.580272,-33.633874],[-70.580434,-33.63406],[-70.580536,-33.634177],[-70.580778,-33.634345],[-70.580935,-33.634451],[-70.581257,-33.634605],[-70.581529,-33.634664],[-70.581689,-33.635436],[-70.581356,-33.637391],[-70.581196,-33.637662],[-70.582323,-33.638092],[-70.583371,-33.638499],[-70.585137,-33.639183],[-70.585167,-33.639195],[-70.586637,-33.639746],[-70.588009,-33.640282],[-70.588285,-33.640388],[-70.588289,-33.640389],[-70.588379,-33.640423],[-70.588379,-33.640424],[-70.588464,-33.640456],[-70.588505,-33.640472],[-70.588644,-33.640525],[-70.588741,-33.640562],[-70.589137,-33.640714],[-70.589246,-33.640755],[-70.59139,-33.641579],[-70.592651,-33.642055],[-70.5932,-33.642266],[-70.594533,-33.642797],[-70.594633,-33.642836],[-70.594806,-33.642905],[-70.595249,-33.643069],[-70.595604,-33.643201],[-70.596764,-33.643632],[-70.596824,-33.643655],[-70.596834,-33.643659],[-70.596839,-33.64366],[-70.598477,-33.644292],[-70.598591,-33.644337],[-70.598966,-33.644481],[-70.599783,-33.644795],[-70.599898,-33.644839],[-70.601598,-33.645505],[-70.602446,-33.645826],[-70.602579,-33.645876],[-70.602852,-33.645979],[-70.604335,-33.646551],[-70.605862,-33.647129],[-70.606401,-33.647334],[-70.60644,-33.647349],[-70.60644,-33.64735],[-70.60645,-33.647353],[-70.606517,-33.647379],[-70.606529,-33.647384],[-70.607475,-33.647755],[-70.608836,-33.648259],[-70.608899,-33.648278],[-70.609099,-33.648309],[-70.609458,-33.648363],[-70.609526,-33.648375],[-70.610222,-33.648519],[-70.610732,-33.648625],[-70.611485,-33.648768],[-70.611671,-33.648803],[-70.611682,-33.648805],[-70.61169,-33.648807],[-70.611865,-33.648843],[-70.612334,-33.648939],[-70.612578,-33.648965],[-70.613214,-33.648889],[-70.613569,-33.648841],[-70.613831,-33.648806],[-70.614327,-33.64874],[-70.615798,-33.648531],[-70.616059,-33.648494],[-70.616353,-33.648448],[-70.61688,-33.648366],[-70.617031,-33.648342],[-70.617157,-33.648307],[-70.617216,-33.64829],[-70.617268,-33.648274],[-70.617785,-33.648105],[-70.617791,-33.648103],[-70.618254,-33.647953],[-70.618678,-33.64783],[-70.618797,-33.647795],[-70.618843,-33.647782],[-70.618907,-33.647765],[-70.619188,-33.6477],[-70.619201,-33.647697],[-70.619241,-33.647689],[-70.619365,-33.64767],[-70.619484,-33.647664],[-70.6195,-33.647664],[-70.619858,-33.647662],[-70.619884,-33.64766],[-70.620144,-33.647639],[-70.620155,-33.647638],[-70.620285,-33.647623],[-70.620366,-33.647611],[-70.620409,-33.647601],[-70.620452,-33.647587],[-70.620566,-33.647534],[-70.620919,-33.647327],[-70.621198,-33.64716],[-70.621386,-33.647054],[-70.62145,-33.647021],[-70.621878,-33.646815],[-70.621932,-33.646791],[-70.622006,-33.646763],[-70.622482,-33.646599],[-70.62255,-33.646578],[-70.623018,-33.646447],[-70.623297,-33.64634],[-70.623385,-33.646294],[-70.623565,-33.646193],[-70.623876,-33.646019],[-70.623971,-33.645971],[-70.624141,-33.645896],[-70.624196,-33.645872],[-70.624217,-33.645863],[-70.624332,-33.645821],[-70.624427,-33.645796],[-70.624641,-33.645749],[-70.624653,-33.645747],[-70.624678,-33.645742],[-70.624801,-33.645724],[-70.624807,-33.645723],[-70.624987,-33.645706],[-70.625106,-33.645701],[-70.625114,-33.645701],[-70.625359,-33.645702],[-70.625434,-33.645703],[-70.626214,-33.645708],[-70.626331,-33.645714],[-70.626385,-33.64572],[-70.626501,-33.645737],[-70.62657,-33.645748],[-70.62663,-33.645762],[-70.626875,-33.645823],[-70.626935,-33.64584],[-70.627051,-33.645881],[-70.627111,-33.645909],[-70.627274,-33.645988],[-70.627475,-33.646087],[-70.627803,-33.646216],[-70.627833,-33.646225],[-70.627893,-33.646237],[-70.628088,-33.64625],[-70.628133,-33.646253],[-70.628269,-33.646246],[-70.62829,-33.646245],[-70.628352,-33.646232],[-70.628499,-33.646188],[-70.628519,-33.646182],[-70.629029,-33.646028],[-70.629054,-33.646021],[-70.629106,-33.646004],[-70.629767,-33.645819],[-70.629839,-33.645799],[-70.62984,-33.645799],[-70.629854,-33.645794],[-70.630018,-33.645734],[-70.630086,-33.645709],[-70.630153,-33.645684],[-70.630345,-33.645623],[-70.630381,-33.645612],[-70.630494,-33.645576],[-70.630503,-33.645573],[-70.630751,-33.64548],[-70.631358,-33.645252],[-70.631368,-33.645249],[-70.631381,-33.645244],[-70.631422,-33.64523],[-70.631441,-33.645259],[-70.63156,-33.645528],[-70.631578,-33.645571],[-70.631644,-33.645722],[-70.63176,-33.645986],[-70.631771,-33.646009],[-70.631799,-33.646075],[-70.6318,-33.646075],[-70.6318,-33.646076],[-70.631812,-33.646104],[-70.631917,-33.646344],[-70.631932,-33.646378],[-70.632074,-33.646702],[-70.632171,-33.646923],[-70.631873,-33.647036],[-70.631867,-33.647054],[-70.631799,-33.647329],[-70.631781,-33.647396],[-70.631763,-33.647453],[-70.63172,-33.647551],[-70.631664,-33.647645],[-70.63166,-33.647651],[-70.631465,-33.647928],[-70.6314,-33.64801],[-70.631356,-33.648056],[-70.631202,-33.648207],[-70.631166,-33.648241],[-70.631075,-33.648313],[-70.631029,-33.648343],[-70.630874,-33.648441],[-70.630819,-33.648473],[-70.63071,-33.648526],[-70.630657,-33.648547],[-70.630572,-33.648577],[-70.630351,-33.648658],[-70.630161,-33.648741],[-70.62995,-33.648878],[-70.629879,-33.648921],[-70.62977,-33.648973],[-70.629768,-33.648974],[-70.629591,-33.649048],[-70.629478,-33.649089],[-70.629447,-33.649098],[-70.629098,-33.649194],[-70.628651,-33.64931],[-70.62852,-33.649378],[-70.628285,-33.649536],[-70.628201,-33.649587],[-70.628162,-33.649608],[-70.62767,-33.649854],[-70.627449,-33.649999],[-70.62726,-33.650151],[-70.627133,-33.650297],[-70.6271,-33.650357],[-70.627055,-33.650428],[-70.627004,-33.650494],[-70.626995,-33.650516],[-70.626966,-33.650574],[-70.62696,-33.650626],[-70.626981,-33.650665],[-70.627105,-33.650856],[-70.62711,-33.650863],[-70.627183,-33.650947],[-70.627286,-33.651054],[-70.627352,-33.651116],[-70.627517,-33.651219],[-70.627568,-33.651252],[-70.627641,-33.651309],[-70.627899,-33.651527],[-70.628447,-33.65188],[-70.628568,-33.651906],[-70.628649,-33.651923],[-70.628747,-33.651949],[-70.628862,-33.651991],[-70.628971,-33.652043],[-70.629071,-33.652106],[-70.629162,-33.652178],[-70.629243,-33.652258],[-70.629312,-33.652345],[-70.629353,-33.65241],[-70.629426,-33.652541],[-70.629442,-33.652569],[-70.629485,-33.652668],[-70.629514,-33.65277],[-70.629528,-33.652874],[-70.629529,-33.652962],[-70.629519,-33.653177],[-70.629518,-33.653194],[-70.629504,-33.653298],[-70.629486,-33.653365],[-70.629411,-33.653611],[-70.629365,-33.653761],[-70.629294,-33.653992],[-70.629294,-33.654035],[-70.6293,-33.654057],[-70.629427,-33.654217],[-70.629462,-33.654264],[-70.629518,-33.654358],[-70.629561,-33.654456],[-70.62959,-33.654558],[-70.629601,-33.654626],[-70.629635,-33.654912],[-70.629639,-33.654948],[-70.629639,-33.655053],[-70.629629,-33.655135],[-70.62956,-33.655514],[-70.629502,-33.655761],[-70.629535,-33.655814],[-70.62966,-33.656015],[-70.629693,-33.656074],[-70.629716,-33.656121],[-70.629835,-33.656394],[-70.629856,-33.656445],[-70.629885,-33.656547],[-70.629899,-33.656651],[-70.6299,-33.656746],[-70.629889,-33.656937],[-70.629888,-33.656947],[-70.629874,-33.657051],[-70.629845,-33.657153],[-70.629827,-33.657198],[-70.629787,-33.657292],[-70.629803,-33.657573],[-70.629828,-33.657898],[-70.629834,-33.657975],[-70.629838,-33.658028],[-70.62984,-33.65804],[-70.629874,-33.658339],[-70.62989,-33.658491],[-70.629914,-33.658943],[-70.629914,-33.659034],[-70.629899,-33.659139],[-70.62987,-33.659241],[-70.629855,-33.659281],[-70.629174,-33.660902],[-70.629167,-33.660918],[-70.629162,-33.66093],[-70.628279,-33.662831],[-70.628209,-33.66298],[-70.627151,-33.665259],[-70.627069,-33.665456],[-70.626696,-33.666347],[-70.626527,-33.666691],[-70.626493,-33.666762],[-70.626329,-33.667095],[-70.626131,-33.667496],[-70.626108,-33.667544],[-70.62577,-33.66823],[-70.625655,-33.668463],[-70.625592,-33.668591],[-70.625282,-33.669275],[-70.625264,-33.669313],[-70.62525,-33.669338],[-70.625005,-33.669777],[-70.624972,-33.669835],[-70.62488,-33.669995],[-70.624832,-33.67008],[-70.624794,-33.67014],[-70.624725,-33.670227],[-70.624644,-33.670308],[-70.624553,-33.67038],[-70.624472,-33.670431],[-70.624387,-33.67048],[-70.624368,-33.670491],[-70.624259,-33.670544],[-70.624144,-33.670585],[-70.624024,-33.670615],[-70.6239,-33.670633],[-70.622835,-33.670738],[-70.62237,-33.670783],[-70.622238,-33.670796],[-70.622167,-33.670803],[-70.621996,-33.672015],[-70.621924,-33.672525],[-70.621828,-33.673202],[-70.621716,-33.673997],[-70.621648,-33.674684],[-70.621613,-33.675038],[-70.621573,-33.675438],[-70.62155,-33.675678],[-70.621537,-33.67576],[-70.621508,-33.675862],[-70.621503,-33.675875],[-70.621471,-33.675959],[-70.621437,-33.676294],[-70.621351,-33.676885],[-70.621321,-33.677088],[-70.621312,-33.677135],[-70.621296,-33.677199],[-70.621108,-33.677822],[-70.621079,-33.677902],[-70.620796,-33.67857],[-70.620641,-33.678934],[-70.620605,-33.67902],[-70.620454,-33.679374],[-70.620303,-33.67973],[-70.62017,-33.680041],[-70.619835,-33.680749],[-70.619753,-33.680927],[-70.619461,-33.681556],[-70.619019,-33.682652],[-70.618996,-33.682704],[-70.618762,-33.683184],[-70.618761,-33.683186],[-70.618761,-33.683187],[-70.618229,-33.684272],[-70.618197,-33.684339],[-70.617623,-33.685571],[-70.617508,-33.685818],[-70.617197,-33.686519],[-70.61712,-33.686693],[-70.617077,-33.686779],[-70.616766,-33.687397],[-70.616582,-33.687765],[-70.616508,-33.68791],[-70.616508,-33.687924],[-70.616493,-33.688028],[-70.616464,-33.68813],[-70.616422,-33.688229],[-70.616365,-33.688323],[-70.616296,-33.68841],[-70.616216,-33.688491],[-70.616204,-33.6885],[-70.616138,-33.688557],[-70.614448,-33.69218],[-70.614404,-33.692262],[-70.614279,-33.692466],[-70.614252,-33.692508],[-70.614183,-33.692595],[-70.614103,-33.692676],[-70.614011,-33.692748],[-70.613911,-33.69281],[-70.613816,-33.692857],[-70.613719,-33.692899],[-70.613561,-33.692968],[-70.613547,-33.692973],[-70.613438,-33.693013],[-70.612003,-33.693458],[-70.611104,-33.693757],[-70.60944,-33.69431],[-70.609591,-33.694882],[-70.609871,-33.69594],[-70.610036,-33.696564],[-70.610258,-33.697403],[-70.610389,-33.697898],[-70.610652,-33.698894],[-70.610745,-33.699253],[-70.610986,-33.700185],[-70.611253,-33.701219],[-70.611261,-33.701253],[-70.611262,-33.701256],[-70.61127,-33.701282],[-70.611493,-33.702147],[-70.611536,-33.702314],[-70.611664,-33.702808],[-70.612093,-33.704468],[-70.612099,-33.704488],[-70.612099,-33.704489],[-70.612099,-33.70449],[-70.612127,-33.704596],[-70.612333,-33.705387],[-70.612482,-33.705956],[-70.612549,-33.706211],[-70.612736,-33.706928],[-70.612806,-33.707194],[-70.612846,-33.707349],[-70.612953,-33.707763],[-70.612985,-33.707886],[-70.613974,-33.707449],[-70.616302,-33.707109],[-70.618641,-33.707388],[-70.620763,-33.708256],[-70.62246,-33.709631],[-70.623566,-33.711376],[-70.623602,-33.711549],[-70.623534,-33.711593],[-70.623013,-33.711931],[-70.623004,-33.711938],[-70.622616,-33.712255],[-70.6226,-33.712273],[-70.622387,-33.712515],[-70.622383,-33.71253],[-70.622278,-33.712934],[-70.62204,-33.713841],[-70.62196,-33.714055],[-70.621795,-33.714359],[-70.62175,-33.714544],[-70.621717,-33.71468],[-70.621709,-33.714759],[-70.621681,-33.715035],[-70.621686,-33.715336],[-70.62178,-33.715796],[-70.621793,-33.715839],[-70.621898,-33.716201],[-70.622007,-33.716574],[-70.622121,-33.717013],[-70.622144,-33.717104],[-70.622129,-33.717441]]]}}]}
